{"type":"FeatureCollection","name":"Arunachal_Pradesh","crs":{"type":"name","properties":{"name":"urn:ogc:def:crs:OGC:1.3:CRS84"}},"features":[{"type":"Feature","properties":{"ID_0":105,"ISO":"IND","NAME_0":"India","ID_1":3,"NAME_1":"Arunachal Pradesh","TYPE_1":"State","ENGTYPE_1":"State","NL_NAME_1":null,"VARNAME_1":"Agence de la Frontière du Nord-Est(French-obsolete)|North East Frontier Agency"},"geometry":{"type":"Polygon","coordinates":[[[96.1578,29.3831],[96.1638,29.3767],[96.1752,29.3645],[96.1803,29.3555],[96.1858,29.3445],[96.1851,29.3391],[96.1831,29.3093],[96.1884,29.3046],[96.1972,29.2981],[96.2032,29.2936],[96.2075,29.2818],[96.2101,29.2749],[96.2262,29.2598],[96.2342,29.2435],[96.2436,29.2351],[96.2508,29.2332],[96.2657,29.2366],[96.2661,29.2365],[96.2828,29.2353],[96.293,29.2358],[96.2935,29.2363],[96.3126,29.2591],[96.3202,29.2617],[96.3453,29.2674],[96.3507,29.2719],[96.3584,29.2815],[96.3632,29.2856],[96.369,29.2863],[96.375,29.2837],[96.3755,29.2832],[96.3758,29.2829],[96.3821,29.2764],[96.3875,29.2638],[96.3928,29.2565],[96.3918,29.2462],[96.3887,29.2367],[96.3877,29.2337],[96.3802,29.2266],[96.3714,29.218],[96.3694,29.2138],[96.3663,29.2075],[96.363,29.1984],[96.3585,29.1816],[96.3464,29.171],[96.3326,29.1695],[96.31,29.1685],[96.3076,29.1684],[96.3064,29.1679],[96.2906,29.1621],[96.2725,29.1607],[96.2667,29.1611],[96.2602,29.1602],[96.2555,29.1542],[96.2489,29.1502],[96.2388,29.1485],[96.2381,29.1484],[96.2278,29.1464],[96.2175,29.1381],[96.2151,29.1333],[96.2087,29.1207],[96.205,29.1144],[96.2003,29.1059],[96.1856,29.0946],[96.1798,29.0921],[96.1695,29.0876],[96.1632,29.0867],[96.1555,29.0857],[96.1242,29.0807],[96.1145,29.0776],[96.1367,29.0645],[96.1504,29.0531],[96.1608,29.0365],[96.1652,29.0201],[96.1688,29.0129],[96.1756,29.0035],[96.1802,28.9994],[96.1849,28.9881],[96.1845,28.9778],[96.1804,28.9685],[96.1622,28.9597],[96.1552,28.9556],[96.1541,28.9465],[96.1503,28.9431],[96.1452,28.9375],[96.1553,28.9283],[96.163,28.9221],[96.1656,28.914],[96.1665,28.9059],[96.1747,28.9043],[96.186,28.912],[96.2047,28.9192],[96.2155,28.9233],[96.2281,28.9293],[96.2483,28.9428],[96.2557,28.9593],[96.2607,28.9651],[96.2682,28.9713],[96.2819,28.9837],[96.2866,28.992],[96.2937,28.9987],[96.3011,29.0022],[96.3091,29.0056],[96.3141,29.0085],[96.3215,29.0128],[96.3373,29.0245],[96.3414,29.0279],[96.3467,29.0323],[96.3574,29.0342],[96.3687,29.035],[96.389,29.0341],[96.4044,29.0354],[96.4209,29.037],[96.4358,29.0376],[96.4386,29.0385],[96.4498,29.0423],[96.45,29.0424],[96.4589,29.0458],[96.4649,29.0523],[96.4666,29.054],[96.4694,29.0557],[96.4772,29.0601],[96.4799,29.0612],[96.4916,29.0658],[96.5003,29.0709],[96.5082,29.0738],[96.5186,29.0785],[96.5252,29.0793],[96.5117,29.0526],[96.5054,29.0419],[96.4988,29.0313],[96.4928,29.0203],[96.4886,29.0105],[96.4843,29.0053],[96.4774,28.994],[96.4812,28.9823],[96.4814,28.9816],[96.4815,28.9811],[96.4843,28.9728],[96.4875,28.9653],[96.4932,28.9623],[96.4937,28.9624],[96.5008,28.9637],[96.5134,28.9703],[96.5188,28.971],[96.5212,28.9652],[96.5226,28.9555],[96.5237,28.948],[96.5303,28.937],[96.5355,28.93],[96.5379,28.9232],[96.5387,28.921],[96.5369,28.9097],[96.5361,28.8972],[96.5375,28.8841],[96.5423,28.8792],[96.5469,28.8745],[96.5527,28.8641],[96.5532,28.8631],[96.5538,28.8624],[96.5598,28.8559],[96.5629,28.848],[96.567,28.8419],[96.5759,28.8305],[96.5843,28.8215],[96.5951,28.8152],[96.6038,28.8044],[96.6084,28.7981],[96.6112,28.79],[96.616,28.7786],[96.6155,28.7648],[96.6136,28.7598],[96.6094,28.7534],[96.5982,28.738],[96.5859,28.7216],[96.5723,28.7147],[96.56,28.7119],[96.5322,28.7115],[96.5272,28.7102],[96.5224,28.709],[96.508,28.7011],[96.4984,28.6926],[96.4906,28.6885],[96.4843,28.6883],[96.4727,28.6882],[96.4705,28.6846],[96.4743,28.6803],[96.475,28.6795],[96.4784,28.6729],[96.4839,28.6653],[96.4868,28.6588],[96.4911,28.6507],[96.4916,28.6499],[96.4952,28.6438],[96.4941,28.6382],[96.4842,28.6315],[96.4729,28.6225],[96.4583,28.6139],[96.4444,28.606],[96.4394,28.6008],[96.435,28.597],[96.4281,28.5871],[96.4225,28.585],[96.4151,28.5884],[96.4074,28.5944],[96.4009,28.5943],[96.3999,28.5904],[96.4062,28.5779],[96.4067,28.5715],[96.4066,28.564],[96.4008,28.5624],[96.3942,28.5627],[96.3864,28.5637],[96.3708,28.5642],[96.368,28.5635],[96.3546,28.5606],[96.3432,28.5511],[96.3348,28.5385],[96.3257,28.534],[96.3243,28.5303],[96.3311,28.5266],[96.3322,28.5261],[96.3421,28.5212],[96.353,28.5149],[96.3609,28.5097],[96.3666,28.5047],[96.3717,28.4968],[96.373,28.487],[96.3697,28.4829],[96.367,28.4795],[96.3414,28.47],[96.3351,28.4628],[96.3239,28.455],[96.3096,28.4457],[96.2971,28.4391],[96.2848,28.4308],[96.2745,28.424],[96.266,28.417],[96.2638,28.4134],[96.2674,28.4102],[96.2729,28.4094],[96.277,28.4089],[96.2878,28.4087],[96.2993,28.4067],[96.3046,28.4047],[96.3081,28.4004],[96.3103,28.3976],[96.3153,28.3884],[96.3199,28.3862],[96.3305,28.3878],[96.3618,28.3938],[96.3709,28.3943],[96.3748,28.3873],[96.38,28.3641],[96.3922,28.3626],[96.3994,28.3445],[96.4127,28.3467],[96.4229,28.351],[96.427,28.3634],[96.4287,28.3725],[96.4299,28.3811],[96.4305,28.3861],[96.432,28.3917],[96.4391,28.401],[96.447,28.4072],[96.4538,28.4156],[96.4583,28.4192],[96.4697,28.4228],[96.48,28.4246],[96.4967,28.4236],[96.5063,28.4201],[96.5103,28.4183],[96.5201,28.4233],[96.5339,28.4346],[96.5511,28.4422],[96.5595,28.453],[96.5796,28.4631],[96.5987,28.4662],[96.6214,28.4644],[96.6392,28.4641],[96.6601,28.4664],[96.6646,28.4658],[96.6754,28.4568],[96.6814,28.4512],[96.6873,28.4483],[96.7062,28.4375],[96.7169,28.4329],[96.734,28.4308],[96.74,28.4272],[96.7511,28.4217],[96.7575,28.4154],[96.7632,28.4042],[96.7673,28.3897],[96.7707,28.3808],[96.7744,28.3741],[96.7826,28.3704],[96.7971,28.3705],[96.8116,28.3681],[96.8265,28.3672],[96.8522,28.3684],[96.8625,28.3783],[96.8696,28.3808],[96.88,28.3828],[96.894,28.3861],[96.8987,28.3859],[96.9042,28.3799],[96.9103,28.3714],[96.92,28.3633],[96.9198,28.3592],[96.9209,28.3522],[96.9259,28.345],[96.9423,28.3421],[96.9528,28.34],[96.9619,28.332],[96.9741,28.3237],[96.9797,28.3223],[96.987,28.3222],[96.9965,28.3162],[97.0043,28.3184],[97.0227,28.3263],[97.0272,28.3301],[97.0364,28.3387],[97.0414,28.3492],[97.0453,28.3541],[97.0518,28.3581],[97.0611,28.3583],[97.0661,28.3595],[97.0793,28.3651],[97.0926,28.3697],[97.0949,28.3688],[97.0983,28.3675],[97.1042,28.363],[97.1128,28.3589],[97.121,28.358],[97.1259,28.3562],[97.1298,28.3514],[97.139,28.3444],[97.152,28.334],[97.1588,28.3269],[97.1654,28.313],[97.1694,28.3023],[97.1739,28.2991],[97.178,28.2973],[97.183,28.2963],[97.1926,28.2944],[97.2027,28.2956],[97.214,28.2991],[97.2242,28.2999],[97.228,28.2945],[97.2342,28.2808],[97.2412,28.2751],[97.2544,28.2765],[97.2681,28.2783],[97.2821,28.2763],[97.2926,28.2706],[97.3063,28.264],[97.3077,28.2581],[97.313,28.2518],[97.322,28.2519],[97.3274,28.2508],[97.3338,28.2478],[97.3417,28.2422],[97.3495,28.2358],[97.3514,28.2343],[97.3569,28.2332],[97.365,28.2316],[97.3747,28.2256],[97.377,28.2234],[97.3812,28.2195],[97.3897,28.2124],[97.4006,28.2005],[97.4004,28.1935],[97.3922,28.1912],[97.3872,28.1945],[97.3822,28.1966],[97.372,28.2004],[97.3636,28.1965],[97.3618,28.1932],[97.3592,28.1884],[97.3518,28.1815],[97.3413,28.1723],[97.3308,28.163],[97.3271,28.1543],[97.3247,28.1482],[97.3267,28.1416],[97.3317,28.1357],[97.335,28.1313],[97.3351,28.1311],[97.34,28.1245],[97.339,28.1195],[97.3272,28.1095],[97.3175,28.101],[97.3169,28.1005],[97.3102,28.0933],[97.3081,28.0857],[97.3077,28.0771],[97.3118,28.07],[97.3189,28.0671],[97.3317,28.0654],[97.3453,28.0666],[97.3498,28.067],[97.3568,28.0676],[97.366,28.0681],[97.3735,28.0702],[97.374,28.0626],[97.3718,28.0589],[97.368,28.0524],[97.3771,28.0391],[97.3822,28.0402],[97.3898,28.0374],[97.3986,28.0341],[97.4056,28.03],[97.4116,28.0273],[97.4152,28.0241],[97.4139,28.0192],[97.4116,28.0151],[97.4022,28.013],[97.4014,28.0129],[97.3912,28.0119],[97.3888,28.0062],[97.3833,27.9937],[97.3828,27.9925],[97.3781,27.9862],[97.3782,27.9818],[97.3782,27.9785],[97.3785,27.9632],[97.3756,27.9444],[97.3827,27.9361],[97.3877,27.9307],[97.3877,27.9266],[97.3811,27.9211],[97.3786,27.918],[97.3798,27.9126],[97.3876,27.9037],[97.389,27.8964],[97.3785,27.8931],[97.3714,27.8869],[97.3648,27.8851],[97.35,27.8913],[97.3435,27.8941],[97.3356,27.8932],[97.3212,27.8895],[97.3229,27.9034],[97.3239,27.9119],[97.3222,27.9162],[97.3147,27.9252],[97.3087,27.93],[97.3017,27.9271],[97.2881,27.9218],[97.2807,27.9195],[97.2565,27.9095],[97.2472,27.9039],[97.2412,27.8955],[97.2368,27.8899],[97.2265,27.8822],[97.2205,27.8774],[97.2124,27.872],[97.2026,27.8644],[97.1956,27.8564],[97.1954,27.8562],[97.1936,27.8552],[97.1919,27.8528],[97.1895,27.8505],[97.1879,27.8476],[97.187,27.8459],[97.1818,27.8418],[97.1805,27.8412],[97.1744,27.8384],[97.1678,27.8363],[97.1687,27.8309],[97.164,27.8268],[97.1629,27.8246],[97.1603,27.8226],[97.1523,27.8192],[97.1443,27.817],[97.1374,27.8151],[97.1339,27.8065],[97.1279,27.8011],[97.1243,27.7985],[97.1149,27.7959],[97.1025,27.7934],[97.0984,27.7886],[97.0996,27.7844],[97.1001,27.7828],[97.1048,27.7752],[97.1012,27.7672],[97.0981,27.7573],[97.0964,27.7499],[97.0914,27.7485],[97.0863,27.7504],[97.0824,27.7519],[97.0675,27.7597],[97.062,27.7575],[97.0566,27.752],[97.0481,27.7493],[97.0374,27.7522],[97.0286,27.7491],[97.0157,27.7406],[97.0132,27.7354],[97.0103,27.7255],[97.0055,27.7155],[97.0032,27.7105],[97.0015,27.7082],[96.9972,27.7027],[96.9888,27.6969],[96.9848,27.691],[96.9826,27.6798],[96.9783,27.6719],[96.9776,27.6719],[96.9587,27.6743],[96.9488,27.6714],[96.9423,27.6674],[96.9389,27.6607],[96.9352,27.6598],[96.929,27.656],[96.927,27.6419],[96.9256,27.6402],[96.9203,27.6327],[96.9194,27.6315],[96.9131,27.6275],[96.9121,27.6272],[96.9006,27.6243],[96.8976,27.6208],[96.8978,27.6181],[96.8991,27.6005],[96.8992,27.5936],[96.903,27.5899],[96.9101,27.5899],[96.914,27.5884],[96.9141,27.5844],[96.9132,27.5763],[96.9142,27.5673],[96.9154,27.5604],[96.9158,27.5583],[96.9203,27.5556],[96.9245,27.5513],[96.9286,27.5423],[96.9336,27.5372],[96.9377,27.5301],[96.9364,27.5233],[96.9335,27.5157],[96.9308,27.5119],[96.9257,27.503],[96.9219,27.4994],[96.9208,27.4972],[96.9139,27.4884],[96.9137,27.4879],[96.9112,27.4815],[96.9108,27.4746],[96.9109,27.468],[96.9118,27.4627],[96.9176,27.4589],[96.9259,27.4564],[96.9333,27.4505],[96.937,27.4396],[96.9414,27.427],[96.9489,27.4209],[96.9655,27.4154],[96.9689,27.4018],[96.9755,27.396],[96.969,27.3863],[96.9717,27.379],[96.977,27.3768],[96.982,27.3737],[96.985,27.3626],[96.9895,27.3585],[96.9975,27.3551],[96.9984,27.3509],[97.0003,27.34],[97.0033,27.3299],[97.0096,27.3256],[97.0169,27.3201],[97.0403,27.3079],[97.0436,27.2898],[97.0516,27.2865],[97.0567,27.2856],[97.0589,27.2768],[97.0633,27.2722],[97.0685,27.2675],[97.0737,27.2619],[97.0818,27.2539],[97.0894,27.2508],[97.0941,27.2479],[97.096,27.2412],[97.0951,27.2214],[97.1005,27.215],[97.108,27.2131],[97.1167,27.2092],[97.1202,27.2046],[97.1239,27.1999],[97.1257,27.1924],[97.1273,27.1852],[97.1336,27.181],[97.1403,27.1775],[97.1499,27.1783],[97.1529,27.1684],[97.156,27.1622],[97.1672,27.1555],[97.1722,27.1444],[97.1717,27.1368],[97.1663,27.1326],[97.1659,27.1323],[97.1559,27.1264],[97.1524,27.1197],[97.1501,27.1115],[97.1469,27.104],[97.1464,27.1028],[97.1399,27.1013],[97.131,27.1037],[97.1223,27.112],[97.1147,27.1199],[97.1086,27.1213],[97.0992,27.1186],[97.0893,27.1138],[97.0843,27.1119],[97.0791,27.11],[97.0715,27.1092],[97.063,27.1111],[97.0627,27.1112],[97.0589,27.1141],[97.0526,27.1189],[97.0479,27.1237],[97.0455,27.1268],[97.042,27.1313],[97.035,27.1371],[97.0302,27.1417],[97.021,27.1455],[97.0132,27.1469],[97.0068,27.1498],[96.999,27.1539],[96.9926,27.1612],[96.9847,27.1667],[96.9735,27.1711],[96.9637,27.1726],[96.9553,27.1737],[96.9447,27.1741],[96.928,27.1751],[96.9184,27.1755],[96.9027,27.1808],[96.8969,27.1834],[96.883,27.1905],[96.8756,27.1936],[96.8662,27.1997],[96.864,27.2069],[96.8636,27.2122],[96.8634,27.2192],[96.8663,27.2236],[96.8741,27.2267],[96.8803,27.2308],[96.8852,27.2326],[96.89,27.2369],[96.8914,27.2409],[96.8927,27.2476],[96.887,27.2547],[96.8879,27.2594],[96.8888,27.2636],[96.8851,27.268],[96.8751,27.2672],[96.8662,27.2691],[96.8617,27.2725],[96.8557,27.2803],[96.8538,27.2907],[96.8518,27.3004],[96.8497,27.3063],[96.8363,27.3105],[96.8313,27.3146],[96.8249,27.3205],[96.8216,27.3244],[96.8171,27.3295],[96.8128,27.3364],[96.8086,27.3449],[96.8058,27.3504],[96.8024,27.3544],[96.7948,27.3565],[96.7853,27.3588],[96.7796,27.3621],[96.773,27.365],[96.7598,27.3633],[96.7542,27.3628],[96.7478,27.364],[96.7407,27.3645],[96.7284,27.3724],[96.7225,27.377],[96.7125,27.3807],[96.7088,27.3752],[96.7064,27.3712],[96.6991,27.3656],[96.6937,27.3655],[96.6832,27.3689],[96.6762,27.3709],[96.6702,27.3723],[96.6608,27.3714],[96.656,27.3689],[96.6461,27.3678],[96.6391,27.3692],[96.6304,27.3718],[96.6205,27.3728],[96.6125,27.3694],[96.6108,27.3673],[96.6089,27.3652],[96.6026,27.3607],[96.6025,27.3607],[96.5983,27.3565],[96.5979,27.3515],[96.599,27.3489],[96.6008,27.3446],[96.5972,27.343],[96.5963,27.3426],[96.5917,27.3409],[96.5859,27.3368],[96.5799,27.3337],[96.5754,27.3292],[96.566,27.3267],[96.5618,27.3253],[96.5562,27.3206],[96.5505,27.3147],[96.5453,27.3097],[96.5376,27.3043],[96.5307,27.298],[96.5223,27.294],[96.517,27.3006],[96.5118,27.3041],[96.5054,27.3076],[96.5,27.3094],[96.494,27.3063],[96.486,27.3052],[96.4792,27.3081],[96.4707,27.3125],[96.4667,27.3111],[96.4616,27.3091],[96.4525,27.3098],[96.4461,27.3103],[96.4398,27.3104],[96.4335,27.3099],[96.425,27.3061],[96.4161,27.2999],[96.4086,27.2999],[96.4017,27.2986],[96.3916,27.2946],[96.3828,27.2975],[96.3737,27.2989],[96.3641,27.3002],[96.3615,27.2941],[96.3579,27.2917],[96.3552,27.2899],[96.3481,27.2885],[96.3477,27.2884],[96.3412,27.2916],[96.3357,27.2959],[96.3204,27.298],[96.3108,27.302],[96.3033,27.2992],[96.2904,27.2941],[96.2822,27.286],[96.2787,27.2794],[96.2674,27.2778],[96.2542,27.281],[96.2414,27.2843],[96.2343,27.2849],[96.2271,27.2806],[96.2181,27.2696],[96.2059,27.2661],[96.1963,27.2652],[96.1941,27.2635],[96.1919,27.2618],[96.1852,27.2566],[96.1821,27.2542],[96.1812,27.2543],[96.1637,27.2545],[96.1504,27.2495],[96.1145,27.2333],[96.099,27.2314],[96.0921,27.2267],[96.0873,27.2186],[96.0864,27.2171],[96.0852,27.2168],[96.069,27.2132],[96.0573,27.2028],[96.0364,27.1961],[96.0298,27.1878],[96.027,27.179],[96.023,27.1664],[96.0169,27.1548],[96.0043,27.1404],[96.0033,27.1393],[95.9896,27.1252],[95.9792,27.1107],[95.9739,27.102],[95.9719,27.0988],[95.9631,27.082],[95.9571,27.0682],[95.946,27.0597],[95.9403,27.0558],[95.9362,27.053],[95.9232,27.0489],[95.9158,27.0453],[95.9092,27.0403],[95.9007,27.0318],[95.8892,27.0279],[95.8771,27.0205],[95.8675,27.0223],[95.8578,27.0224],[95.838,27.0153],[95.828,27.0181],[95.8153,27.0222],[95.8079,27.0205],[95.8049,27.012],[95.7796,26.99],[95.7729,26.9825],[95.7717,26.9786],[95.7671,26.9729],[95.7609,26.964],[95.7616,26.9593],[95.7637,26.945],[95.7606,26.942],[95.7567,26.9402],[95.7525,26.9302],[95.7545,26.925],[95.7572,26.9204],[95.7581,26.9149],[95.755,26.9079],[95.7451,26.9009],[95.736,26.8927],[95.7308,26.8875],[95.7211,26.8836],[95.7125,26.8843],[95.7116,26.8844],[95.7114,26.8844],[95.7035,26.8872],[95.6986,26.8952],[95.6923,26.8999],[95.6813,26.905],[95.6734,26.9102],[95.6682,26.9083],[95.663,26.9049],[95.6578,26.8981],[95.6553,26.893],[95.6541,26.8905],[95.651,26.8838],[95.6464,26.8829],[95.6456,26.8829],[95.6422,26.8831],[95.6368,26.8793],[95.6341,26.8733],[95.6348,26.8677],[95.6349,26.8666],[95.6336,26.8551],[95.6322,26.8495],[95.6281,26.8438],[95.6277,26.8433],[95.622,26.8372],[95.618,26.8299],[95.6115,26.8212],[95.5991,26.8222],[95.5923,26.823],[95.5847,26.8228],[95.5748,26.8257],[95.5685,26.8299],[95.5656,26.8338],[95.5627,26.8372],[95.5548,26.8396],[95.5457,26.8379],[95.5328,26.8312],[95.5302,26.8268],[95.525,26.8199],[95.5215,26.8167],[95.5203,26.8155],[95.5148,26.8132],[95.5065,26.7966],[95.5022,26.7827],[95.4959,26.7719],[95.4891,26.7617],[95.4835,26.755],[95.4796,26.7537],[95.4759,26.7524],[95.4657,26.7504],[95.4614,26.746],[95.4585,26.7377],[95.4545,26.7329],[95.4542,26.7325],[95.4534,26.732],[95.4463,26.7274],[95.442,26.7228],[95.4398,26.718],[95.4373,26.7145],[95.4355,26.7082],[95.4324,26.7036],[95.4289,26.7],[95.4233,26.6967],[95.4064,26.6966],[95.3946,26.691],[95.3836,26.6881],[95.3781,26.6833],[95.3747,26.6813],[95.3715,26.6793],[95.3659,26.6776],[95.3654,26.6776],[95.3558,26.6771],[95.3466,26.6779],[95.3244,26.6691],[95.3179,26.6668],[95.3148,26.6639],[95.3084,26.6577],[95.3026,26.656],[95.2999,26.6579],[95.2993,26.6583],[95.2931,26.6612],[95.2829,26.6628],[95.272,26.6628],[95.266,26.6679],[95.262,26.6737],[95.2617,26.6815],[95.26,26.6864],[95.2565,26.6893],[95.2508,26.6924],[95.244,26.6939],[95.2404,26.6916],[95.2376,26.6863],[95.236,26.6882],[95.236,26.6915],[95.2337,26.6971],[95.2361,26.7122],[95.2297,26.7169],[95.2282,26.7238],[95.2161,26.7353],[95.2169,26.7413],[95.221,26.7474],[95.2214,26.7515],[95.2193,26.7556],[95.2201,26.7598],[95.2241,26.7617],[95.2292,26.7685],[95.2332,26.7719],[95.2333,26.7737],[95.2316,26.7777],[95.2347,26.7803],[95.2425,26.7845],[95.2449,26.7873],[95.2417,26.7869],[95.2403,26.7892],[95.235,26.7893],[95.2275,26.7923],[95.2216,26.7935],[95.2151,26.7984],[95.2068,26.8117],[95.2036,26.8213],[95.2026,26.8288],[95.2006,26.8329],[95.199,26.8399],[95.2005,26.8429],[95.2064,26.8463],[95.2086,26.8507],[95.2042,26.8489],[95.1977,26.8515],[95.1973,26.8494],[95.1956,26.8496],[95.193,26.8512],[95.1858,26.8596],[95.1845,26.8648],[95.2064,26.8779],[95.2114,26.8817],[95.2129,26.8856],[95.2178,26.8869],[95.2299,26.8857],[95.2339,26.8908],[95.2313,26.8983],[95.2338,26.9059],[95.2341,26.9097],[95.2321,26.9148],[95.232,26.9179],[95.234,26.9188],[95.234,26.9206],[95.2318,26.9261],[95.2293,26.9306],[95.2256,26.9344],[95.2171,26.9342],[95.2144,26.937],[95.2122,26.9433],[95.2092,26.9567],[95.2134,26.9588],[95.2085,26.9607],[95.2068,26.9626],[95.2088,26.9654],[95.2137,26.9681],[95.215,26.9704],[95.2088,26.9751],[95.2066,26.9788],[95.2052,26.9822],[95.21,26.9826],[95.2078,26.9847],[95.2004,26.9856],[95.1952,26.99],[95.1963,26.9978],[95.1998,26.9994],[95.2001,27.0062],[95.1976,27.0157],[95.1979,27.0198],[95.1958,27.0325],[95.1955,27.0429],[95.1985,27.0444],[95.2009,27.0423],[95.2038,27.043],[95.2077,27.0348],[95.2138,27.0335],[95.2197,27.0368],[95.2226,27.0409],[95.226,27.0423],[95.2295,27.0402],[95.2321,27.0429],[95.2309,27.0457],[95.2347,27.0436],[95.2379,27.0432],[95.2437,27.0342],[95.2482,27.0303],[95.2522,27.0319],[95.2607,27.0373],[95.2599,27.039],[95.2626,27.041],[95.2667,27.0404],[95.271,27.0451],[95.2776,27.0498],[95.2794,27.0539],[95.2778,27.0568],[95.2879,27.0663],[95.2966,27.0729],[95.3097,27.0811],[95.3132,27.0867],[95.3233,27.0896],[95.3351,27.0959],[95.3486,27.1048],[95.3665,27.1129],[95.3713,27.1114],[95.3707,27.1101],[95.3678,27.1097],[95.3683,27.1074],[95.3737,27.108],[95.3727,27.1017],[95.377,27.1022],[95.3855,27.1051],[95.3861,27.1117],[95.3961,27.1145],[95.4063,27.1183],[95.4203,27.1308],[95.4292,27.1341],[95.441,27.1328],[95.4456,27.1343],[95.4471,27.1383],[95.4508,27.1388],[95.4534,27.1359],[95.4578,27.1356],[95.4611,27.1402],[95.4637,27.1504],[95.4659,27.1548],[95.4651,27.1576],[95.4633,27.1595],[95.4599,27.1604],[95.4587,27.1633],[95.4638,27.167],[95.468,27.1723],[95.4637,27.1821],[95.4671,27.1856],[95.4686,27.1905],[95.4658,27.1974],[95.4621,27.203],[95.4589,27.2096],[95.4597,27.2134],[95.4694,27.2183],[95.4707,27.2232],[95.4739,27.2236],[95.4745,27.2269],[95.4806,27.2323],[95.4872,27.246],[95.491,27.2487],[95.5063,27.2546],[95.5106,27.259],[95.5109,27.2663],[95.5162,27.2686],[95.5205,27.2637],[95.5259,27.2663],[95.5297,27.2691],[95.5348,27.2706],[95.5542,27.2593],[95.5561,27.2544],[95.5633,27.2525],[95.5745,27.2511],[95.5783,27.2471],[95.5779,27.2422],[95.5901,27.2295],[95.5992,27.2296],[95.6074,27.2314],[95.6191,27.2366],[95.6341,27.2398],[95.637,27.2369],[95.6792,27.2539],[95.6794,27.2562],[95.6844,27.2574],[95.6954,27.2581],[95.7019,27.2556],[95.7155,27.2591],[95.7211,27.2576],[95.7255,27.2592],[95.7319,27.2665],[95.7364,27.2668],[95.7399,27.2699],[95.757,27.2744],[95.7847,27.2791],[95.7908,27.2855],[95.8008,27.2887],[95.8063,27.2917],[95.8065,27.288],[95.8085,27.2854],[95.8102,27.2809],[95.8379,27.2871],[95.8502,27.2931],[95.8605,27.2942],[95.8619,27.29],[95.8606,27.2834],[95.8608,27.2798],[95.8654,27.2767],[95.8724,27.2669],[95.8776,27.2674],[95.8824,27.2669],[95.8877,27.2633],[95.894,27.263],[95.8981,27.2643],[95.9012,27.2764],[95.9043,27.2799],[95.9045,27.2862],[95.9024,27.2878],[95.9064,27.2919],[95.9123,27.2931],[95.9187,27.2992],[95.9406,27.3096],[95.9632,27.3171],[95.9656,27.3217],[95.9626,27.3243],[95.9679,27.3246],[95.969,27.3284],[95.9687,27.3318],[95.978,27.3327],[95.9842,27.3343],[95.9723,27.3346],[95.97,27.337],[95.9742,27.3394],[95.9773,27.3423],[95.9937,27.3514],[95.9949,27.3602],[95.997,27.3635],[96.0021,27.3641],[96.0031,27.3645],[96.0132,27.364],[96.0184,27.3679],[96.0209,27.3713],[96.0149,27.3755],[96.0106,27.3813],[96.0084,27.3872],[96.0021,27.3935],[96.0001,27.3976],[96.001,27.4035],[95.9946,27.4124],[95.9909,27.4146],[95.9912,27.4194],[95.9895,27.4217],[95.9795,27.4219],[95.9781,27.4253],[95.9809,27.4261],[95.9802,27.4302],[95.9778,27.4323],[95.9778,27.4355],[95.9733,27.4368],[95.9718,27.4304],[95.968,27.4241],[95.967,27.4367],[95.9636,27.4355],[95.9611,27.4287],[95.9573,27.4329],[95.953,27.4333],[95.9505,27.4372],[95.9535,27.4408],[95.9531,27.4435],[95.9499,27.445],[95.943,27.4464],[95.9333,27.4467],[95.9168,27.4432],[95.9112,27.44],[95.908,27.4326],[95.9061,27.4233],[95.9001,27.4113],[95.8931,27.406],[95.8919,27.4098],[95.8943,27.4144],[95.8944,27.4183],[95.89,27.4264],[95.8894,27.4316],[95.8904,27.4397],[95.8887,27.4441],[95.8826,27.4441],[95.8758,27.4354],[95.8649,27.429],[95.8632,27.4249],[95.8642,27.4213],[95.8667,27.4192],[95.8673,27.4172],[95.858,27.4207],[95.8576,27.4248],[95.8557,27.4277],[95.8493,27.4303],[95.8495,27.4349],[95.8529,27.4448],[95.8552,27.4474],[95.8596,27.4491],[95.8638,27.452],[95.8595,27.4626],[95.8612,27.4663],[95.8661,27.469],[95.8763,27.4711],[95.8784,27.4756],[95.8813,27.4874],[95.8792,27.4927],[95.8791,27.4992],[95.8805,27.5011],[95.886,27.5036],[95.8896,27.5062],[95.8871,27.5113],[95.8818,27.5151],[95.8785,27.5198],[95.8808,27.5225],[95.8799,27.5298],[95.8814,27.5458],[95.8813,27.5532],[95.8736,27.5512],[95.867,27.5511],[95.8624,27.5526],[95.8521,27.5657],[95.846,27.568],[95.8399,27.5666],[95.8363,27.5712],[95.8319,27.5789],[95.8277,27.5818],[95.8212,27.5817],[95.8198,27.5903],[95.8203,27.5956],[95.8242,27.603],[95.8209,27.6047],[95.8168,27.6054],[95.8096,27.6053],[95.798,27.6078],[95.7961,27.6182],[95.7943,27.6224],[95.7871,27.6234],[95.785,27.6274],[95.7873,27.6323],[95.7974,27.6359],[95.7973,27.6396],[95.7996,27.643],[95.8015,27.649],[95.7949,27.6528],[95.7862,27.6557],[95.7792,27.6605],[95.7778,27.6663],[95.7785,27.6723],[95.7804,27.6792],[95.7855,27.6833],[95.7945,27.6842],[95.7965,27.6881],[95.7931,27.6923],[95.7788,27.6944],[95.7746,27.6967],[95.7727,27.7],[95.7734,27.7054],[95.7726,27.7113],[95.7705,27.716],[95.7704,27.72],[95.763,27.7227],[95.7587,27.7267],[95.7582,27.7311],[95.7627,27.7329],[95.7719,27.7345],[95.7848,27.7398],[95.7878,27.7421],[95.7805,27.7582],[95.7888,27.7651],[95.7954,27.7726],[95.8009,27.7769],[95.8064,27.7836],[95.8076,27.7899],[95.8113,27.7937],[95.8231,27.8092],[95.8289,27.8137],[95.835,27.8158],[95.8434,27.8215],[95.846,27.8301],[95.8521,27.8341],[95.8663,27.8385],[95.8737,27.8398],[95.8766,27.8418],[95.8921,27.857],[95.8942,27.861],[95.895,27.8672],[95.8976,27.8675],[95.9006,27.8667],[95.9072,27.8686],[95.9062,27.8772],[95.9114,27.873],[95.9141,27.8747],[95.9129,27.8781],[95.914,27.8808],[95.9187,27.8828],[95.9226,27.8862],[95.9213,27.8905],[95.9238,27.8903],[95.9274,27.8873],[95.9286,27.8905],[95.9239,27.896],[95.925,27.9009],[95.9286,27.9029],[95.9383,27.9033],[95.9393,27.9098],[95.9435,27.9126],[95.9525,27.9228],[95.9553,27.9268],[95.9538,27.9302],[95.9575,27.9329],[95.9576,27.9371],[95.9523,27.9372],[95.9516,27.9392],[95.9523,27.9418],[95.9652,27.9526],[95.9775,27.9685],[95.9569,27.9691],[95.8259,27.9774],[95.6067,27.9578],[95.5969,27.9511],[95.5887,27.9416],[95.5805,27.9436],[95.5712,27.9424],[95.5663,27.9316],[95.565,27.9225],[95.5438,27.9135],[95.5421,27.9107],[95.5443,27.9058],[95.5435,27.9023],[95.533,27.9004],[95.5262,27.8979],[95.516,27.8818],[95.3843,27.842],[95.3166,27.8711],[95.3085,27.8678],[95.2925,27.865],[95.2365,27.8484],[95.1949,27.8344],[95.0518,27.7902],[95.0489,27.7865],[95.0388,27.7777],[95.0312,27.7748],[95.0191,27.7725],[94.9979,27.7766],[94.987,27.7709],[94.93,27.7567],[94.8839,27.7421],[94.8609,27.7395],[94.866,27.7362],[94.8607,27.7334],[94.8536,27.7316],[94.8488,27.7107],[94.8394,27.7035],[94.8213,27.6962],[94.818,27.6968],[94.8002,27.6971],[94.7976,27.6989],[94.7953,27.6981],[94.7941,27.6932],[94.791,27.6889],[94.7765,27.6834],[94.7722,27.684],[94.7669,27.6801],[94.7643,27.6746],[94.7596,27.6684],[94.7559,27.6665],[94.7427,27.6634],[94.737,27.6656],[94.7277,27.6679],[94.7255,27.6703],[94.7207,27.67],[94.7166,27.6616],[94.7131,27.6603],[94.6981,27.6671],[94.6894,27.6672],[94.6839,27.6633],[94.6865,27.6571],[94.687,27.6533],[94.6825,27.6496],[94.6757,27.6507],[94.6691,27.6503],[94.6646,27.6479],[94.6484,27.6421],[94.6452,27.6365],[94.6398,27.631],[94.6345,27.6288],[94.6307,27.6283],[94.625,27.6301],[94.6141,27.6257],[94.6094,27.6226],[94.6041,27.6231],[94.6006,27.6219],[94.5958,27.6215],[94.5915,27.6228],[94.5863,27.6201],[94.5819,27.6167],[94.5735,27.607],[94.5695,27.6064],[94.5639,27.607],[94.5561,27.6032],[94.5517,27.604],[94.5464,27.6035],[94.5366,27.597],[94.5317,27.5969],[94.5263,27.5958],[94.5157,27.5847],[94.5094,27.5841],[94.5002,27.5773],[94.5,27.5773],[94.491,27.5755],[94.4831,27.5772],[94.4792,27.577],[94.4693,27.564],[94.4597,27.5577],[94.4562,27.5629],[94.4535,27.5709],[94.4496,27.575],[94.4424,27.5795],[94.4361,27.5844],[94.4306,27.5965],[94.431,27.6031],[94.4209,27.6013],[94.4032,27.5872],[94.3948,27.5888],[94.3876,27.5893],[94.3844,27.5865],[94.3804,27.5851],[94.3758,27.5846],[94.3723,27.5793],[94.3675,27.5767],[94.3622,27.5802],[94.3557,27.5774],[94.3488,27.5795],[94.3451,27.5846],[94.3406,27.5834],[94.3381,27.581],[94.3291,27.5884],[94.3237,27.5872],[94.3197,27.5901],[94.3124,27.5897],[94.3084,27.5956],[94.3016,27.5999],[94.298,27.6043],[94.2929,27.6004],[94.2885,27.5945],[94.2877,27.5918],[94.276,27.5933],[94.2752,27.5974],[94.2725,27.6035],[94.2619,27.6101],[94.2541,27.6137],[94.2571,27.6191],[94.2622,27.6245],[94.2672,27.6279],[94.2667,27.6326],[94.2628,27.636],[94.2591,27.637],[94.256,27.6366],[94.2522,27.6409],[94.2501,27.6397],[94.2473,27.6358],[94.2451,27.6359],[94.2351,27.6325],[94.226,27.618],[94.2174,27.609],[94.2111,27.6108],[94.2135,27.6044],[94.2229,27.6007],[94.2251,27.5985],[94.2253,27.5952],[94.2214,27.5879],[94.2255,27.5811],[94.2265,27.5756],[94.2341,27.5715],[94.2406,27.5704],[94.2565,27.5574],[94.2557,27.5508],[94.2569,27.5405],[94.2625,27.5274],[94.2597,27.5235],[94.2591,27.5226],[94.2217,27.507],[94.2154,27.5031],[94.2123,27.4979],[94.2107,27.4979],[94.1952,27.4975],[94.1912,27.4963],[94.1869,27.4908],[94.1747,27.4841],[94.1679,27.4842],[94.1642,27.481],[94.1572,27.478],[94.1587,27.47],[94.1602,27.4665],[94.1545,27.4605],[94.1408,27.4485],[94.1359,27.4459],[94.1233,27.435],[94.1171,27.431],[94.1065,27.4181],[94.0999,27.4139],[94.0933,27.4109],[94.0863,27.4046],[94.0724,27.383],[94.0686,27.3744],[94.0631,27.3689],[94.0609,27.3636],[94.0548,27.3628],[94.0483,27.3587],[94.0416,27.3533],[94.0301,27.348],[94.0258,27.3477],[94.0098,27.3389],[94,27.3347],[94.0007,27.3301],[93.9978,27.3279],[93.996,27.3279],[93.9902,27.3246],[93.9857,27.3206],[93.9809,27.3138],[93.9727,27.3083],[93.9565,27.2948],[93.9389,27.2733],[93.9339,27.2683],[93.9189,27.2571],[93.901,27.2415],[93.893,27.231],[93.891,27.2302],[93.8856,27.2244],[93.8674,27.1988],[93.8575,27.1911],[93.8472,27.1798],[93.8399,27.1735],[93.837,27.1721],[93.829,27.1706],[93.8267,27.1694],[93.817,27.1582],[93.8086,27.1518],[93.8073,27.1501],[93.8068,27.1472],[93.8056,27.1378],[93.8014,27.1379],[93.7982,27.1372],[93.7978,27.136],[93.7984,27.1344],[93.8002,27.1326],[93.8022,27.1329],[93.8058,27.1348],[93.8082,27.1329],[93.8135,27.132],[93.8142,27.1308],[93.8139,27.1286],[93.8114,27.1263],[93.8132,27.1238],[93.815,27.1226],[93.8191,27.1229],[93.822,27.122],[93.8255,27.1193],[93.8272,27.1119],[93.8266,27.0994],[93.8313,27.0924],[93.833,27.0876],[93.8362,27.0865],[93.8344,27.0828],[93.8348,27.0821],[93.8367,27.0782],[93.835,27.075],[93.8321,27.0729],[93.829,27.0721],[93.8282,27.069],[93.8271,27.0688],[93.8255,27.0721],[93.8246,27.0722],[93.8229,27.0683],[93.8188,27.0649],[93.8157,27.0655],[93.8129,27.0707],[93.8102,27.0681],[93.8085,27.0626],[93.8049,27.0613],[93.8021,27.0618],[93.7994,27.0669],[93.7988,27.0697],[93.7981,27.0709],[93.7971,27.0709],[93.794,27.0577],[93.7912,27.0546],[93.7874,27.0542],[93.7861,27.0554],[93.7851,27.0584],[93.7832,27.0672],[93.7823,27.0669],[93.7812,27.0608],[93.7791,27.0583],[93.7792,27.0533],[93.7779,27.0528],[93.7754,27.0562],[93.7737,27.0624],[93.7724,27.0623],[93.7718,27.0555],[93.771,27.0546],[93.7701,27.0556],[93.7682,27.0555],[93.7685,27.0433],[93.7464,27.0324],[93.7426,27.0297],[93.7339,27.0272],[93.7189,27.0192],[93.7056,27.0083],[93.7045,27.0066],[93.7057,27.0037],[93.701,26.9971],[93.6983,26.9948],[93.6966,26.9924],[93.6758,26.9711],[93.6551,26.9665],[93.6402,26.9648],[93.6245,26.9642],[93.5958,26.9552],[93.5842,26.9526],[93.5708,26.9541],[93.5455,26.9517],[93.5258,26.9486],[93.4894,26.9385],[93.4868,26.9431],[93.4803,26.9402],[93.4681,26.9389],[93.4638,26.9435],[93.4479,26.9542],[93.4367,26.9561],[93.3907,26.96],[93.3742,26.9604],[93.3479,26.9632],[93.2669,26.956],[93.2224,26.9491],[93.1843,26.9387],[93.109,26.9273],[93.0919,26.9155],[93.0764,26.9199],[93.0688,26.9242],[93.0602,26.9212],[93.0382,26.9179],[93.0194,26.9168],[92.9974,26.9303],[92.9958,26.9303],[92.9938,26.9318],[92.9867,26.9338],[92.9827,26.9359],[92.9807,26.9356],[92.973,26.9408],[92.9616,26.9459],[92.9514,26.9489],[92.9328,26.9569],[92.9264,26.9607],[92.9217,26.9619],[92.9178,26.9642],[92.9149,26.9698],[92.9167,26.9847],[92.8998,26.9963],[92.8903,26.9998],[92.8875,27.0002],[92.8834,27.0023],[92.8724,27.0077],[92.8366,27.0135],[92.8244,27.0185],[92.7853,27.0307],[92.7691,27.033],[92.7275,27.0284],[92.7137,27.0261],[92.7023,27.0276],[92.6824,27.0317],[92.6589,27.0385],[92.657,27.0376],[92.6505,27.0248],[92.6391,27.0185],[92.6446,27.01],[92.6442,27.0025],[92.6453,26.9956],[92.6455,26.9874],[92.5852,26.9619],[92.5536,26.9591],[92.5318,26.9633],[92.5154,26.9644],[92.505,26.9668],[92.4906,26.9647],[92.4838,26.9647],[92.4663,26.9631],[92.4596,26.9633],[92.4462,26.9606],[92.4422,26.955],[92.4258,26.9435],[92.4119,26.9442],[92.3998,26.9263],[92.3673,26.9316],[92.3644,26.9327],[92.3531,26.9356],[92.3468,26.9335],[92.3201,26.9284],[92.3029,26.9242],[92.3037,26.9095],[92.3005,26.9081],[92.2901,26.9055],[92.2815,26.9041],[92.2764,26.9025],[92.2679,26.9051],[92.2651,26.9076],[92.2612,26.9088],[92.2546,26.9122],[92.2094,26.8969],[92.1948,26.891],[92.1772,26.8925],[92.1688,26.8919],[92.1624,26.8927],[92.1479,26.8909],[92.1295,26.8907],[92.1242,26.8898],[92.1204,26.8903],[92.113,26.8924],[92.1144,26.8939],[92.1168,26.8965],[92.1172,26.8981],[92.118,26.8994],[92.1184,26.901],[92.1189,26.903],[92.1195,26.9054],[92.1199,26.9078],[92.1201,26.9095],[92.1199,26.911],[92.1192,26.9125],[92.1178,26.9137],[92.1171,26.9149],[92.1166,26.9167],[92.1165,26.9184],[92.1165,26.9203],[92.1166,26.9223],[92.1168,26.924],[92.1171,26.9258],[92.1175,26.9273],[92.1176,26.929],[92.1172,26.9309],[92.1168,26.9316],[92.1163,26.9327],[92.1158,26.9342],[92.1159,26.936],[92.1161,26.9364],[92.117,26.9374],[92.118,26.9386],[92.1183,26.9409],[92.1176,26.9433],[92.1162,26.9445],[92.1148,26.9457],[92.1144,26.9475],[92.1146,26.9494],[92.1145,26.9511],[92.1147,26.9523],[92.1161,26.9536],[92.1174,26.9547],[92.1192,26.9556],[92.1215,26.9569],[92.1222,26.9579],[92.1221,26.9591],[92.1218,26.9609],[92.1213,26.9623],[92.1205,26.9633],[92.1199,26.9655],[92.1197,26.9673],[92.1195,26.9695],[92.1196,26.9714],[92.1197,26.9733],[92.1186,26.9741],[92.1162,26.9749],[92.1133,26.9756],[92.1128,26.9758],[92.1126,26.9759],[92.1112,26.9768],[92.1093,26.9783],[92.1083,26.9792],[92.1068,26.9798],[92.106,26.9804],[92.105,26.9817],[92.1048,26.9833],[92.1045,26.9851],[92.1046,26.987],[92.1049,26.9874],[92.1059,26.9888],[92.1064,26.9893],[92.1072,26.9902],[92.1065,26.9927],[92.1056,26.9952],[92.1045,26.9974],[92.1041,26.9984],[92.1035,26.9996],[92.1032,27.0009],[92.1031,27.0039],[92.1017,27.0061],[92.1012,27.0068],[92.0995,27.0075],[92.0985,27.008],[92.0971,27.0091],[92.0958,27.0097],[92.0955,27.0109],[92.0954,27.0115],[92.0932,27.0131],[92.0927,27.0132],[92.09,27.0141],[92.0876,27.015],[92.0848,27.0161],[92.0819,27.0167],[92.0783,27.0177],[92.0779,27.0185],[92.0777,27.0197],[92.0773,27.0204],[92.0773,27.0234],[92.0777,27.0264],[92.079,27.0303],[92.0807,27.0317],[92.0825,27.0336],[92.0828,27.0346],[92.0827,27.0358],[92.0818,27.037],[92.0814,27.0382],[92.0815,27.0412],[92.0745,27.0419],[92.0743,27.042],[92.0711,27.0437],[92.0695,27.0443],[92.0661,27.0468],[92.062,27.0483],[92.0611,27.0486],[92.0604,27.0489],[92.0591,27.0496],[92.0579,27.0502],[92.0564,27.0509],[92.055,27.0514],[92.0535,27.0516],[92.0492,27.0516],[92.0464,27.0518],[92.044,27.0516],[92.0434,27.0527],[92.0433,27.0538],[92.0428,27.0561],[92.0391,27.0596],[92.0381,27.0613],[92.0372,27.0623],[92.0372,27.0629],[92.0374,27.0645],[92.0376,27.0673],[92.0372,27.0692],[92.0363,27.0713],[92.0355,27.0723],[92.0349,27.0734],[92.0327,27.0768],[92.0317,27.0792],[92.0312,27.0804],[92.031,27.0822],[92.0311,27.0836],[92.0315,27.0847],[92.0314,27.0857],[92.0312,27.0867],[92.0313,27.0887],[92.0315,27.091],[92.0312,27.092],[92.031,27.0931],[92.0303,27.0943],[92.0293,27.0953],[92.0288,27.0959],[92.029,27.0971],[92.0289,27.0983],[92.0286,27.1002],[92.0279,27.1016],[92.0268,27.1038],[92.0259,27.1051],[92.0249,27.1063],[92.0248,27.1077],[92.0239,27.1095],[92.0243,27.1112],[92.0252,27.1116],[92.0256,27.1119],[92.0259,27.1124],[92.0262,27.1126],[92.0261,27.1152],[92.0269,27.1163],[92.0277,27.117],[92.0286,27.1189],[92.0297,27.1204],[92.0311,27.1218],[92.0322,27.1228],[92.0328,27.1251],[92.0331,27.1265],[92.0334,27.1281],[92.0335,27.129],[92.0341,27.1305],[92.0341,27.1315],[92.0342,27.1324],[92.0343,27.1332],[92.0344,27.1338],[92.0347,27.1354],[92.0351,27.137],[92.0354,27.1386],[92.0357,27.1395],[92.0359,27.14],[92.0356,27.1405],[92.0352,27.1416],[92.0339,27.1443],[92.0325,27.1472],[92.0322,27.1491],[92.0317,27.1518],[92.0313,27.1541],[92.03,27.155],[92.0295,27.1566],[92.0283,27.1586],[92.0278,27.1603],[92.0276,27.1613],[92.0275,27.1628],[92.0272,27.1643],[92.0271,27.166],[92.0273,27.1671],[92.0268,27.1686],[92.0277,27.1707],[92.0296,27.172],[92.0314,27.1733],[92.0343,27.1747],[92.0351,27.1766],[92.0353,27.1773],[92.0375,27.179],[92.0394,27.1814],[92.0398,27.1819],[92.0401,27.1823],[92.0413,27.1824],[92.043,27.1826],[92.0444,27.1823],[92.0445,27.1823],[92.0453,27.1826],[92.0462,27.1829],[92.0476,27.1832],[92.0485,27.1835],[92.0507,27.1836],[92.0519,27.1846],[92.0532,27.1859],[92.0541,27.187],[92.0544,27.1877],[92.0547,27.1884],[92.0559,27.1912],[92.0564,27.1919],[92.057,27.1927],[92.059,27.1942],[92.0589,27.1958],[92.0584,27.1968],[92.0584,27.1987],[92.0586,27.2004],[92.0595,27.2022],[92.0597,27.2041],[92.0604,27.2055],[92.0605,27.207],[92.0606,27.2074],[92.0611,27.209],[92.0621,27.2109],[92.063,27.2113],[92.0641,27.2119],[92.0646,27.2121],[92.0653,27.2123],[92.0665,27.2133],[92.0678,27.2145],[92.069,27.2159],[92.0699,27.2193],[92.0698,27.2215],[92.0698,27.223],[92.0705,27.2247],[92.0709,27.2262],[92.071,27.2277],[92.071,27.2287],[92.071,27.2298],[92.0708,27.232],[92.0712,27.2331],[92.0711,27.2345],[92.0712,27.2359],[92.0708,27.2366],[92.0706,27.238],[92.07,27.2393],[92.0691,27.2408],[92.0683,27.2421],[92.0668,27.243],[92.0658,27.2436],[92.0658,27.2437],[92.064,27.2453],[92.0631,27.2464],[92.0625,27.247],[92.0617,27.2478],[92.0609,27.2489],[92.06,27.2508],[92.0595,27.252],[92.058,27.253],[92.0563,27.254],[92.0542,27.2534],[92.0522,27.2537],[92.0512,27.254],[92.048,27.2549],[92.0464,27.255],[92.0439,27.2554],[92.0415,27.2553],[92.0385,27.2548],[92.0383,27.2559],[92.0386,27.257],[92.0392,27.2577],[92.0399,27.2587],[92.0412,27.2607],[92.0415,27.261],[92.0421,27.2617],[92.0439,27.2624],[92.0453,27.2637],[92.0453,27.2665],[92.0451,27.2689],[92.0471,27.2689],[92.0481,27.269],[92.049,27.2696],[92.049,27.2704],[92.0499,27.2704],[92.0508,27.2712],[92.0517,27.2704],[92.0527,27.2712],[92.0536,27.2712],[92.0545,27.2712],[92.0554,27.2712],[92.0563,27.272],[92.0572,27.2719],[92.0581,27.2719],[92.059,27.2719],[92.06,27.2719],[92.0609,27.2727],[92.0618,27.2727],[92.0627,27.2735],[92.0636,27.2743],[92.0646,27.2751],[92.0655,27.2759],[92.0659,27.2762],[92.0664,27.2767],[92.0673,27.2767],[92.0675,27.2767],[92.0682,27.2767],[92.0691,27.2767],[92.07,27.2758],[92.071,27.2766],[92.0715,27.2771],[92.0719,27.2774],[92.0728,27.2774],[92.0737,27.2782],[92.0746,27.2782],[92.0755,27.2782],[92.0764,27.2774],[92.0764,27.2766],[92.077,27.276],[92.0773,27.2757],[92.0782,27.2749],[92.0791,27.2741],[92.08,27.2733],[92.0809,27.2732],[92.0818,27.2724],[92.0827,27.2724],[92.0829,27.2722],[92.0836,27.2716],[92.0845,27.2716],[92.0854,27.2707],[92.0854,27.2699],[92.0863,27.2699],[92.0872,27.2691],[92.0888,27.2697],[92.089,27.2699],[92.09,27.2699],[92.0908,27.269],[92.0918,27.269],[92.0927,27.269],[92.0936,27.269],[92.0945,27.2698],[92.0954,27.2698],[92.0963,27.269],[92.0972,27.2689],[92.0981,27.2689],[92.099,27.2681],[92.0999,27.2681],[92.1008,27.2681],[92.1017,27.2681],[92.1027,27.268],[92.1036,27.268],[92.1045,27.268],[92.1054,27.2688],[92.1063,27.2688],[92.1072,27.2696],[92.1082,27.2704],[92.1091,27.2704],[92.11,27.2704],[92.1109,27.2704],[92.1118,27.2695],[92.1127,27.2695],[92.1136,27.2695],[92.1145,27.2703],[92.1154,27.2703],[92.1164,27.2711],[92.1173,27.2711],[92.1182,27.2711],[92.1191,27.2711],[92.12,27.2711],[92.1209,27.2719],[92.1218,27.2726],[92.1219,27.2735],[92.1228,27.2743],[92.1237,27.2751],[92.1237,27.2759],[92.1237,27.2767],[92.1238,27.2775],[92.1247,27.2783],[92.1247,27.2791],[92.1247,27.2799],[92.1247,27.2807],[92.1248,27.2824],[92.1239,27.2832],[92.123,27.284],[92.123,27.2848],[92.123,27.2856],[92.123,27.2865],[92.1221,27.2873],[92.1212,27.2881],[92.1203,27.2889],[92.1194,27.2898],[92.119,27.2902],[92.1185,27.2906],[92.1176,27.2914],[92.1167,27.2922],[92.1158,27.2923],[92.1149,27.2931],[92.114,27.2931],[92.1131,27.2939],[92.1122,27.2947],[92.1113,27.2948],[92.1104,27.2956],[92.1095,27.2956],[92.1086,27.2964],[92.1077,27.2972],[92.1068,27.2973],[92.1059,27.2981],[92.105,27.2989],[92.1041,27.2997],[92.1032,27.3006],[92.1023,27.3014],[92.1014,27.3014],[92.1006,27.3022],[92.1005,27.3022],[92.1004,27.3022],[92.0996,27.3022],[92.0987,27.3023],[92.0978,27.3031],[92.0969,27.3031],[92.096,27.3031],[92.0951,27.3031],[92.0942,27.3039],[92.0933,27.304],[92.0924,27.304],[92.0915,27.304],[92.0906,27.304],[92.0897,27.304],[92.0888,27.3048],[92.0879,27.3057],[92.087,27.3065],[92.0861,27.3065],[92.0852,27.3073],[92.0845,27.308],[92.0843,27.3082],[92.0834,27.309],[92.0825,27.309],[92.0816,27.3098],[92.0807,27.3106],[92.0798,27.3115],[92.0789,27.3115],[92.078,27.3123],[92.0771,27.3131],[92.0771,27.3139],[92.0762,27.3148],[92.0753,27.3156],[92.0753,27.3164],[92.0744,27.3172],[92.0735,27.3181],[92.0735,27.3189],[92.0726,27.3197],[92.0717,27.3205],[92.0708,27.3214],[92.0699,27.3222],[92.069,27.3222],[92.0681,27.323],[92.0672,27.3238],[92.0664,27.3247],[92.0664,27.3255],[92.0655,27.3263],[92.0655,27.3271],[92.0651,27.3275],[92.0651,27.3278],[92.0643,27.3312],[92.0636,27.3345],[92.0636,27.3376],[92.063,27.3395],[92.0626,27.3415],[92.0618,27.3433],[92.0607,27.345],[92.0597,27.346],[92.0588,27.3471],[92.0571,27.3488],[92.0568,27.349],[92.0534,27.3515],[92.0541,27.352],[92.0549,27.3526],[92.0517,27.3564],[92.0504,27.358],[92.0499,27.3596],[92.0481,27.3597],[92.0476,27.3597],[92.0472,27.3609],[92.0477,27.3618],[92.0481,27.3625],[92.0485,27.3643],[92.0484,27.3662],[92.0483,27.3684],[92.0483,27.3709],[92.0484,27.3736],[92.0491,27.3769],[92.0499,27.3783],[92.0505,27.3788],[92.0507,27.379],[92.0511,27.3791],[92.0515,27.3795],[92.0522,27.3799],[92.0539,27.3816],[92.0548,27.3828],[92.055,27.386],[92.0549,27.3885],[92.055,27.3903],[92.0551,27.3923],[92.0552,27.3935],[92.0551,27.3954],[92.0558,27.3981],[92.0583,27.4],[92.0563,27.4005],[92.0551,27.4019],[92.0543,27.4028],[92.0533,27.4039],[92.0524,27.4051],[92.0504,27.4064],[92.0493,27.4072],[92.0477,27.4089],[92.0463,27.41],[92.045,27.4117],[92.0436,27.4141],[92.0435,27.4157],[92.0427,27.4171],[92.0412,27.4196],[92.0418,27.4221],[92.0438,27.4242],[92.0439,27.4243],[92.0441,27.427],[92.0434,27.4281],[92.043,27.4287],[92.0426,27.4312],[92.0425,27.4319],[92.0415,27.4353],[92.0389,27.4375],[92.0387,27.4381],[92.038,27.439],[92.0357,27.4399],[92.0341,27.4399],[92.0317,27.4399],[92.029,27.4403],[92.0268,27.4403],[92.025,27.4434],[92.0237,27.4449],[92.0227,27.4458],[92.0226,27.4468],[92.022,27.4478],[92.0215,27.4492],[92.0211,27.4506],[92.021,27.4515],[92.0208,27.4541],[92.0212,27.4559],[92.0214,27.458],[92.0218,27.459],[92.0215,27.4607],[92.0212,27.4629],[92.0211,27.4653],[92.0208,27.4692],[92.0202,27.4723],[92.0201,27.4737],[92.0197,27.4777],[92.0192,27.4791],[92.0188,27.4803],[92.0173,27.4801],[92.0167,27.4801],[92.014,27.479],[92.0107,27.479],[92.009,27.4785],[92.0015,27.4786],[92.001,27.4787],[91.9977,27.4789],[91.997,27.4789],[91.9965,27.4781],[91.9958,27.4781],[91.9949,27.4779],[91.9938,27.4769],[91.9933,27.4763],[91.9927,27.4757],[91.9923,27.4753],[91.992,27.4748],[91.9918,27.4744],[91.9918,27.4735],[91.9918,27.4722],[91.9917,27.4717],[91.9915,27.4713],[91.9908,27.4697],[91.9898,27.4682],[91.9888,27.4671],[91.9883,27.4666],[91.9871,27.4659],[91.9858,27.4662],[91.9853,27.4662],[91.9849,27.4661],[91.9844,27.4657],[91.9839,27.4655],[91.9834,27.4654],[91.9828,27.4651],[91.9826,27.4649],[91.9822,27.4644],[91.9818,27.4642],[91.9811,27.464],[91.9805,27.4638],[91.9798,27.4635],[91.979,27.463],[91.9779,27.4625],[91.9774,27.4629],[91.9775,27.4632],[91.9772,27.4635],[91.9767,27.4638],[91.9758,27.4642],[91.9748,27.4647],[91.9744,27.465],[91.9741,27.4652],[91.9735,27.4655],[91.9729,27.4657],[91.9724,27.466],[91.9718,27.4663],[91.9713,27.4657],[91.971,27.4655],[91.9702,27.4646],[91.9694,27.4639],[91.9686,27.4635],[91.9673,27.4632],[91.966,27.4629],[91.9643,27.4628],[91.9634,27.4627],[91.9624,27.4615],[91.9612,27.4604],[91.9607,27.4602],[91.9601,27.4599],[91.9595,27.4599],[91.9579,27.4601],[91.9571,27.4602],[91.9556,27.4604],[91.9549,27.4604],[91.9542,27.4601],[91.9535,27.4597],[91.9531,27.4596],[91.9516,27.4597],[91.9494,27.46],[91.9487,27.4602],[91.9478,27.4607],[91.9477,27.4608],[91.947,27.4614],[91.9464,27.4619],[91.946,27.4618],[91.9456,27.4614],[91.945,27.4609],[91.9447,27.4607],[91.9443,27.4605],[91.943,27.4598],[91.9425,27.4599],[91.9421,27.4602],[91.9414,27.4607],[91.941,27.4609],[91.9404,27.4613],[91.9394,27.4619],[91.9389,27.4621],[91.9382,27.4625],[91.9378,27.4629],[91.9374,27.4635],[91.9369,27.4644],[91.9362,27.465],[91.9357,27.4653],[91.9353,27.4657],[91.9351,27.4662],[91.9345,27.4665],[91.9341,27.4659],[91.9337,27.4655],[91.9328,27.465],[91.9323,27.4649],[91.9318,27.465],[91.9314,27.4651],[91.9307,27.4652],[91.9302,27.4655],[91.9296,27.466],[91.9293,27.4665],[91.929,27.467],[91.9289,27.4675],[91.9287,27.4683],[91.9285,27.4688],[91.9281,27.4693],[91.927,27.4703],[91.9261,27.4714],[91.9259,27.4719],[91.9251,27.4725],[91.9244,27.4734],[91.9236,27.4743],[91.9233,27.4753],[91.923,27.4751],[91.9229,27.4748],[91.9227,27.4745],[91.9222,27.474],[91.9213,27.4735],[91.9206,27.4733],[91.9199,27.4731],[91.9192,27.473],[91.9184,27.4729],[91.9169,27.4728],[91.9163,27.4726],[91.9156,27.4723],[91.915,27.4723],[91.9146,27.4724],[91.9142,27.4724],[91.9138,27.4725],[91.9129,27.4725],[91.912,27.472],[91.9114,27.4717],[91.9109,27.4717],[91.9105,27.4718],[91.9098,27.472],[91.9081,27.4727],[91.9077,27.4726],[91.9058,27.472],[91.9046,27.4717],[91.9027,27.4713],[91.9023,27.4714],[91.9018,27.4715],[91.9013,27.4715],[91.9003,27.4713],[91.8994,27.471],[91.8983,27.4709],[91.897,27.4709],[91.896,27.471],[91.8955,27.4711],[91.8949,27.4714],[91.8933,27.4723],[91.8915,27.4731],[91.8898,27.4737],[91.8879,27.4746],[91.8867,27.4752],[91.8861,27.4752],[91.8856,27.4747],[91.8851,27.4746],[91.8847,27.4747],[91.8836,27.475],[91.8821,27.4751],[91.8815,27.4751],[91.8809,27.4749],[91.8797,27.4747],[91.8786,27.4745],[91.8781,27.4742],[91.8777,27.4737],[91.8772,27.4732],[91.877,27.4729],[91.8763,27.4723],[91.8759,27.4718],[91.875,27.4711],[91.8745,27.4708],[91.8733,27.4705],[91.8725,27.4705],[91.872,27.4706],[91.8714,27.4708],[91.8708,27.471],[91.8704,27.4712],[91.87,27.4717],[91.8694,27.4724],[91.8691,27.473],[91.8689,27.4734],[91.8688,27.4739],[91.8687,27.4745],[91.8687,27.475],[91.8688,27.476],[91.8687,27.4764],[91.8686,27.4769],[91.8684,27.4777],[91.868,27.4785],[91.8675,27.4795],[91.8671,27.4799],[91.8662,27.4808],[91.8654,27.4814],[91.8643,27.4821],[91.863,27.4829],[91.8621,27.4832],[91.8612,27.4834],[91.8606,27.4834],[91.8596,27.4832],[91.8577,27.4826],[91.8569,27.4823],[91.8568,27.4822],[91.8561,27.482],[91.8556,27.482],[91.8552,27.482],[91.8548,27.4821],[91.8543,27.4824],[91.8537,27.4827],[91.8532,27.483],[91.8521,27.4838],[91.851,27.4847],[91.8501,27.4852],[91.8492,27.4858],[91.8484,27.4861],[91.8481,27.4863],[91.8475,27.486],[91.8473,27.4857],[91.8471,27.4854],[91.847,27.4845],[91.8468,27.4843],[91.8465,27.484],[91.8461,27.4838],[91.8456,27.4834],[91.8453,27.483],[91.845,27.4822],[91.8447,27.4817],[91.8446,27.4813],[91.8441,27.4806],[91.8437,27.4801],[91.8434,27.4796],[91.8433,27.4792],[91.8431,27.4787],[91.8429,27.4781],[91.8428,27.4779],[91.8423,27.4772],[91.8413,27.4764],[91.8408,27.4761],[91.8401,27.4757],[91.8394,27.4754],[91.8389,27.4751],[91.8384,27.4746],[91.8382,27.4744],[91.837,27.4735],[91.8364,27.473],[91.8358,27.4723],[91.8351,27.4719],[91.8344,27.4715],[91.8337,27.4714],[91.8327,27.4711],[91.8321,27.4709],[91.8315,27.4707],[91.8309,27.47],[91.8304,27.4693],[91.8299,27.4687],[91.8294,27.4684],[91.8287,27.4682],[91.8278,27.4681],[91.8272,27.468],[91.8268,27.468],[91.8264,27.4679],[91.8258,27.4677],[91.8253,27.4677],[91.8249,27.4674],[91.8239,27.4679],[91.8233,27.4685],[91.8227,27.4687],[91.8221,27.4689],[91.8217,27.4691],[91.8213,27.4694],[91.8212,27.4696],[91.8211,27.4698],[91.8209,27.4703],[91.8207,27.4708],[91.8203,27.4712],[91.8199,27.4712],[91.8194,27.4713],[91.8183,27.4715],[91.8179,27.4717],[91.8173,27.4719],[91.8166,27.472],[91.8157,27.4724],[91.8147,27.473],[91.8138,27.4736],[91.8131,27.4737],[91.8124,27.4736],[91.8118,27.4734],[91.8109,27.4732],[91.8103,27.473],[91.8098,27.4729],[91.8095,27.4731],[91.8091,27.4732],[91.8087,27.4731],[91.8078,27.4727],[91.807,27.4727],[91.8062,27.4727],[91.8054,27.4727],[91.8046,27.4729],[91.8039,27.4728],[91.8034,27.4727],[91.803,27.4724],[91.8026,27.472],[91.8022,27.4717],[91.8014,27.4716],[91.8009,27.4717],[91.8004,27.4718],[91.7996,27.472],[91.7989,27.4724],[91.7979,27.4731],[91.7975,27.473],[91.7972,27.4727],[91.7969,27.4723],[91.7966,27.4718],[91.7962,27.4713],[91.7958,27.4707],[91.7952,27.4703],[91.7941,27.4698],[91.7929,27.4696],[91.7923,27.4697],[91.792,27.4698],[91.7916,27.4698],[91.791,27.4699],[91.7906,27.4699],[91.7899,27.4698],[91.7893,27.4697],[91.7886,27.4696],[91.788,27.4695],[91.7876,27.4694],[91.7873,27.4691],[91.7871,27.4689],[91.7867,27.4687],[91.7856,27.4685],[91.7851,27.4683],[91.7847,27.4681],[91.7844,27.4679],[91.7842,27.4677],[91.7834,27.4671],[91.7831,27.4668],[91.7826,27.4665],[91.7818,27.4662],[91.7811,27.466],[91.7803,27.4657],[91.7795,27.4655],[91.779,27.4654],[91.7783,27.4651],[91.7777,27.4649],[91.7769,27.4648],[91.7757,27.465],[91.7756,27.4651],[91.7746,27.4653],[91.7735,27.4654],[91.773,27.4654],[91.7719,27.4652],[91.771,27.465],[91.7706,27.465],[91.7693,27.4649],[91.7673,27.4649],[91.7668,27.4651],[91.7667,27.4654],[91.7664,27.4657],[91.7664,27.4658],[91.7663,27.4664],[91.7663,27.467],[91.7662,27.468],[91.7664,27.4691],[91.7668,27.4703],[91.7672,27.4717],[91.7675,27.4727],[91.7676,27.4734],[91.7674,27.4738],[91.7667,27.4742],[91.7662,27.4744],[91.7656,27.4745],[91.7642,27.4746],[91.7633,27.4747],[91.7619,27.475],[91.7597,27.4752],[91.7576,27.4754],[91.7562,27.4755],[91.7546,27.4757],[91.7534,27.476],[91.7531,27.4763],[91.7525,27.4767],[91.7521,27.4767],[91.7516,27.4765],[91.7512,27.4763],[91.7509,27.476],[91.7504,27.4754],[91.7501,27.4749],[91.7495,27.4742],[91.7492,27.4739],[91.7485,27.4732],[91.7481,27.4729],[91.7476,27.4725],[91.7472,27.4723],[91.7466,27.4723],[91.7454,27.4719],[91.7436,27.4713],[91.7406,27.4708],[91.7385,27.4703],[91.7352,27.4695],[91.7327,27.4694],[91.7315,27.4689],[91.7295,27.4689],[91.7287,27.4693],[91.7272,27.4698],[91.726,27.4703],[91.7243,27.471],[91.7197,27.4722],[91.7171,27.4732],[91.7144,27.4747],[91.7147,27.4763],[91.7154,27.4787],[91.7168,27.4836],[91.717,27.4845],[91.7172,27.4852],[91.715,27.4882],[91.7132,27.4936],[91.7124,27.4945],[91.7102,27.4962],[91.7071,27.4971],[91.7056,27.4977],[91.704,27.4988],[91.701,27.4999],[91.7002,27.501],[91.6983,27.5021],[91.6977,27.5033],[91.6975,27.5046],[91.6966,27.5054],[91.6947,27.5059],[91.6931,27.5056],[91.6917,27.5045],[91.6908,27.5045],[91.6887,27.5039],[91.6875,27.5029],[91.6873,27.5026],[91.6862,27.5012],[91.6853,27.4996],[91.6855,27.4986],[91.685,27.4972],[91.684,27.4957],[91.683,27.4951],[91.6818,27.4946],[91.6808,27.4946],[91.6786,27.4941],[91.6771,27.4931],[91.6756,27.4931],[91.6746,27.4931],[91.6728,27.4932],[91.6719,27.4931],[91.6709,27.493],[91.6702,27.4924],[91.6693,27.4921],[91.6691,27.4916],[91.6684,27.4907],[91.6673,27.4907],[91.667,27.4907],[91.6667,27.4903],[91.6661,27.4896],[91.6638,27.488],[91.6634,27.4867],[91.6625,27.4867],[91.6608,27.4851],[91.6598,27.4851],[91.6587,27.4844],[91.6563,27.4844],[91.6517,27.4843],[91.6516,27.4854],[91.6512,27.4851],[91.6511,27.4862],[91.6507,27.4876],[91.6508,27.4885],[91.6505,27.489],[91.6499,27.4899],[91.6495,27.4904],[91.6491,27.4911],[91.6489,27.4913],[91.6487,27.4915],[91.6485,27.4919],[91.6484,27.4924],[91.6481,27.494],[91.648,27.4948],[91.6479,27.4953],[91.6478,27.4957],[91.6475,27.4961],[91.6473,27.4965],[91.647,27.4972],[91.647,27.498],[91.6471,27.4985],[91.6469,27.4996],[91.6467,27.5005],[91.6452,27.5014],[91.6439,27.5028],[91.6423,27.5042],[91.6404,27.5059],[91.639,27.5066],[91.6377,27.5078],[91.6363,27.5094],[91.6335,27.5103],[91.6318,27.5113],[91.6297,27.5123],[91.6276,27.5129],[91.6259,27.5136],[91.6243,27.514],[91.6236,27.5143],[91.623,27.5177],[91.6225,27.5194],[91.6218,27.5205],[91.6208,27.522],[91.6196,27.5235],[91.619,27.5249],[91.6185,27.5263],[91.6176,27.5278],[91.6163,27.5299],[91.6147,27.5316],[91.6142,27.5326],[91.6143,27.5346],[91.614,27.5361],[91.6137,27.5385],[91.6133,27.5401],[91.6131,27.5413],[91.6125,27.5434],[91.6113,27.5442],[91.6099,27.544],[91.6084,27.5432],[91.6065,27.5431],[91.606,27.5431],[91.6043,27.5429],[91.6023,27.5426],[91.5997,27.542],[91.5974,27.5419],[91.5953,27.5425],[91.5939,27.5435],[91.5936,27.5441],[91.593,27.545],[91.5922,27.5464],[91.5915,27.5479],[91.5897,27.5499],[91.5883,27.5524],[91.5864,27.5542],[91.5857,27.5545],[91.5844,27.5552],[91.5831,27.557],[91.5831,27.5588],[91.5832,27.5592],[91.5834,27.561],[91.5836,27.5626],[91.5838,27.5635],[91.5837,27.5643],[91.5836,27.5651],[91.5833,27.5662],[91.582,27.5673],[91.5803,27.5692],[91.5775,27.5704],[91.5759,27.5711],[91.575,27.5719],[91.5739,27.5729],[91.5727,27.5745],[91.5722,27.5759],[91.5717,27.5788],[91.5706,27.5805],[91.5692,27.582],[91.5669,27.5841],[91.5669,27.5865],[91.5676,27.5883],[91.5683,27.5901],[91.5689,27.5914],[91.569,27.5917],[91.5701,27.5931],[91.5706,27.5947],[91.5714,27.5959],[91.5727,27.5974],[91.5744,27.598],[91.5757,27.5987],[91.5768,27.5996],[91.5776,27.6002],[91.579,27.6013],[91.5809,27.6023],[91.5821,27.6046],[91.5831,27.6069],[91.5843,27.6082],[91.5844,27.6089],[91.5841,27.6096],[91.5832,27.6104],[91.5821,27.6109],[91.5807,27.6126],[91.5799,27.6134],[91.5781,27.6148],[91.5769,27.6165],[91.5754,27.6183],[91.5741,27.6199],[91.5726,27.62],[91.5708,27.6212],[91.5689,27.6225],[91.5666,27.6245],[91.5654,27.6272],[91.5646,27.6288],[91.5632,27.6307],[91.5629,27.6326],[91.5632,27.6353],[91.5633,27.6361],[91.5634,27.6375],[91.5636,27.6394],[91.5644,27.642],[91.5654,27.6428],[91.5661,27.644],[91.5672,27.6469],[91.5685,27.6484],[91.5697,27.6499],[91.5706,27.6516],[91.5714,27.6534],[91.572,27.6554],[91.5725,27.6573],[91.5731,27.6587],[91.5738,27.661],[91.5747,27.6617],[91.5762,27.6621],[91.5776,27.6627],[91.5791,27.6628],[91.5801,27.6629],[91.5816,27.6631],[91.5834,27.6642],[91.5852,27.6649],[91.5875,27.667],[91.5886,27.6677],[91.5895,27.6682],[91.5922,27.67],[91.5939,27.6709],[91.5948,27.6725],[91.5953,27.6739],[91.5959,27.6751],[91.5964,27.6768],[91.5967,27.6786],[91.5977,27.6804],[91.5992,27.6814],[91.6008,27.6823],[91.6027,27.6827],[91.6051,27.6841],[91.6053,27.6851],[91.6061,27.6872],[91.6071,27.6891],[91.6081,27.6898],[91.6096,27.6907],[91.6114,27.6916],[91.6133,27.6921],[91.6159,27.6929],[91.618,27.6933],[91.62,27.6941],[91.6218,27.6946],[91.6242,27.6955],[91.6257,27.6968],[91.6276,27.6986],[91.6287,27.6993],[91.6292,27.7004],[91.6296,27.7023],[91.63,27.7039],[91.6299,27.7057],[91.6303,27.7075],[91.6304,27.7092],[91.6312,27.7103],[91.6315,27.7108],[91.632,27.7114],[91.6324,27.7129],[91.6331,27.7148],[91.6332,27.7184],[91.6333,27.7196],[91.6341,27.7214],[91.6343,27.7229],[91.6349,27.7246],[91.6357,27.7269],[91.6364,27.7285],[91.6379,27.73],[91.6387,27.7315],[91.6394,27.7331],[91.6396,27.7348],[91.6394,27.7358],[91.6389,27.7372],[91.6378,27.7384],[91.6371,27.7397],[91.6358,27.7415],[91.6347,27.7449],[91.6354,27.747],[91.6364,27.749],[91.6374,27.7502],[91.6391,27.7509],[91.6402,27.7519],[91.6412,27.7523],[91.6415,27.7526],[91.6419,27.7531],[91.6417,27.7538],[91.6421,27.7555],[91.6429,27.7571],[91.6433,27.7591],[91.6439,27.7611],[91.6445,27.7624],[91.6451,27.7636],[91.6456,27.7653],[91.6459,27.7674],[91.6459,27.7687],[91.6455,27.7692],[91.644,27.7705],[91.6421,27.7713],[91.6399,27.7734],[91.6385,27.7754],[91.638,27.7774],[91.6376,27.7786],[91.6379,27.7805],[91.6379,27.7832],[91.6387,27.7852],[91.638,27.7869],[91.6375,27.7884],[91.6375,27.7899],[91.6376,27.7915],[91.6374,27.7925],[91.6371,27.7934],[91.6366,27.7942],[91.6363,27.7953],[91.636,27.7974],[91.6354,27.7997],[91.6357,27.8015],[91.6354,27.8022],[91.6351,27.8029],[91.6348,27.8036],[91.6343,27.8043],[91.6331,27.8053],[91.6321,27.8056],[91.631,27.8063],[91.6302,27.8073],[91.6286,27.8093],[91.6277,27.8105],[91.6269,27.8116],[91.6254,27.8119],[91.625,27.8124],[91.6232,27.8134],[91.6211,27.8147],[91.6192,27.8159],[91.6179,27.8179],[91.6167,27.82],[91.6149,27.8211],[91.6131,27.8221],[91.6118,27.8227],[91.6106,27.8235],[91.6092,27.8237],[91.6075,27.8237],[91.6054,27.8233],[91.6033,27.8229],[91.601,27.8221],[91.6001,27.8213],[91.5992,27.8206],[91.5986,27.8202],[91.5974,27.8196],[91.5959,27.8187],[91.5949,27.8183],[91.5929,27.8184],[91.5902,27.8182],[91.5874,27.818],[91.5861,27.8165],[91.5845,27.8144],[91.5823,27.8133],[91.5798,27.8131],[91.5771,27.8134],[91.5767,27.8136],[91.575,27.8145],[91.5738,27.8154],[91.5725,27.8165],[91.5714,27.8174],[91.5702,27.8188],[91.5689,27.8205],[91.5684,27.8214],[91.5676,27.8226],[91.5669,27.8242],[91.5662,27.8252],[91.5652,27.8266],[91.5644,27.8281],[91.563,27.8295],[91.5624,27.831],[91.562,27.833],[91.5614,27.8349],[91.5611,27.8367],[91.561,27.838],[91.56,27.8396],[91.5592,27.8403],[91.5586,27.8416],[91.5577,27.8418],[91.557,27.8428],[91.5557,27.8453],[91.5554,27.8483],[91.5548,27.8499],[91.5554,27.8508],[91.5574,27.8523],[91.5581,27.8524],[91.5594,27.8526],[91.5609,27.8532],[91.563,27.8525],[91.5631,27.8524],[91.5637,27.8524],[91.5645,27.852],[91.5658,27.8507],[91.5666,27.8503],[91.5686,27.8489],[91.5695,27.8485],[91.5702,27.8486],[91.5707,27.849],[91.5712,27.8495],[91.5721,27.8507],[91.5727,27.8519],[91.5729,27.8535],[91.5735,27.8551],[91.5738,27.8567],[91.5743,27.8588],[91.5749,27.8604],[91.576,27.8618],[91.5767,27.8628],[91.5778,27.8631],[91.5797,27.8633],[91.5826,27.8628],[91.5852,27.8612],[91.5869,27.8603],[91.5882,27.8591],[91.5885,27.8587],[91.5891,27.858],[91.5899,27.8571],[91.5905,27.8566],[91.5917,27.8564],[91.5924,27.8564],[91.5936,27.8562],[91.5946,27.8566],[91.5956,27.8577],[91.5966,27.8588],[91.5979,27.8597],[91.5982,27.8599],[91.5993,27.8593],[91.6074,27.854],[91.6149,27.8569],[91.6216,27.8577],[91.6266,27.8558],[91.6273,27.8556],[91.6319,27.8551],[91.6378,27.8545],[91.6419,27.8541],[91.6541,27.8571],[91.662,27.8582],[91.6693,27.8567],[91.6796,27.8441],[91.6895,27.8291],[91.6941,27.8221],[91.7022,27.8168],[91.7096,27.8133],[91.7212,27.8105],[91.7463,27.8034],[91.7581,27.8013],[91.7711,27.8012],[91.7787,27.8031],[91.7886,27.8046],[91.7991,27.8082],[91.8041,27.8089],[91.8105,27.803],[91.8153,27.8034],[91.8242,27.8104],[91.8279,27.8076],[91.8289,27.7967],[91.8314,27.789],[91.8335,27.7799],[91.8452,27.7757],[91.8489,27.7682],[91.8512,27.7651],[91.8529,27.7593],[91.8576,27.7423],[91.8605,27.7369],[91.8704,27.7345],[91.8733,27.7305],[91.8758,27.726],[91.8786,27.7218],[91.8884,27.7242],[91.9023,27.7271],[91.9028,27.727],[91.9084,27.7263],[91.915,27.7182],[91.9188,27.7151],[91.934,27.7216],[91.9451,27.7287],[91.9466,27.7322],[91.9498,27.7395],[91.9556,27.7507],[91.9611,27.751],[91.9658,27.7514],[91.9729,27.7599],[91.9789,27.7647],[91.9839,27.77],[91.995,27.7684],[92.0003,27.7675],[92.0107,27.7647],[92.0378,27.7572],[92.0486,27.757],[92.0554,27.7591],[92.0676,27.7679],[92.0846,27.7798],[92.0992,27.7934],[92.12,27.8106],[92.1389,27.8245],[92.1561,27.837],[92.1709,27.8429],[92.1893,27.8521],[92.2003,27.8571],[92.2104,27.859],[92.2342,27.8626],[92.2368,27.8628],[92.2463,27.8635],[92.2552,27.8622],[92.264,27.8579],[92.2674,27.8539],[92.2711,27.8446],[92.2774,27.8252],[92.2847,27.8076],[92.3074,27.7792],[92.316,27.7782],[92.3289,27.7835],[92.3503,27.7907],[92.3642,27.7936],[92.3696,27.7933],[92.3747,27.7937],[92.3798,27.795],[92.383,27.8156],[92.398,27.8205],[92.4069,27.8221],[92.4139,27.823],[92.4274,27.812],[92.4438,27.8008],[92.4549,27.8033],[92.4595,27.8076],[92.467,27.8152],[92.4767,27.8215],[92.4846,27.8286],[92.4925,27.8368],[92.5013,27.8415],[92.5151,27.8402],[92.5264,27.8311],[92.5345,27.8243],[92.5439,27.8175],[92.5543,27.8183],[92.5607,27.821],[92.5653,27.8274],[92.5762,27.8418],[92.5857,27.8569],[92.6051,27.8775],[92.6204,27.8845],[92.6316,27.8873],[92.6516,27.893],[92.6692,27.9001],[92.6742,27.906],[92.6864,27.9195],[92.7013,27.9338],[92.7139,27.9493],[92.7298,27.9719],[92.7332,27.9779],[92.7395,27.9894],[92.7335,27.9957],[92.7278,28.0015],[92.7221,28.0145],[92.7213,28.0163],[92.7095,28.0333],[92.7025,28.0408],[92.6954,28.0484],[92.6813,28.0586],[92.6796,28.0589],[92.6629,28.0628],[92.6612,28.0677],[92.6673,28.0783],[92.6731,28.0967],[92.6776,28.1104],[92.6802,28.118],[92.6849,28.1234],[92.687,28.1258],[92.6942,28.1298],[92.6958,28.1307],[92.7046,28.1366],[92.7209,28.145],[92.7366,28.1516],[92.7379,28.1525],[92.7442,28.157],[92.7583,28.1669],[92.7595,28.1677],[92.783,28.1837],[92.7996,28.2022],[92.8075,28.2041],[92.8162,28.2016],[92.8193,28.1974],[92.8177,28.1843],[92.8186,28.1816],[92.8213,28.1739],[92.8265,28.172],[92.8301,28.173],[92.8394,28.1792],[92.8396,28.1794],[92.8473,28.1828],[92.8526,28.1852],[92.8728,28.1944],[92.8953,28.2046],[92.9053,28.2152],[92.9129,28.235],[92.9229,28.2426],[92.9277,28.2441],[92.9335,28.246],[92.9417,28.2486],[92.9555,28.2583],[92.9645,28.2618],[92.9745,28.2596],[92.986,28.2513],[92.9869,28.2425],[92.99,28.2344],[92.9947,28.2303],[93.0004,28.2308],[93.0099,28.2399],[93.0203,28.2523],[93.0338,28.2631],[93.0329,28.2668],[93.0257,28.2866],[93.0239,28.2928],[93.0226,28.2974],[93.0219,28.2999],[93.0237,28.3032],[93.025,28.3033],[93.0322,28.3037],[93.0459,28.3025],[93.0462,28.3025],[93.0617,28.3069],[93.0627,28.3072],[93.0692,28.3086],[93.072,28.3093],[93.0871,28.3062],[93.0954,28.3071],[93.1107,28.3148],[93.1121,28.3155],[93.1248,28.3268],[93.1291,28.3265],[93.1365,28.3249],[93.155,28.3185],[93.1798,28.3172],[93.1938,28.318],[93.2069,28.3233],[93.219,28.3337],[93.2199,28.3355],[93.2215,28.3386],[93.2227,28.3411],[93.2203,28.3555],[93.2193,28.3615],[93.2223,28.3779],[93.2315,28.4007],[93.2259,28.4083],[93.2161,28.4137],[93.2046,28.4193],[93.1904,28.426],[93.1811,28.4327],[93.1827,28.44],[93.1903,28.4442],[93.2009,28.449],[93.2075,28.4522],[93.2136,28.4582],[93.2225,28.4703],[93.2291,28.478],[93.2353,28.4827],[93.2364,28.4832],[93.254,28.4916],[93.2629,28.4969],[93.2696,28.5011],[93.2759,28.5048],[93.2793,28.5138],[93.2816,28.5212],[93.2889,28.5434],[93.2974,28.5576],[93.3053,28.5663],[93.3033,28.5769],[93.2975,28.592],[93.2999,28.5996],[93.3064,28.601],[93.3114,28.6038],[93.3196,28.607],[93.3276,28.6083],[93.3299,28.6156],[93.331,28.6235],[93.3323,28.6337],[93.3355,28.6382],[93.3369,28.6402],[93.3419,28.6401],[93.3509,28.6389],[93.3618,28.6408],[93.3697,28.6445],[93.3897,28.6495],[93.3954,28.6504],[93.4052,28.6519],[93.4118,28.6529],[93.4298,28.6623],[93.4371,28.6691],[93.4375,28.6694],[93.4413,28.6726],[93.4457,28.676],[93.4567,28.6684],[93.4626,28.657],[93.4668,28.6521],[93.4742,28.6537],[93.4755,28.6623],[93.4792,28.675],[93.4836,28.6801],[93.4856,28.6811],[93.4911,28.684],[93.4955,28.684],[93.5009,28.6821],[93.5092,28.6798],[93.512,28.678],[93.5184,28.6738],[93.5189,28.6715],[93.5202,28.6656],[93.5245,28.6613],[93.5338,28.6588],[93.5613,28.6596],[93.607,28.6559],[93.6201,28.6577],[93.6349,28.661],[93.6389,28.6619],[93.6536,28.6668],[93.6694,28.672],[93.6855,28.6793],[93.6996,28.6799],[93.7138,28.6839],[93.725,28.6882],[93.7316,28.6893],[93.7436,28.6846],[93.7473,28.6832],[93.7613,28.6746],[93.7717,28.67],[93.7752,28.6685],[93.7853,28.6714],[93.7974,28.6803],[93.8188,28.6949],[93.8356,28.7045],[93.844,28.7074],[93.8497,28.707],[93.8579,28.7058],[93.8653,28.7037],[93.9041,28.6767],[93.9196,28.6704],[93.9261,28.6718],[93.9346,28.6771],[93.9435,28.6892],[93.957,28.7047],[93.9603,28.7131],[93.9625,28.7187],[93.9656,28.7232],[93.9651,28.743],[93.9685,28.7514],[93.9776,28.7593],[93.9904,28.7656],[93.9981,28.7716],[94.0014,28.7755],[94.0016,28.7843],[93.9984,28.788],[93.9853,28.7983],[93.9856,28.8068],[93.9868,28.8079],[94,28.8198],[93.998,28.8311],[93.9949,28.8414],[94.0029,28.847],[94.0148,28.8512],[94.0179,28.8516],[94.0301,28.8535],[94.0342,28.861],[94.044,28.8738],[94.0569,28.8864],[94.0581,28.8876],[94.0665,28.8961],[94.0788,28.9058],[94.0942,28.9151],[94.1205,28.9303],[94.1365,28.9404],[94.1551,28.9548],[94.1569,28.9594],[94.1583,28.9741],[94.1668,28.9812],[94.1729,28.9918],[94.1718,29.0032],[94.1719,29.007],[94.172,29.0078],[94.1752,29.0205],[94.1795,29.0286],[94.185,29.0391],[94.192,29.0488],[94.199,29.0601],[94.2058,29.0694],[94.2147,29.0841],[94.2247,29.09],[94.2331,29.0963],[94.2381,29.1005],[94.2458,29.108],[94.2577,29.1168],[94.2689,29.1271],[94.2776,29.1354],[94.2877,29.1481],[94.2924,29.1496],[94.2976,29.1506],[94.3075,29.1509],[94.3116,29.1506],[94.3185,29.1501],[94.3313,29.1503],[94.3502,29.1502],[94.3569,29.1526],[94.3578,29.1532],[94.3582,29.1535],[94.3637,29.1572],[94.3676,29.1663],[94.3701,29.1818],[94.3723,29.1902],[94.3768,29.1945],[94.3971,29.2038],[94.3995,29.205],[94.4139,29.2127],[94.4257,29.2236],[94.4312,29.2268],[94.4339,29.2265],[94.4415,29.2254],[94.4547,29.224],[94.4669,29.2217],[94.4701,29.2209],[94.4787,29.2188],[94.4945,29.2167],[94.5,29.2168],[94.503,29.2169],[94.514,29.2172],[94.5331,29.2187],[94.5458,29.2233],[94.5579,29.2289],[94.56,29.2315],[94.5674,29.2408],[94.5721,29.2506],[94.5726,29.2565],[94.5734,29.2649],[94.5739,29.2752],[94.5778,29.2808],[94.5838,29.2827],[94.589,29.2863],[94.5939,29.2898],[94.6054,29.297],[94.6107,29.3012],[94.619,29.3128],[94.6211,29.3225],[94.6237,29.3368],[94.6235,29.3456],[94.6282,29.3486],[94.6415,29.3469],[94.6496,29.3419],[94.666,29.3318],[94.6772,29.3278],[94.6816,29.3238],[94.691,29.3167],[94.6946,29.3139],[94.7045,29.3078],[94.7111,29.3043],[94.7159,29.3001],[94.7307,29.2872],[94.7366,29.282],[94.7482,29.2663],[94.7665,29.2528],[94.7774,29.2411],[94.7828,29.2332],[94.7908,29.2262],[94.7954,29.2187],[94.7979,29.21],[94.7965,29.1955],[94.7929,29.1804],[94.7929,29.1697],[94.798,29.1646],[94.8095,29.1667],[94.8203,29.171],[94.8326,29.1767],[94.8403,29.1802],[94.8466,29.183],[94.8524,29.1837],[94.8718,29.1843],[94.8812,29.1818],[94.8926,29.176],[94.907,29.1665],[94.9188,29.1623],[94.9268,29.1628],[94.9382,29.161],[94.9394,29.1609],[94.9569,29.1604],[94.9677,29.1598],[94.971,29.1562],[94.9816,29.15],[94.9865,29.1467],[94.9951,29.141],[95.005,29.1357],[95.0112,29.1334],[95.0228,29.1306],[95.0257,29.1336],[95.0182,29.143],[95.0104,29.1519],[95.0042,29.1577],[94.992,29.1658],[94.9867,29.1735],[94.9975,29.173],[95.0049,29.1705],[95.0109,29.1671],[95.0203,29.1611],[95.0234,29.1598],[95.0292,29.1573],[95.0397,29.1524],[95.0537,29.1502],[95.0543,29.1501],[95.0656,29.1479],[95.0781,29.1456],[95.0921,29.1444],[95.0984,29.1438],[95.1025,29.1401],[95.1089,29.129],[95.1135,29.1212],[95.1218,29.1163],[95.1459,29.1156],[95.1549,29.1133],[95.1775,29.1086],[95.1966,29.1076],[95.2029,29.1079],[95.2136,29.1083],[95.2167,29.1085],[95.2405,29.1107],[95.2508,29.1099],[95.2479,29.0938],[95.2514,29.0857],[95.2506,29.0814],[95.2497,29.0766],[95.2501,29.0686],[95.2575,29.062],[95.2666,29.0576],[95.2724,29.0586],[95.2779,29.0595],[95.2862,29.0622],[95.2975,29.0632],[95.3027,29.0629],[95.3087,29.0593],[95.3183,29.0551],[95.3311,29.0515],[95.3455,29.0461],[95.3739,29.0413],[95.3846,29.038],[95.4,29.0354],[95.4101,29.0341],[95.4165,29.0382],[95.4215,29.0412],[95.4294,29.0413],[95.4387,29.0372],[95.4474,29.036],[95.4543,29.037],[95.4593,29.0431],[95.4649,29.0546],[95.4702,29.0609],[95.474,29.0659],[95.483,29.0711],[95.4859,29.0763],[95.4891,29.0897],[95.4919,29.1092],[95.4919,29.1237],[95.495,29.1353],[95.4963,29.1403],[95.5035,29.143],[95.5138,29.1389],[95.5278,29.1347],[95.5383,29.1306],[95.5468,29.1287],[95.5466,29.1458],[95.5471,29.1513],[95.5468,29.1587],[95.5463,29.1681],[95.5453,29.1806],[95.5451,29.1818],[95.5416,29.197],[95.5372,29.2082],[95.5377,29.214],[95.545,29.2156],[95.5604,29.2165],[95.5797,29.2174],[95.5858,29.218],[95.5856,29.2282],[95.5876,29.2424],[95.593,29.2542],[95.5987,29.2619],[95.6051,29.2625],[95.6206,29.2549],[95.6312,29.249],[95.638,29.2498],[95.6429,29.256],[95.6523,29.2605],[95.6602,29.2652],[95.6732,29.2711],[95.6832,29.2773],[95.6923,29.2865],[95.6973,29.2946],[95.7019,29.3004],[95.7063,29.3007],[95.7152,29.2983],[95.7271,29.3025],[95.7435,29.3162],[95.7454,29.3291],[95.7651,29.3446],[95.7729,29.3518],[95.7776,29.3564],[95.7831,29.3564],[95.787,29.3474],[95.791,29.3379],[95.7965,29.3363],[95.8026,29.3394],[95.8035,29.3401],[95.8101,29.3451],[95.8193,29.3521],[95.8268,29.3557],[95.8403,29.3537],[95.8483,29.3587],[95.8589,29.3675],[95.8752,29.3856],[95.8809,29.3915],[95.8893,29.3914],[95.8993,29.3898],[95.9096,29.3881],[95.9354,29.3843],[95.9571,29.3827],[95.9659,29.3874],[95.978,29.4004],[95.9872,29.4069],[95.9932,29.4104],[96.0025,29.4121],[96.0145,29.4214],[96.0256,29.4334],[96.0347,29.443],[96.0441,29.4505],[96.0556,29.4584],[96.0695,29.4623],[96.0805,29.4633],[96.0872,29.4616],[96.0928,29.4564],[96.1012,29.4453],[96.1132,29.4275],[96.1239,29.4176],[96.1392,29.4078],[96.15,29.3993],[96.1578,29.3831]]]}}]}