{"type":"FeatureCollection","name":"Assam","crs":{"type":"name","properties":{"name":"urn:ogc:def:crs:OGC:1.3:CRS84"}},"features":[{"type":"Feature","properties":{"ID_0":105,"ISO":"IND","NAME_0":"India","ID_1":4,"NAME_1":"Assam","TYPE_1":"State","ENGTYPE_1":"State","NL_NAME_1":null,"VARNAME_1":null},"geometry":{"type":"MultiPolygon","coordinates":[[[[89.8715,25.5373],[89.8712,25.537],[89.8757,25.5285],[89.8703,25.5215],[89.8738,25.5136],[89.8756,25.5055],[89.88,25.4956],[89.88,25.4886],[89.8718,25.4789],[89.8687,25.4764],[89.864,25.4729],[89.8596,25.4734],[89.8551,25.476],[89.8555,25.4796],[89.8555,25.4828],[89.8548,25.4847],[89.8551,25.4884],[89.8581,25.4899],[89.8596,25.4914],[89.8599,25.4946],[89.859,25.4964],[89.858,25.4985],[89.8579,25.5004],[89.861,25.5028],[89.863,25.5047],[89.8641,25.5102],[89.864,25.5144],[89.8634,25.5175],[89.8619,25.5206],[89.8592,25.5274],[89.8583,25.5301],[89.8579,25.5327],[89.8578,25.5348],[89.8586,25.5365],[89.8608,25.538],[89.8653,25.5396],[89.8715,25.5373]]],[[[89.8715,25.5373],[89.8709,25.5386],[89.8732,25.5401],[89.8739,25.5419],[89.8746,25.5416],[89.8715,25.5373]]],[[[95.9523,27.9418],[95.9516,27.9392],[95.9523,27.9372],[95.9576,27.9371],[95.9575,27.9329],[95.9538,27.9302],[95.9553,27.9268],[95.9525,27.9228],[95.9435,27.9126],[95.9393,27.9098],[95.9383,27.9033],[95.9286,27.9029],[95.925,27.9009],[95.9239,27.896],[95.9286,27.8905],[95.9274,27.8873],[95.9238,27.8903],[95.9213,27.8905],[95.9226,27.8862],[95.9187,27.8828],[95.914,27.8808],[95.9129,27.8781],[95.9141,27.8747],[95.9114,27.873],[95.9062,27.8772],[95.9072,27.8686],[95.9006,27.8667],[95.8976,27.8675],[95.895,27.8672],[95.8942,27.861],[95.8921,27.857],[95.8766,27.8418],[95.8737,27.8398],[95.8663,27.8385],[95.8521,27.8341],[95.846,27.8301],[95.8434,27.8215],[95.835,27.8158],[95.8289,27.8137],[95.8231,27.8092],[95.8113,27.7937],[95.8076,27.7899],[95.8064,27.7836],[95.8009,27.7769],[95.7954,27.7726],[95.7888,27.7651],[95.7805,27.7582],[95.7878,27.7421],[95.7848,27.7398],[95.7719,27.7345],[95.7627,27.7329],[95.7582,27.7311],[95.7587,27.7267],[95.763,27.7227],[95.7704,27.72],[95.7705,27.716],[95.7726,27.7113],[95.7734,27.7054],[95.7727,27.7],[95.7746,27.6967],[95.7788,27.6944],[95.7931,27.6923],[95.7965,27.6881],[95.7945,27.6842],[95.7855,27.6833],[95.7804,27.6792],[95.7785,27.6723],[95.7778,27.6663],[95.7792,27.6605],[95.7862,27.6557],[95.7949,27.6528],[95.8015,27.649],[95.7996,27.643],[95.7973,27.6396],[95.7974,27.6359],[95.7873,27.6323],[95.785,27.6274],[95.7871,27.6234],[95.7943,27.6224],[95.7961,27.6182],[95.798,27.6078],[95.8096,27.6053],[95.8168,27.6054],[95.8209,27.6047],[95.8242,27.603],[95.8203,27.5956],[95.8198,27.5903],[95.8212,27.5817],[95.8277,27.5818],[95.8319,27.5789],[95.8363,27.5712],[95.8399,27.5666],[95.846,27.568],[95.8521,27.5657],[95.8624,27.5526],[95.867,27.5511],[95.8736,27.5512],[95.8813,27.5532],[95.8814,27.5458],[95.8799,27.5298],[95.8808,27.5225],[95.8785,27.5198],[95.8818,27.5151],[95.8871,27.5113],[95.8896,27.5062],[95.886,27.5036],[95.8805,27.5011],[95.8791,27.4992],[95.8792,27.4927],[95.8813,27.4874],[95.8784,27.4756],[95.8763,27.4711],[95.8661,27.469],[95.8612,27.4663],[95.8595,27.4626],[95.8638,27.452],[95.8596,27.4491],[95.8552,27.4474],[95.8529,27.4448],[95.8495,27.4349],[95.8493,27.4303],[95.8557,27.4277],[95.8576,27.4248],[95.858,27.4207],[95.8673,27.4172],[95.8667,27.4192],[95.8642,27.4213],[95.8632,27.4249],[95.8649,27.429],[95.8758,27.4354],[95.8826,27.4441],[95.8887,27.4441],[95.8904,27.4397],[95.8894,27.4316],[95.89,27.4264],[95.8944,27.4183],[95.8943,27.4144],[95.8919,27.4098],[95.8931,27.406],[95.9001,27.4113],[95.9061,27.4233],[95.908,27.4326],[95.9112,27.44],[95.9168,27.4432],[95.9333,27.4467],[95.943,27.4464],[95.9499,27.445],[95.9531,27.4435],[95.9535,27.4408],[95.9505,27.4372],[95.953,27.4333],[95.9573,27.4329],[95.9611,27.4287],[95.9636,27.4355],[95.967,27.4367],[95.968,27.4241],[95.9718,27.4304],[95.9733,27.4368],[95.9778,27.4355],[95.9778,27.4323],[95.9802,27.4302],[95.9809,27.4261],[95.9781,27.4253],[95.9795,27.4219],[95.9895,27.4217],[95.9912,27.4194],[95.9909,27.4146],[95.9946,27.4124],[96.001,27.4035],[96.0001,27.3976],[96.0021,27.3935],[96.0084,27.3872],[96.0106,27.3813],[96.0149,27.3755],[96.0209,27.3713],[96.0184,27.3679],[96.0132,27.364],[96.0031,27.3645],[96.0021,27.3641],[95.997,27.3635],[95.9949,27.3602],[95.9937,27.3514],[95.9773,27.3423],[95.9742,27.3394],[95.97,27.337],[95.9723,27.3346],[95.9842,27.3343],[95.978,27.3327],[95.9687,27.3318],[95.969,27.3284],[95.9679,27.3246],[95.9626,27.3243],[95.9656,27.3217],[95.9632,27.3171],[95.9406,27.3096],[95.9187,27.2992],[95.9123,27.2931],[95.9064,27.2919],[95.9024,27.2878],[95.9045,27.2862],[95.9043,27.2799],[95.9012,27.2764],[95.8981,27.2643],[95.894,27.263],[95.8877,27.2633],[95.8824,27.2669],[95.8776,27.2674],[95.8724,27.2669],[95.8654,27.2767],[95.8608,27.2798],[95.8606,27.2834],[95.8619,27.29],[95.8605,27.2942],[95.8502,27.2931],[95.8379,27.2871],[95.8102,27.2809],[95.8085,27.2854],[95.8065,27.288],[95.8063,27.2917],[95.8008,27.2887],[95.7908,27.2855],[95.7847,27.2791],[95.757,27.2744],[95.7399,27.2699],[95.7364,27.2668],[95.7319,27.2665],[95.7255,27.2592],[95.7211,27.2576],[95.7155,27.2591],[95.7019,27.2556],[95.6954,27.2581],[95.6844,27.2574],[95.6794,27.2562],[95.6792,27.2539],[95.637,27.2369],[95.6341,27.2398],[95.6191,27.2366],[95.6074,27.2314],[95.5992,27.2296],[95.5901,27.2295],[95.5779,27.2422],[95.5783,27.2471],[95.5745,27.2511],[95.5633,27.2525],[95.5561,27.2544],[95.5542,27.2593],[95.5348,27.2706],[95.5297,27.2691],[95.5259,27.2663],[95.5205,27.2637],[95.5162,27.2686],[95.5109,27.2663],[95.5106,27.259],[95.5063,27.2546],[95.491,27.2487],[95.4872,27.246],[95.4806,27.2323],[95.4745,27.2269],[95.4739,27.2236],[95.4707,27.2232],[95.4694,27.2183],[95.4597,27.2134],[95.4589,27.2096],[95.4621,27.203],[95.4658,27.1974],[95.4686,27.1905],[95.4671,27.1856],[95.4637,27.1821],[95.468,27.1723],[95.4638,27.167],[95.4587,27.1633],[95.4599,27.1604],[95.4633,27.1595],[95.4651,27.1576],[95.4659,27.1548],[95.4637,27.1504],[95.4611,27.1402],[95.4578,27.1356],[95.4534,27.1359],[95.4508,27.1388],[95.4471,27.1383],[95.4456,27.1343],[95.441,27.1328],[95.4292,27.1341],[95.4203,27.1308],[95.4063,27.1183],[95.3961,27.1145],[95.3861,27.1117],[95.3855,27.1051],[95.377,27.1022],[95.3727,27.1017],[95.3737,27.108],[95.3683,27.1074],[95.3678,27.1097],[95.3707,27.1101],[95.3713,27.1114],[95.3665,27.1129],[95.3486,27.1048],[95.3351,27.0959],[95.3233,27.0896],[95.3132,27.0867],[95.3097,27.0811],[95.2966,27.0729],[95.2879,27.0663],[95.2778,27.0568],[95.2794,27.0539],[95.2776,27.0498],[95.271,27.0451],[95.2667,27.0404],[95.2626,27.041],[95.2599,27.039],[95.2607,27.0373],[95.2522,27.0319],[95.2482,27.0303],[95.2437,27.0342],[95.2379,27.0432],[95.2347,27.0436],[95.2309,27.0457],[95.2321,27.0429],[95.2295,27.0402],[95.226,27.0423],[95.2226,27.0409],[95.2197,27.0368],[95.2138,27.0335],[95.2077,27.0348],[95.2038,27.043],[95.2009,27.0423],[95.1985,27.0444],[95.1955,27.0429],[95.1545,27.006],[95.1495,26.9998],[95.1428,26.9983],[95.137,26.9936],[95.1264,26.9869],[95.1169,26.9837],[95.1135,26.9776],[95.1132,26.9723],[95.11,26.9669],[95.0869,26.9527],[95.0653,26.9482],[95.0546,26.9409],[95.038,26.9385],[95.0286,26.9325],[95.0213,26.9254],[95.0166,26.9244],[95.0058,26.9249],[94.9995,26.9243],[94.9931,26.9262],[94.9912,26.9229],[94.9921,26.9184],[94.9894,26.9178],[94.9857,26.9182],[94.9797,26.9246],[94.9743,26.9276],[94.9707,26.9284],[94.9679,26.9315],[94.9668,26.9362],[94.9642,26.9406],[94.9573,26.9436],[94.9471,26.9402],[94.9412,26.9393],[94.9386,26.938],[94.9336,26.9385],[94.9282,26.9521],[94.9238,26.9503],[94.918,26.9451],[94.9139,26.9426],[94.9088,26.9423],[94.9013,26.9403],[94.8945,26.9373],[94.8862,26.9325],[94.8815,26.9267],[94.8696,26.915],[94.8686,26.9099],[94.8653,26.9069],[94.859,26.8933],[94.8533,26.8853],[94.8515,26.8813],[94.8458,26.8768],[94.8388,26.874],[94.8365,26.8685],[94.8323,26.8627],[94.8263,26.8593],[94.8211,26.8545],[94.8217,26.8493],[94.8211,26.8449],[94.8167,26.8415],[94.8154,26.8368],[94.8151,26.83],[94.8131,26.8248],[94.8092,26.8233],[94.8067,26.8212],[94.7966,26.8185],[94.8016,26.8138],[94.8054,26.8122],[94.8022,26.8061],[94.795,26.8037],[94.7908,26.8015],[94.7856,26.7986],[94.7731,26.795],[94.7691,26.7911],[94.7683,26.7834],[94.7624,26.7799],[94.76,26.7766],[94.7593,26.7741],[94.7564,26.7723],[94.7541,26.7743],[94.7507,26.7797],[94.7458,26.7821],[94.7424,26.7786],[94.7417,26.7736],[94.7377,26.7689],[94.7365,26.7674],[94.7319,26.764],[94.7197,26.758],[94.7114,26.7528],[94.6969,26.7397],[94.6915,26.7358],[94.6866,26.7326],[94.6651,26.7278],[94.6585,26.7248],[94.6534,26.7236],[94.6462,26.7245],[94.6403,26.724],[94.632,26.7197],[94.6283,26.7186],[94.6227,26.7195],[94.6211,26.7212],[94.6201,26.7267],[94.6174,26.7306],[94.6119,26.7327],[94.6104,26.7359],[94.6101,26.7401],[94.6041,26.7393],[94.5999,26.7377],[94.5952,26.7299],[94.5933,26.7261],[94.6005,26.7253],[94.6032,26.7238],[94.6046,26.7199],[94.6047,26.7172],[94.6037,26.7162],[94.5983,26.7199],[94.5962,26.7182],[94.595,26.7124],[94.5949,26.7066],[94.5924,26.7027],[94.589,26.7024],[94.5854,26.7033],[94.5828,26.7056],[94.5715,26.6962],[94.5747,26.691],[94.5709,26.6901],[94.5661,26.6899],[94.563,26.6906],[94.5623,26.6938],[94.5647,26.706],[94.5634,26.7074],[94.5611,26.7081],[94.5547,26.7084],[94.5504,26.7102],[94.5451,26.7109],[94.5409,26.7096],[94.5278,26.7013],[94.5227,26.7044],[94.5201,26.7015],[94.5197,26.6946],[94.5155,26.6873],[94.5099,26.6834],[94.5071,26.683],[94.503,26.6777],[94.5,26.6752],[94.4983,26.6737],[94.4928,26.6723],[94.4857,26.6737],[94.4679,26.6698],[94.4645,26.6675],[94.4618,26.6632],[94.4586,26.6553],[94.4614,26.6481],[94.4617,26.6438],[94.4645,26.6404],[94.4648,26.6387],[94.4625,26.6355],[94.4568,26.6366],[94.4545,26.639],[94.4345,26.6254],[94.4099,26.6164],[94.4079,26.6143],[94.4086,26.6098],[94.406,26.6019],[94.4148,26.5833],[94.4119,26.5734],[94.4093,26.569],[94.4078,26.5614],[94.4106,26.5606],[94.412,26.5585],[94.409,26.5571],[94.4061,26.5574],[94.4048,26.5552],[94.4076,26.5524],[94.408,26.5497],[94.4067,26.5483],[94.4027,26.5469],[94.4013,26.5441],[94.4025,26.5388],[94.3989,26.5345],[94.3995,26.5323],[94.3966,26.5297],[94.3941,26.5326],[94.3914,26.5328],[94.3783,26.5253],[94.3769,26.5232],[94.3781,26.5172],[94.3776,26.5131],[94.3692,26.51],[94.3645,26.5103],[94.3587,26.5091],[94.3546,26.5103],[94.3511,26.5086],[94.3537,26.5048],[94.3555,26.5035],[94.3536,26.5022],[94.3518,26.4992],[94.3521,26.4958],[94.3496,26.4928],[94.3434,26.49],[94.3369,26.4848],[94.3326,26.485],[94.3293,26.4838],[94.3239,26.4794],[94.3248,26.4722],[94.3243,26.4707],[94.3165,26.4629],[94.3135,26.465],[94.311,26.4661],[94.3033,26.4673],[94.2939,26.4807],[94.2924,26.49],[94.2902,26.496],[94.2872,26.5085],[94.2871,26.515],[94.2888,26.5183],[94.2891,26.5252],[94.2856,26.5341],[94.2849,26.5403],[94.2856,26.5466],[94.2848,26.5554],[94.2853,26.5582],[94.2889,26.5599],[94.2898,26.5641],[94.2823,26.5635],[94.2767,26.5588],[94.2626,26.5439],[94.2533,26.5325],[94.2521,26.5277],[94.2448,26.5169],[94.2399,26.5114],[94.2289,26.5033],[94.2236,26.5006],[94.2115,26.4898],[94.2094,26.4837],[94.2011,26.4699],[94.1865,26.4605],[94.1758,26.4318],[94.1765,26.4281],[94.174,26.4209],[94.1768,26.4134],[94.1769,26.3996],[94.1791,26.3887],[94.174,26.3778],[94.1755,26.3745],[94.1756,26.3718],[94.1736,26.3676],[94.1645,26.3601],[94.1677,26.3533],[94.1694,26.3541],[94.1753,26.3551],[94.18,26.3541],[94.1793,26.3508],[94.1755,26.3442],[94.1721,26.3444],[94.1645,26.3393],[94.1545,26.34],[94.1493,26.3391],[94.1467,26.3354],[94.1422,26.336],[94.1438,26.3402],[94.1426,26.3421],[94.1388,26.3416],[94.1357,26.3382],[94.124,26.3359],[94.1194,26.3337],[94.1194,26.3305],[94.1287,26.3232],[94.1184,26.3227],[94.1113,26.326],[94.108,26.3264],[94.1045,26.322],[94.1027,26.3087],[94.0981,26.3029],[94.0903,26.2971],[94.0872,26.2904],[94.0844,26.2886],[94.0801,26.2888],[94.0768,26.2852],[94.0778,26.2754],[94.076,26.2692],[94.0705,26.26],[94.0646,26.2618],[94.0529,26.2558],[94.0491,26.2502],[94.0442,26.24],[94.0418,26.2339],[94.0382,26.2295],[94.0405,26.2235],[94.0366,26.2177],[94.0368,26.2097],[94.0357,26.2032],[94.0311,26.1994],[94.0266,26.1971],[94.022,26.1915],[94.013,26.1863],[94.0088,26.1805],[94.0048,26.1733],[94.0039,26.1694],[94.0043,26.1641],[93.9997,26.1582],[94.0029,26.1513],[94.0064,26.1472],[94.0052,26.1419],[94.0031,26.139],[93.9997,26.1365],[93.9963,26.1374],[93.9932,26.1374],[93.9908,26.1339],[93.9933,26.1328],[93.9983,26.131],[93.9983,26.1294],[93.9966,26.1281],[93.9965,26.1224],[93.9928,26.1203],[93.9912,26.1181],[93.995,26.1157],[93.9999,26.1159],[94.0021,26.1149],[94.0022,26.1114],[93.9996,26.1085],[93.9941,26.1061],[93.9922,26.0978],[93.9925,26.0928],[93.991,26.0895],[93.9864,26.0883],[93.986,26.0836],[93.9894,26.0741],[93.9911,26.0726],[93.9808,26.0586],[93.9745,26.0522],[93.9726,26.045],[93.9659,26.0424],[93.9631,26.0334],[93.9627,26.0222],[93.9584,26.0119],[93.9549,26.0073],[93.956,26.0046],[93.959,26.0025],[93.9606,25.997],[93.958,25.9816],[93.956,25.9742],[93.9692,25.9608],[93.9708,25.9533],[93.9711,25.9449],[93.9827,25.9263],[93.9794,25.9197],[93.972,25.9175],[93.9692,25.9114],[93.9608,25.9059],[93.9598,25.9053],[93.9484,25.9012],[93.9402,25.901],[93.9346,25.8914],[93.9239,25.8898],[93.9159,25.8877],[93.9138,25.8818],[93.9018,25.871],[93.8986,25.8638],[93.8934,25.8648],[93.8916,25.8586],[93.8885,25.8525],[93.8827,25.8459],[93.8736,25.8509],[93.8687,25.8554],[93.8517,25.863],[93.8423,25.8626],[93.8327,25.8563],[93.8243,25.8471],[93.8214,25.8324],[93.8188,25.8262],[93.8116,25.8213],[93.8076,25.8163],[93.7958,25.8144],[93.7913,25.816],[93.7907,25.8208],[93.7888,25.826],[93.7873,25.828],[93.7845,25.8358],[93.7826,25.8382],[93.7811,25.8446],[93.7798,25.8463],[93.7838,25.85],[93.783,25.8514],[93.7836,25.8539],[93.7815,25.8593],[93.7853,25.8633],[93.7858,25.8669],[93.7918,25.8697],[93.7906,25.8738],[93.7883,25.8757],[93.7875,25.8789],[93.7915,25.8901],[93.7918,25.8949],[93.7951,25.898],[93.7957,25.9012],[93.7981,25.9063],[93.7983,25.9097],[93.7963,25.9182],[93.7923,25.9225],[93.7936,25.926],[93.7932,25.931],[93.7886,25.933],[93.7933,25.9367],[93.7914,25.9401],[93.7907,25.9442],[93.7894,25.946],[93.7866,25.9474],[93.7892,25.949],[93.7894,25.9526],[93.7866,25.9542],[93.7852,25.9583],[93.7803,25.9606],[93.7788,25.9633],[93.773,25.966],[93.7695,25.958],[93.7703,25.9535],[93.7684,25.955],[93.7628,25.9549],[93.7589,25.9487],[93.7494,25.9421],[93.752,25.9396],[93.7518,25.9364],[93.7501,25.9373],[93.7365,25.9305],[93.7289,25.9284],[93.7165,25.9217],[93.7125,25.9227],[93.7051,25.9213],[93.6977,25.9171],[93.6877,25.9094],[93.6858,25.9049],[93.6909,25.8893],[93.7064,25.8533],[93.7055,25.8486],[93.7024,25.847],[93.7036,25.8497],[93.7036,25.8535],[93.6979,25.8513],[93.6938,25.8472],[93.6905,25.8476],[93.692,25.8441],[93.6825,25.8407],[93.6829,25.8358],[93.6781,25.8289],[93.6726,25.8281],[93.6695,25.8288],[93.6686,25.8246],[93.6608,25.8244],[93.6567,25.8264],[93.6524,25.8228],[93.6485,25.824],[93.6444,25.8196],[93.641,25.8179],[93.6403,25.8134],[93.6361,25.8137],[93.6341,25.81],[93.6333,25.8052],[93.629,25.8044],[93.6298,25.8],[93.6275,25.7986],[93.627,25.7916],[93.6238,25.7904],[93.6211,25.7852],[93.6236,25.7839],[93.6223,25.7798],[93.6114,25.7765],[93.6081,25.7769],[93.6057,25.7726],[93.6056,25.7675],[93.6028,25.7708],[93.5983,25.7684],[93.5937,25.7643],[93.5927,25.7662],[93.5882,25.7682],[93.5871,25.7656],[93.5872,25.7595],[93.5838,25.7577],[93.5732,25.7608],[93.5738,25.7597],[93.5734,25.7566],[93.5693,25.755],[93.5701,25.7517],[93.5655,25.7413],[93.5619,25.7409],[93.5563,25.7419],[93.5569,25.7377],[93.5499,25.7324],[93.5467,25.7345],[93.5448,25.727],[93.5462,25.7215],[93.5498,25.719],[93.5488,25.7147],[93.5459,25.7102],[93.5444,25.7059],[93.5436,25.7017],[93.538,25.7032],[93.5315,25.694],[93.5306,25.6927],[93.5286,25.6938],[93.5259,25.6997],[93.5227,25.6932],[93.5168,25.6881],[93.5194,25.686],[93.5203,25.6837],[93.5102,25.671],[93.5083,25.6668],[93.5021,25.662],[93.4999,25.6565],[93.4939,25.6553],[93.4902,25.656],[93.4907,25.6534],[93.4872,25.6505],[93.4836,25.6518],[93.4834,25.6458],[93.4759,25.648],[93.4748,25.6443],[93.4685,25.6438],[93.4656,25.6442],[93.4607,25.6415],[93.4571,25.6406],[93.4586,25.6384],[93.4612,25.6366],[93.462,25.6334],[93.4594,25.6331],[93.452,25.6375],[93.4499,25.6349],[93.4468,25.6388],[93.4444,25.638],[93.4415,25.6348],[93.4392,25.6344],[93.4391,25.6323],[93.4342,25.6299],[93.431,25.6292],[93.4275,25.6315],[93.4225,25.6223],[93.4183,25.6211],[93.4149,25.6166],[93.4168,25.6149],[93.4123,25.6137],[93.409,25.6117],[93.4076,25.6094],[93.4072,25.6065],[93.4096,25.6041],[93.4092,25.6004],[93.4068,25.5965],[93.4002,25.5963],[93.3901,25.5947],[93.3906,25.5891],[93.3824,25.5848],[93.3831,25.5828],[93.385,25.5812],[93.3847,25.5779],[93.3827,25.5762],[93.3765,25.5773],[93.3768,25.5737],[93.376,25.571],[93.3734,25.5692],[93.3694,25.5703],[93.3652,25.5698],[93.366,25.5633],[93.3642,25.5606],[93.3607,25.5604],[93.3544,25.5652],[93.3483,25.5632],[93.3455,25.5611],[93.3413,25.5549],[93.3334,25.549],[93.3317,25.5468],[93.3357,25.5454],[93.3404,25.5373],[93.3446,25.5361],[93.3492,25.5383],[93.3523,25.5376],[93.3502,25.5337],[93.3542,25.5312],[93.3576,25.5277],[93.36,25.5203],[93.3647,25.5162],[93.3668,25.5129],[93.365,25.5101],[93.3669,25.5079],[93.3711,25.5051],[93.3718,25.5011],[93.383,25.4976],[93.3864,25.4934],[93.3871,25.4903],[93.3905,25.4856],[93.3913,25.4814],[93.391,25.478],[93.3919,25.4742],[93.3904,25.4692],[93.3959,25.4641],[93.4029,25.4592],[93.4171,25.4528],[93.422,25.4548],[93.4275,25.4553],[93.435,25.4548],[93.4436,25.4506],[93.4569,25.4419],[93.4619,25.4347],[93.4651,25.4234],[93.4654,25.4159],[93.4633,25.411],[93.4672,25.4031],[93.4739,25.3931],[93.4773,25.386],[93.4782,25.3799],[93.4663,25.3617],[93.4623,25.3589],[93.4537,25.3481],[93.4519,25.3442],[93.4579,25.3409],[93.4619,25.3366],[93.458,25.3301],[93.4567,25.3253],[93.4631,25.3199],[93.468,25.3138],[93.474,25.3093],[93.4656,25.2991],[93.46,25.2947],[93.452,25.2947],[93.4448,25.2923],[93.4386,25.2866],[93.4264,25.2811],[93.4233,25.2779],[93.4233,25.2722],[93.4207,25.2663],[93.4121,25.2635],[93.4063,25.2641],[93.4036,25.2631],[93.3946,25.2503],[93.3887,25.2459],[93.3871,25.2424],[93.3876,25.232],[93.3855,25.2286],[93.3848,25.2257],[93.382,25.2239],[93.3795,25.2208],[93.3781,25.2161],[93.3696,25.2081],[93.3706,25.2036],[93.3685,25.2001],[93.3622,25.1956],[93.3608,25.192],[93.3531,25.1818],[93.3492,25.1667],[93.3474,25.1639],[93.3488,25.1572],[93.3486,25.1535],[93.351,25.1445],[93.3469,25.1377],[93.3489,25.1348],[93.3461,25.1299],[93.347,25.1275],[93.3492,25.1254],[93.3464,25.1251],[93.3444,25.1213],[93.3444,25.1161],[93.3405,25.1144],[93.3392,25.1064],[93.3358,25.0958],[93.3295,25.0945],[93.3236,25.0917],[93.3223,25.0884],[93.3127,25.078],[93.3108,25.0726],[93.3088,25.0706],[93.3061,25.0644],[93.3089,25.0585],[93.3043,25.056],[93.3046,25.048],[93.3025,25.0482],[93.3024,25.0519],[93.3001,25.0526],[93.2993,25.0505],[93.297,25.0477],[93.2919,25.0471],[93.2869,25.0468],[93.2845,25.0515],[93.2682,25.0497],[93.2678,25.0488],[93.2695,25.0466],[93.2684,25.0441],[93.2629,25.0418],[93.2639,25.0389],[93.2638,25.0359],[93.2598,25.0321],[93.2556,25.0287],[93.2584,25.0252],[93.2578,25.0217],[93.2538,25.0214],[93.2488,25.0188],[93.2517,25.016],[93.2492,25.0132],[93.2467,25.0042],[93.2469,25.0036],[93.2475,25.0033],[93.2481,25.003],[93.2487,25.0029],[93.2494,25.0029],[93.25,25.003],[93.2506,25.0032],[93.2512,25.0035],[93.2518,25.0042],[93.2535,25.0064],[93.2552,25.0042],[93.2553,25.0036],[93.2558,25.0033],[93.2565,25.0031],[93.2571,25.0032],[93.2577,25.0035],[93.258,25.0042],[93.2599,25.0065],[93.2625,25.006],[93.2633,25.0042],[93.2614,25.0009],[93.2571,25.0009],[93.2557,25.0022],[93.2556,24.9997],[93.2571,24.9985],[93.257,24.996],[93.2553,24.9924],[93.252,24.9888],[93.2533,24.9864],[93.253,24.9827],[93.2515,24.9814],[93.2543,24.9789],[93.2529,24.9751],[93.2529,24.9726],[93.2587,24.9727],[93.2632,24.9664],[93.2633,24.9639],[93.2606,24.9589],[93.2608,24.9539],[93.2624,24.9514],[93.2595,24.9514],[93.2535,24.9551],[93.2492,24.9551],[93.2494,24.9526],[93.2509,24.9501],[93.2511,24.9463],[93.2541,24.9426],[93.2498,24.9426],[93.2469,24.9438],[93.2441,24.9438],[93.2413,24.9413],[93.24,24.9388],[93.24,24.9376],[93.2414,24.9376],[93.2471,24.9401],[93.2485,24.9401],[93.2472,24.9363],[93.243,24.9313],[93.2445,24.9301],[93.2502,24.9301],[93.2533,24.9188],[93.2505,24.9151],[93.2419,24.915],[93.2404,24.9163],[93.239,24.915],[93.2419,24.9113],[93.2434,24.9075],[93.2434,24.9037],[93.242,24.9012],[93.2362,24.9025],[93.2334,24.8987],[93.2334,24.8949],[93.2305,24.8949],[93.2348,24.8899],[93.2334,24.8848],[93.2291,24.8848],[93.2262,24.8811],[93.2291,24.8773],[93.2248,24.8748],[93.2219,24.871],[93.2191,24.8697],[93.2162,24.8647],[93.2143,24.8619],[93.2101,24.859],[93.2087,24.8565],[93.2058,24.8553],[93.2001,24.8578],[93.1972,24.8565],[93.1986,24.8527],[93.2015,24.8502],[93.2016,24.8439],[93.1958,24.8464],[93.1944,24.8439],[93.1973,24.8402],[93.1987,24.8402],[93.2001,24.8414],[93.2016,24.8402],[93.1987,24.8364],[93.1958,24.8376],[93.1944,24.8376],[93.193,24.8364],[93.193,24.8339],[93.1973,24.8339],[93.193,24.8263],[93.1916,24.8226],[93.1959,24.8163],[93.1988,24.815],[93.1974,24.8113],[93.1945,24.8088],[93.1931,24.8062],[93.1902,24.8062],[93.1859,24.805],[93.1816,24.8049],[93.1802,24.8024],[93.1802,24.7987],[93.1788,24.7961],[93.1773,24.7961],[93.1759,24.7974],[93.1744,24.8037],[93.1687,24.8011],[93.1658,24.7986],[93.1615,24.7973],[93.1572,24.7923],[93.1529,24.7898],[93.1529,24.7935],[93.1515,24.7961],[93.1486,24.7986],[93.1443,24.7998],[93.1429,24.8011],[93.1399,24.8048],[93.1371,24.8111],[93.1313,24.806],[93.127,24.8085],[93.1213,24.8085],[93.1198,24.811],[93.1227,24.8148],[93.1227,24.8198],[93.1198,24.8173],[93.1112,24.8123],[93.1098,24.8097],[93.1127,24.8022],[93.1085,24.7909],[93.1056,24.7884],[93.1056,24.7846],[93.1071,24.7833],[93.1013,24.7783],[93.1028,24.7733],[93.1057,24.7695],[93.1043,24.7632],[93.1,24.7544],[93.1,24.7507],[93.1015,24.7494],[93.0986,24.7444],[93.1015,24.7419],[93.1029,24.7432],[93.1029,24.7469],[93.1058,24.7457],[93.1072,24.7419],[93.1044,24.7369],[93.0973,24.7318],[93.0973,24.7281],[93.0944,24.7243],[93.093,24.7243],[93.0944,24.7205],[93.093,24.7155],[93.0888,24.7092],[93.0787,24.7142],[93.0759,24.7104],[93.0802,24.7041],[93.0831,24.7016],[93.0845,24.6979],[93.0903,24.6929],[93.0932,24.6879],[93.0932,24.6841],[93.0918,24.6803],[93.0918,24.6778],[93.0932,24.6765],[93.0975,24.6778],[93.1018,24.6804],[93.1047,24.6791],[93.1047,24.6753],[93.1033,24.6716],[93.099,24.6665],[93.0976,24.6628],[93.0977,24.659],[93.0963,24.6565],[93.0963,24.6527],[93.0891,24.6527],[93.0863,24.6514],[93.0848,24.6477],[93.0893,24.6339],[93.0894,24.6276],[93.0822,24.6276],[93.0794,24.6263],[93.0794,24.6213],[93.0823,24.6176],[93.0867,24.6138],[93.0868,24.6113],[93.0768,24.6038],[93.0754,24.6],[93.0754,24.5962],[93.0798,24.5925],[93.0885,24.59],[93.0987,24.5913],[93.1044,24.5876],[93.1068,24.584],[93.107,24.5836],[93.1045,24.5826],[93.0973,24.5825],[93.0962,24.5802],[93.0871,24.5712],[93.0785,24.5749],[93.0712,24.5761],[93.0611,24.5748],[93.0727,24.5611],[93.0655,24.5473],[93.0612,24.5548],[93.0527,24.5447],[93.0513,24.5372],[93.0485,24.5309],[93.0528,24.5247],[93.0528,24.5196],[93.0414,24.5146],[93.04,24.5108],[93.0443,24.5058],[93.0358,24.4969],[93.0457,24.4818],[93.0485,24.4755],[93.0483,24.464],[93.0379,24.4612],[93.0367,24.4439],[93.0322,24.4289],[93.0393,24.4176],[93.0392,24.4111],[93.0292,24.4063],[93.016,24.4025],[93.0089,24.4054],[93.0064,24.4119],[93.0005,24.4033],[92.998,24.4016],[92.9953,24.402],[92.9919,24.4055],[92.9883,24.4076],[92.9854,24.4076],[92.9803,24.4097],[92.9756,24.4078],[92.9708,24.4012],[92.9603,24.3959],[92.9581,24.3981],[92.9547,24.4039],[92.9539,24.4046],[92.9512,24.4048],[92.9442,24.4018],[92.9406,24.4011],[92.9386,24.399],[92.9377,24.3967],[92.9357,24.3955],[92.9277,24.3986],[92.9254,24.4022],[92.9237,24.4026],[92.9226,24.4042],[92.9234,24.4057],[92.9115,24.4129],[92.9093,24.4032],[92.9057,24.3991],[92.9059,24.3954],[92.9052,24.3945],[92.901,24.3934],[92.8964,24.3943],[92.8944,24.3953],[92.8917,24.4018],[92.8908,24.4023],[92.888,24.4016],[92.8842,24.403],[92.8782,24.3989],[92.8739,24.3973],[92.8718,24.3971],[92.8629,24.3995],[92.8591,24.3984],[92.8545,24.394],[92.8516,24.3924],[92.8491,24.3861],[92.8469,24.3823],[92.8443,24.3799],[92.8396,24.3808],[92.8327,24.3764],[92.829,24.3778],[92.8282,24.3793],[92.8283,24.3856],[92.8254,24.3884],[92.825,24.3905],[92.8266,24.3936],[92.8317,24.3993],[92.8314,24.4005],[92.8303,24.4018],[92.8248,24.4042],[92.8211,24.4068],[92.8183,24.4127],[92.8165,24.4123],[92.8111,24.4136],[92.8114,24.4154],[92.8094,24.4152],[92.8089,24.4169],[92.8095,24.4193],[92.8072,24.4199],[92.8037,24.4188],[92.8008,24.4191],[92.8,24.4215],[92.8038,24.4217],[92.8043,24.423],[92.8028,24.4273],[92.8003,24.432],[92.7978,24.4347],[92.7939,24.444],[92.7899,24.4561],[92.7862,24.4637],[92.7844,24.4712],[92.7822,24.4748],[92.7791,24.4865],[92.7652,24.5208],[92.7645,24.5188],[92.7592,24.5118],[92.7536,24.507],[92.7545,24.5011],[92.7513,24.4944],[92.7508,24.4915],[92.7488,24.4885],[92.7436,24.4746],[92.7305,24.4528],[92.7238,24.4359],[92.7181,24.4162],[92.7151,24.4145],[92.7141,24.413],[92.7142,24.4104],[92.7151,24.4088],[92.7141,24.4078],[92.7142,24.4053],[92.7074,24.3924],[92.7075,24.387],[92.7034,24.3838],[92.7041,24.3762],[92.7024,24.3752],[92.6983,24.375],[92.6969,24.374],[92.695,24.3696],[92.6933,24.3678],[92.6942,24.365],[92.6939,24.3636],[92.6918,24.3622],[92.6917,24.3564],[92.6907,24.3548],[92.688,24.352],[92.684,24.3499],[92.6838,24.3475],[92.6796,24.3478],[92.6748,24.3498],[92.667,24.3456],[92.6653,24.3452],[92.6641,24.3467],[92.6632,24.3438],[92.6622,24.3434],[92.6607,24.3451],[92.6585,24.3435],[92.6575,24.3435],[92.6576,24.3416],[92.6565,24.3391],[92.6524,24.3353],[92.652,24.3329],[92.6518,24.3303],[92.6494,24.3308],[92.6498,24.3292],[92.649,24.3288],[92.6452,24.3318],[92.6459,24.3292],[92.645,24.3277],[92.641,24.3287],[92.6398,24.3297],[92.6393,24.3318],[92.6367,24.3327],[92.6365,24.3342],[92.6382,24.3344],[92.6377,24.3355],[92.6359,24.3357],[92.6306,24.3334],[92.6262,24.3345],[92.6243,24.3327],[92.6234,24.3308],[92.6231,24.3203],[92.6194,24.3115],[92.6196,24.3085],[92.618,24.3044],[92.6183,24.2997],[92.6168,24.2912],[92.6172,24.2891],[92.6191,24.2879],[92.6194,24.2868],[92.619,24.2813],[92.6168,24.2753],[92.6158,24.2705],[92.6155,24.2636],[92.6131,24.2558],[92.6116,24.2533],[92.608,24.2501],[92.606,24.2492],[92.596,24.2493],[92.5936,24.2486],[92.5914,24.246],[92.588,24.2449],[92.5818,24.2454],[92.5646,24.2501],[92.5589,24.2479],[92.5506,24.2459],[92.5488,24.2432],[92.5471,24.2377],[92.5469,24.2348],[92.5478,24.2319],[92.5474,24.2244],[92.5457,24.2199],[92.5422,24.2142],[92.5424,24.2106],[92.5415,24.2062],[92.5373,24.2019],[92.5364,24.1999],[92.5378,24.1965],[92.5315,24.1835],[92.5335,24.1808],[92.5329,24.1805],[92.5315,24.1774],[92.5299,24.1764],[92.5297,24.1748],[92.5254,24.1729],[92.5218,24.1729],[92.5176,24.1762],[92.5151,24.1755],[92.5136,24.1736],[92.5148,24.1702],[92.5137,24.1693],[92.5086,24.1692],[92.512,24.1648],[92.5128,24.1626],[92.5095,24.1629],[92.5068,24.1668],[92.5049,24.1673],[92.5033,24.1667],[92.5025,24.1621],[92.5001,24.1605],[92.4948,24.1599],[92.4881,24.1622],[92.4859,24.1622],[92.4849,24.1614],[92.4849,24.1593],[92.484,24.1581],[92.4826,24.1571],[92.4812,24.1571],[92.4836,24.1539],[92.4829,24.1527],[92.4807,24.1523],[92.4806,24.1501],[92.4788,24.1487],[92.4815,24.1429],[92.4809,24.1413],[92.4796,24.1409],[92.4748,24.1429],[92.4733,24.142],[92.4734,24.14],[92.4686,24.138],[92.4668,24.135],[92.466,24.1348],[92.4648,24.1366],[92.4631,24.1364],[92.4572,24.1435],[92.4506,24.1437],[92.4439,24.1531],[92.4418,24.1529],[92.4388,24.1513],[92.4374,24.1514],[92.4366,24.1524],[92.4352,24.1626],[92.4381,24.1691],[92.4378,24.1705],[92.4345,24.1741],[92.4342,24.1814],[92.4332,24.1833],[92.4221,24.1885],[92.419,24.1944],[92.4197,24.2025],[92.4182,24.2109],[92.4202,24.2179],[92.4185,24.2216],[92.4201,24.2352],[92.4225,24.2482],[92.4224,24.2531],[92.4165,24.2534],[92.4068,24.2519],[92.3957,24.2525],[92.3765,24.2513],[92.3141,24.2526],[92.3105,24.2513],[92.3035,24.2527],[92.2966,24.2517],[92.2918,24.2513],[92.2848,24.252],[92.2596,24.2504],[92.2405,24.2506],[92.2129,24.2493],[92.2641,24.3622],[92.2681,24.3673],[92.2676,24.3733],[92.2683,24.3748],[92.2722,24.3776],[92.2725,24.3794],[92.2699,24.3822],[92.2727,24.3862],[92.2731,24.3885],[92.2704,24.391],[92.2698,24.3949],[92.2642,24.3976],[92.2626,24.4048],[92.2632,24.4081],[92.2627,24.4098],[92.2593,24.4135],[92.256,24.419],[92.2575,24.4325],[92.2565,24.4363],[92.2392,24.4473],[92.236,24.4502],[92.2359,24.4538],[92.2351,24.4564],[92.2323,24.4585],[92.2311,24.4604],[92.2312,24.4654],[92.2289,24.472],[92.2303,24.48],[92.2338,24.4847],[92.2394,24.4899],[92.2366,24.4928],[92.2364,24.4943],[92.2354,24.4968],[92.235,24.4982],[92.2346,24.4993],[92.2343,24.5004],[92.231,24.5041],[92.2311,24.5094],[92.2314,24.5194],[92.2328,24.5304],[92.2329,24.533],[92.2334,24.5413],[92.2333,24.5511],[92.2333,24.5513],[92.2339,24.5541],[92.2338,24.5618],[92.2351,24.5704],[92.2357,24.5799],[92.2374,24.5916],[92.2393,24.6],[92.242,24.6083],[92.2461,24.6193],[92.2495,24.6295],[92.2511,24.636],[92.2522,24.6421],[92.2532,24.6491],[92.2529,24.651],[92.2506,24.6536],[92.2509,24.6571],[92.2522,24.6605],[92.256,24.6637],[92.2581,24.6687],[92.2596,24.6733],[92.2595,24.6752],[92.2584,24.6783],[92.2593,24.6809],[92.2614,24.6823],[92.2618,24.6846],[92.2627,24.6886],[92.2652,24.6913],[92.2686,24.6942],[92.2726,24.6993],[92.2773,24.7065],[92.2787,24.7097],[92.2791,24.7118],[92.2821,24.7155],[92.286,24.7204],[92.2903,24.7241],[92.2937,24.7286],[92.2983,24.7366],[92.2975,24.7382],[92.2933,24.7392],[92.2886,24.7408],[92.2851,24.7437],[92.2853,24.7487],[92.2882,24.7548],[92.2922,24.7597],[92.2943,24.7625],[92.2922,24.7647],[92.2886,24.7663],[92.2867,24.7694],[92.2872,24.7722],[92.29,24.7771],[92.2931,24.7836],[92.2934,24.786],[92.2934,24.7894],[92.2901,24.7903],[92.2868,24.7923],[92.2849,24.7952],[92.282,24.8058],[92.2814,24.8144],[92.2797,24.828],[92.2778,24.8304],[92.2725,24.8314],[92.2668,24.8321],[92.2627,24.8327],[92.2623,24.8327],[92.2546,24.8342],[92.2573,24.8413],[92.2549,24.8422],[92.2506,24.8415],[92.2485,24.8421],[92.2476,24.8433],[92.2466,24.8446],[92.2441,24.8494],[92.244,24.8551],[92.2441,24.8565],[92.2443,24.86],[92.2443,24.8637],[92.2419,24.8661],[92.2403,24.8681],[92.2405,24.8703],[92.2406,24.8707],[92.2421,24.8725],[92.2439,24.8727],[92.2479,24.8729],[92.25,24.8746],[92.2506,24.8799],[92.2505,24.8809],[92.2501,24.8848],[92.249,24.8888],[92.2472,24.8921],[92.2445,24.8946],[92.2416,24.8966],[92.2405,24.8992],[92.2414,24.9013],[92.2429,24.9023],[92.2445,24.9033],[92.2448,24.9067],[92.2452,24.9102],[92.2502,24.9129],[92.2551,24.9139],[92.2564,24.9104],[92.2578,24.9069],[92.2618,24.906],[92.2677,24.9058],[92.2709,24.9113],[92.2791,24.91],[92.2799,24.9099],[92.28,24.9097],[92.2831,24.9048],[92.2881,24.906],[92.291,24.9095],[92.2905,24.9118],[92.2897,24.9158],[92.2984,24.92],[92.2995,24.9177],[92.3014,24.9137],[92.3053,24.913],[92.3086,24.9083],[92.3121,24.9079],[92.3145,24.9076],[92.3152,24.9038],[92.3193,24.901],[92.3201,24.9004],[92.3197,24.8946],[92.3249,24.8949],[92.3271,24.8948],[92.329,24.8928],[92.3341,24.893],[92.3355,24.8931],[92.3389,24.8886],[92.3406,24.8863],[92.339,24.8803],[92.3434,24.8775],[92.3473,24.8776],[92.3484,24.879],[92.3462,24.8841],[92.3462,24.8849],[92.346,24.8894],[92.348,24.894],[92.3504,24.8896],[92.3555,24.8805],[92.3621,24.8826],[92.3629,24.8824],[92.3655,24.8817],[92.3674,24.8781],[92.3707,24.8717],[92.3763,24.8717],[92.3782,24.868],[92.3836,24.8672],[92.3846,24.8671],[92.3888,24.8616],[92.3893,24.861],[92.3854,24.8572],[92.3875,24.8511],[92.3915,24.8499],[92.3951,24.8554],[92.4045,24.8548],[92.4093,24.8513],[92.411,24.8574],[92.4136,24.8582],[92.4165,24.8628],[92.4217,24.8613],[92.4259,24.8601],[92.4259,24.8599],[92.4249,24.8543],[92.4289,24.852],[92.4324,24.8521],[92.4343,24.8537],[92.4332,24.8595],[92.4375,24.861],[92.4407,24.8637],[92.447,24.8629],[92.4502,24.8715],[92.4494,24.8753],[92.4492,24.8772],[92.4549,24.8774],[92.4585,24.8775],[92.461,24.8727],[92.4666,24.8722],[92.4703,24.8708],[92.4737,24.8735],[92.4757,24.875],[92.4796,24.8726],[92.486,24.8743],[92.488,24.8738],[92.4918,24.874],[92.4941,24.8767],[92.4957,24.8786],[92.4977,24.8804],[92.5001,24.8825],[92.5005,24.8916],[92.4943,24.8944],[92.4952,24.8984],[92.4952,24.8997],[92.4952,24.9],[92.498,24.9039],[92.5047,24.9044],[92.5024,24.9093],[92.5019,24.9117],[92.4972,24.9152],[92.4964,24.9189],[92.4928,24.9212],[92.4913,24.9223],[92.4938,24.9269],[92.4935,24.9359],[92.4888,24.9384],[92.4879,24.9389],[92.4888,24.9424],[92.4903,24.9475],[92.4893,24.9544],[92.4811,24.9487],[92.4801,24.9453],[92.4792,24.9426],[92.4734,24.9427],[92.4687,24.9424],[92.4669,24.944],[92.4644,24.9464],[92.4588,24.9457],[92.4564,24.9462],[92.4564,24.9485],[92.4521,24.9534],[92.4536,24.9557],[92.4554,24.9583],[92.4588,24.9595],[92.4611,24.9577],[92.4647,24.9548],[92.4716,24.956],[92.4737,24.9571],[92.471,24.9641],[92.4671,24.9686],[92.464,24.9708],[92.4605,24.9762],[92.4545,24.9732],[92.4494,24.9721],[92.449,24.9715],[92.4459,24.967],[92.44,24.9668],[92.4352,24.9664],[92.4316,24.9707],[92.4285,24.9726],[92.4286,24.9729],[92.4295,24.9799],[92.4245,24.9826],[92.4236,24.9961],[92.4259,25.0032],[92.4295,25.0097],[92.4304,25.0128],[92.4311,25.0158],[92.431,25.0216],[92.4322,25.0251],[92.4333,25.0281],[92.4328,25.031],[92.4306,25.0323],[92.4278,25.0316],[92.4263,25.0316],[92.4259,25.0318],[92.4319,25.0329],[92.4379,25.0338],[92.4418,25.0399],[92.4465,25.042],[92.451,25.041],[92.4542,25.0366],[92.4568,25.035],[92.4598,25.0352],[92.4633,25.0371],[92.4647,25.0472],[92.4629,25.0501],[92.4602,25.0496],[92.4598,25.0547],[92.462,25.0558],[92.4637,25.0556],[92.466,25.0572],[92.4675,25.0614],[92.4709,25.0669],[92.4746,25.0708],[92.4765,25.0783],[92.4802,25.0858],[92.4798,25.0957],[92.4803,25.1004],[92.4843,25.1081],[92.4991,25.1081],[92.5098,25.1055],[92.5265,25.1059],[92.532,25.104],[92.538,25.0993],[92.5429,25.0996],[92.5408,25.1041],[92.5331,25.1121],[92.5313,25.1199],[92.5302,25.1219],[92.5252,25.1256],[92.5247,25.14],[92.5275,25.1399],[92.5302,25.1368],[92.5356,25.1344],[92.5399,25.1373],[92.5431,25.135],[92.5532,25.1307],[92.5578,25.13],[92.5655,25.1313],[92.568,25.1301],[92.579,25.132],[92.5817,25.1319],[92.5944,25.1283],[92.5984,25.1247],[92.6031,25.125],[92.61,25.1241],[92.6216,25.1177],[92.6247,25.1187],[92.63,25.125],[92.6308,25.1318],[92.6324,25.1376],[92.638,25.1452],[92.6441,25.1512],[92.6483,25.1527],[92.6512,25.1524],[92.6557,25.1541],[92.6595,25.1591],[92.6608,25.1623],[92.663,25.173],[92.6643,25.1754],[92.6669,25.1771],[92.6722,25.1782],[92.677,25.1822],[92.6794,25.1831],[92.6828,25.182],[92.6876,25.1823],[92.6939,25.1814],[92.7046,25.1905],[92.7162,25.1942],[92.7242,25.1992],[92.7333,25.2032],[92.742,25.2031],[92.7471,25.2078],[92.7517,25.2073],[92.7545,25.2054],[92.7589,25.204],[92.7635,25.2038],[92.7676,25.2048],[92.7796,25.2031],[92.7878,25.2095],[92.7929,25.2124],[92.7984,25.2134],[92.8036,25.2172],[92.8044,25.2193],[92.8031,25.2215],[92.7943,25.226],[92.7863,25.2314],[92.7722,25.2333],[92.7703,25.2402],[92.7646,25.2493],[92.7767,25.2605],[92.7762,25.2629],[92.7698,25.2689],[92.7795,25.2738],[92.7821,25.2759],[92.7891,25.2785],[92.7922,25.2852],[92.7922,25.2868],[92.7888,25.2915],[92.7869,25.3007],[92.7838,25.308],[92.7847,25.3115],[92.788,25.3176],[92.7844,25.3325],[92.7825,25.3343],[92.7725,25.3396],[92.7695,25.3395],[92.7633,25.3356],[92.7606,25.3353],[92.7588,25.3399],[92.7512,25.3485],[92.7501,25.3544],[92.7482,25.3581],[92.7457,25.3611],[92.7406,25.3637],[92.7401,25.3646],[92.7406,25.3668],[92.7361,25.3738],[92.7371,25.3813],[92.7348,25.3825],[92.7254,25.3804],[92.7214,25.3755],[92.7206,25.3749],[92.7181,25.375],[92.7164,25.3793],[92.7129,25.3845],[92.7097,25.3861],[92.7029,25.3866],[92.7004,25.3878],[92.6935,25.4],[92.6882,25.4044],[92.68,25.4086],[92.6738,25.4171],[92.6709,25.4167],[92.667,25.4141],[92.6637,25.4094],[92.6601,25.4104],[92.6569,25.4157],[92.6537,25.4239],[92.6543,25.4353],[92.6505,25.4317],[92.6416,25.4195],[92.6396,25.4196],[92.6392,25.4204],[92.6379,25.4227],[92.6379,25.4288],[92.6327,25.4331],[92.6293,25.4346],[92.6285,25.4306],[92.6293,25.427],[92.6286,25.425],[92.6206,25.4237],[92.6179,25.422],[92.6148,25.4174],[92.6118,25.4161],[92.6091,25.4166],[92.607,25.4185],[92.607,25.4272],[92.6078,25.4304],[92.6053,25.4419],[92.6056,25.4484],[92.6045,25.4502],[92.6011,25.4524],[92.6002,25.4539],[92.5998,25.4571],[92.6014,25.4641],[92.5982,25.4717],[92.5937,25.471],[92.5854,25.4676],[92.5823,25.4729],[92.5715,25.4641],[92.5691,25.4648],[92.5674,25.4675],[92.5666,25.4751],[92.5678,25.4808],[92.5756,25.4904],[92.581,25.4952],[92.5895,25.4995],[92.5936,25.5031],[92.6056,25.5081],[92.6096,25.5126],[92.6216,25.5158],[92.6276,25.5222],[92.6376,25.5285],[92.6447,25.5374],[92.645,25.5466],[92.6499,25.56],[92.6574,25.5634],[92.6607,25.5703],[92.6607,25.5818],[92.6605,25.5851],[92.6576,25.5891],[92.6535,25.5922],[92.6512,25.5927],[92.6483,25.5924],[92.6406,25.5874],[92.6341,25.5789],[92.6332,25.5748],[92.6306,25.5707],[92.6289,25.5695],[92.6261,25.568],[92.6211,25.5683],[92.6125,25.5655],[92.6087,25.5657],[92.6035,25.5611],[92.6026,25.5574],[92.5935,25.5539],[92.5875,25.553],[92.5814,25.5598],[92.5761,25.5597],[92.5725,25.5604],[92.5695,25.5645],[92.5647,25.5683],[92.561,25.5743],[92.5609,25.5827],[92.5563,25.5928],[92.5572,25.5962],[92.5562,25.6059],[92.5586,25.609],[92.5576,25.612],[92.5532,25.6138],[92.5445,25.6143],[92.5404,25.6178],[92.5332,25.6159],[92.5173,25.6201],[92.5106,25.6172],[92.5017,25.6229],[92.4979,25.627],[92.4933,25.6361],[92.4883,25.65],[92.4813,25.6639],[92.4747,25.6733],[92.4715,25.6749],[92.4654,25.6825],[92.4599,25.683],[92.4552,25.6842],[92.4513,25.6866],[92.443,25.6877],[92.44,25.6892],[92.4405,25.6881],[92.4343,25.6875],[92.4321,25.691],[92.4333,25.6952],[92.4315,25.7043],[92.4272,25.7104],[92.4296,25.7133],[92.4364,25.7156],[92.442,25.7209],[92.4332,25.7315],[92.432,25.732],[92.4213,25.7295],[92.417,25.7297],[92.4128,25.733],[92.4133,25.734],[92.4125,25.7374],[92.4164,25.7405],[92.4107,25.7431],[92.4048,25.7437],[92.3948,25.7415],[92.3921,25.7426],[92.387,25.7431],[92.385,25.7448],[92.3835,25.7474],[92.3843,25.7503],[92.3869,25.7525],[92.3851,25.7536],[92.3715,25.7465],[92.3675,25.7424],[92.3683,25.7404],[92.363,25.7365],[92.3518,25.7349],[92.3481,25.7319],[92.339,25.7269],[92.3335,25.7252],[92.3177,25.7238],[92.3139,25.7247],[92.3115,25.7261],[92.3083,25.7262],[92.3061,25.7231],[92.2936,25.7173],[92.288,25.7159],[92.2846,25.7159],[92.2705,25.7109],[92.2608,25.7103],[92.2557,25.7107],[92.2536,25.7101],[92.248,25.711],[92.2368,25.7084],[92.2348,25.7088],[92.2338,25.7101],[92.2326,25.7151],[92.229,25.7162],[92.2249,25.714],[92.2106,25.6959],[92.2016,25.6897],[92.2001,25.6873],[92.1983,25.6864],[92.1969,25.687],[92.1941,25.6861],[92.192,25.6863],[92.1879,25.6834],[92.1848,25.6811],[92.175,25.6702],[92.171,25.6669],[92.1698,25.6664],[92.1645,25.6693],[92.1607,25.6719],[92.1605,25.6733],[92.1655,25.6784],[92.1644,25.6849],[92.1604,25.6909],[92.1615,25.696],[92.161,25.6973],[92.1576,25.701],[92.1559,25.7091],[92.1511,25.7118],[92.1496,25.7145],[92.151,25.7194],[92.1537,25.7227],[92.1563,25.7248],[92.1609,25.7263],[92.1642,25.7287],[92.1655,25.7344],[92.1648,25.7448],[92.1582,25.7572],[92.1574,25.762],[92.156,25.7645],[92.1541,25.7729],[92.1542,25.7767],[92.1552,25.7786],[92.1548,25.7798],[92.151,25.7836],[92.1512,25.7875],[92.1537,25.7955],[92.1531,25.8127],[92.1557,25.8166],[92.1631,25.8218],[92.1633,25.8258],[92.1655,25.833],[92.1693,25.8353],[92.1714,25.8377],[92.1752,25.8465],[92.1783,25.8481],[92.181,25.8514],[92.1808,25.8632],[92.1791,25.8679],[92.1799,25.8702],[92.181,25.8716],[92.1869,25.8748],[92.195,25.8813],[92.2033,25.8901],[92.2064,25.8915],[92.2129,25.8921],[92.2156,25.8938],[92.2182,25.9002],[92.2238,25.9007],[92.225,25.9016],[92.2255,25.907],[92.2238,25.9104],[92.2226,25.9113],[92.2175,25.9099],[92.2075,25.9105],[92.2051,25.9087],[92.2006,25.9082],[92.1977,25.9113],[92.197,25.9137],[92.1972,25.918],[92.192,25.9158],[92.1867,25.9158],[92.1836,25.9128],[92.1832,25.9109],[92.1809,25.9086],[92.1743,25.9092],[92.1637,25.9118],[92.1599,25.9152],[92.1602,25.926],[92.1614,25.9325],[92.1575,25.9393],[92.1561,25.943],[92.1563,25.9448],[92.1608,25.9515],[92.1653,25.954],[92.1673,25.9588],[92.1656,25.9644],[92.1674,25.9677],[92.1731,25.9722],[92.1769,25.9731],[92.181,25.9752],[92.1916,25.9852],[92.2009,25.9856],[92.2074,25.9882],[92.2091,25.9897],[92.2077,25.9917],[92.211,25.9947],[92.2152,25.9963],[92.2192,26.0008],[92.2217,25.9986],[92.2214,26.0023],[92.2557,26.0289],[92.3016,26.0765],[92.2997,26.0767],[92.2973,26.0791],[92.296,26.0789],[92.2939,26.0778],[92.29,26.0738],[92.2901,26.0728],[92.2881,26.07],[92.2807,26.0692],[92.2737,26.065],[92.2737,26.0659],[92.2723,26.0666],[92.2686,26.0679],[92.2657,26.0654],[92.2515,26.0644],[92.2412,26.0625],[92.2283,26.0676],[92.2184,26.0702],[92.2161,26.0693],[92.2136,26.0697],[92.212,26.071],[92.2104,26.0711],[92.2088,26.0707],[92.2093,26.0692],[92.2083,26.0686],[92.2018,26.07],[92.1894,26.0669],[92.1883,26.0689],[92.1846,26.0692],[92.1823,26.0703],[92.1804,26.0685],[92.1789,26.0692],[92.1809,26.0762],[92.1783,26.0795],[92.1691,26.0776],[92.1547,26.0681],[92.1505,26.0649],[92.149,26.0616],[92.1462,26.0586],[92.1438,26.0576],[92.1382,26.0528],[92.1331,26.0459],[92.127,26.0459],[92.1234,26.0449],[92.1162,26.0466],[92.1089,26.0497],[92.0934,26.0485],[92.0811,26.0436],[92.0788,26.0418],[92.0736,26.0403],[92.0705,26.0378],[92.0632,26.0347],[92.0529,26.0328],[92.0502,26.033],[92.0396,26.0362],[92.0361,26.0394],[92.0348,26.0397],[92.0279,26.0399],[92.0239,26.0384],[92.0222,26.0393],[92.0176,26.0396],[92.0082,26.0394],[92.0034,26.038],[92.0004,26.0392],[91.9977,26.0388],[91.9911,26.041],[91.9874,26.0387],[91.9842,26.0305],[91.9782,26.0259],[91.9578,26.0189],[91.9524,26.0178],[91.9463,26.0145],[91.9413,26.014],[91.934,26.0147],[91.9268,26.0016],[91.9258,25.9997],[91.9221,25.9995],[91.9196,26.0001],[91.9195,26.0016],[91.9187,26.0072],[91.9157,26.0103],[91.9168,26.0138],[91.917,26.0215],[91.9117,26.0238],[91.9075,26.0271],[91.9009,26.0263],[91.892,26.0296],[91.8832,26.03],[91.8702,26.0522],[91.8693,26.0569],[91.8752,26.0846],[91.8758,26.0977],[91.8647,26.1003],[91.8538,26.1048],[91.8266,26.1181],[91.8193,26.1187],[91.8156,26.1114],[91.8108,26.1052],[91.8081,26.1038],[91.8018,26.1049],[91.7904,26.087],[91.7846,26.0866],[91.7804,26.0883],[91.7785,26.0912],[91.7595,26.0713],[91.7313,26.0592],[91.7346,26.0566],[91.733,26.051],[91.7264,26.0469],[91.7232,26.0303],[91.7247,26.0273],[91.7228,26.0198],[91.7212,26.0018],[91.7198,25.9783],[91.7216,25.9651],[91.7202,25.9541],[91.7139,25.9472],[91.7082,25.9444],[91.7009,25.9419],[91.702,25.9379],[91.6923,25.9291],[91.6864,25.9212],[91.6786,25.9173],[91.676,25.9118],[91.6693,25.9054],[91.6672,25.9082],[91.6619,25.9099],[91.6569,25.9079],[91.6515,25.9077],[91.6479,25.9137],[91.6328,25.9258],[91.6228,25.931],[91.6112,25.9399],[91.6109,25.9446],[91.6246,25.946],[91.6301,25.9446],[91.6341,25.9605],[91.6379,25.9648],[91.6321,25.9708],[91.628,25.977],[91.6268,25.9824],[91.6247,25.9859],[91.6287,25.9951],[91.6267,25.9977],[91.6304,25.9998],[91.6321,26.0019],[91.633,26.0049],[91.6321,26.014],[91.6334,26.0179],[91.6322,26.0224],[91.6261,26.024],[91.6203,26.027],[91.6165,26.0247],[91.6019,26.0226],[91.5968,26.0208],[91.5971,26.0171],[91.5881,26.0301],[91.5841,26.032],[91.5758,26.0331],[91.57,26.0275],[91.5688,26.0217],[91.5697,26.0168],[91.5686,26.0119],[91.5651,26.0075],[91.5661,26.0038],[91.5654,26.0018],[91.5548,25.9866],[91.5513,25.9749],[91.5489,25.9751],[91.5373,25.9684],[91.5372,25.9621],[91.5324,25.9622],[91.5258,25.9613],[91.5238,25.9594],[91.5185,25.9582],[91.5182,25.9528],[91.5198,25.9409],[91.5163,25.9383],[91.5016,25.9208],[91.5033,25.9143],[91.5056,25.9131],[91.5108,25.9154],[91.5169,25.92],[91.5217,25.9249],[91.5359,25.934],[91.5313,25.9237],[91.5248,25.9208],[91.5085,25.9098],[91.5012,25.8985],[91.5033,25.8922],[91.4986,25.8925],[91.4929,25.8956],[91.4885,25.8948],[91.4834,25.8911],[91.4787,25.8847],[91.4759,25.878],[91.4748,25.8712],[91.4774,25.8687],[91.4937,25.8655],[91.4983,25.8672],[91.5078,25.8674],[91.5135,25.871],[91.5173,25.8747],[91.5198,25.878],[91.5222,25.8859],[91.5258,25.8901],[91.5297,25.8897],[91.5321,25.8882],[91.5326,25.8841],[91.5289,25.8809],[91.5254,25.8729],[91.5218,25.8743],[91.5191,25.8731],[91.5128,25.8666],[91.5079,25.8648],[91.496,25.8623],[91.483,25.8629],[91.4784,25.8577],[91.475,25.8572],[91.4687,25.859],[91.455,25.8513],[91.4474,25.8457],[91.4444,25.841],[91.4412,25.8416],[91.4308,25.8478],[91.4243,25.8536],[91.4189,25.8547],[91.4127,25.8539],[91.4051,25.8499],[91.4012,25.8511],[91.3885,25.8473],[91.3821,25.8469],[91.3769,25.8449],[91.3705,25.8443],[91.3637,25.8405],[91.3569,25.8415],[91.3533,25.8377],[91.3486,25.8404],[91.3444,25.8394],[91.3425,25.8361],[91.3364,25.8384],[91.3336,25.8388],[91.3322,25.8337],[91.3324,25.8321],[91.325,25.8238],[91.3063,25.7964],[91.2969,25.7782],[91.2873,25.7641],[91.2796,25.7567],[91.2765,25.7517],[91.2756,25.7469],[91.2623,25.7493],[91.2554,25.7478],[91.2325,25.7292],[91.2239,25.7234],[91.2214,25.726],[91.2159,25.7239],[91.198,25.731],[91.192,25.7296],[91.1923,25.7361],[91.1887,25.7389],[91.1892,25.7635],[91.1857,25.7669],[91.1859,25.7699],[91.1812,25.7733],[91.1799,25.7763],[91.184,25.7826],[91.1847,25.795],[91.1872,25.8033],[91.191,25.8107],[91.1882,25.8156],[91.1899,25.8208],[91.1943,25.8264],[91.1945,25.8306],[91.2026,25.8405],[91.1987,25.8476],[91.1981,25.8548],[91.1965,25.859],[91.193,25.8552],[91.1855,25.85],[91.1818,25.8441],[91.179,25.8428],[91.1682,25.8456],[91.1617,25.8493],[91.1529,25.8501],[91.1454,25.8473],[91.1379,25.8421],[91.1317,25.8419],[91.1263,25.8382],[91.1208,25.8313],[91.0814,25.8293],[91.0665,25.8258],[91.0633,25.8204],[91.059,25.8223],[91.0499,25.8289],[91.0572,25.832],[91.0618,25.8361],[91.0675,25.8363],[91.0729,25.8383],[91.073,25.8425],[91.0785,25.8526],[91.0659,25.8464],[91.0491,25.8488],[91.042,25.8394],[91.0249,25.8276],[91.0208,25.8226],[91.0127,25.8211],[91.0061,25.8208],[91.0008,25.8223],[91.0016,25.8258],[91.0087,25.8382],[91.0127,25.8488],[91.0131,25.8572],[91.0151,25.8591],[91.0218,25.8613],[91.0265,25.8666],[91.0291,25.8799],[91.0292,25.888],[91.0283,25.8886],[91.0257,25.8884],[91.0206,25.8873],[91.0137,25.8843],[91.0013,25.8865],[90.9969,25.8887],[90.9848,25.8899],[90.9754,25.8895],[90.9713,25.8877],[90.9675,25.8872],[90.9666,25.891],[90.9673,25.8966],[90.9669,25.9053],[90.9606,25.9277],[90.9579,25.9339],[90.9538,25.9367],[90.9456,25.9391],[90.9427,25.9476],[90.9375,25.9448],[90.9347,25.9411],[90.9321,25.9397],[90.9183,25.9432],[90.9159,25.9432],[90.9163,25.9281],[90.9191,25.9133],[90.9161,25.9151],[90.9125,25.9203],[90.9012,25.9296],[90.8954,25.9315],[90.897,25.9354],[90.8965,25.9375],[90.8924,25.9391],[90.8884,25.9436],[90.883,25.9517],[90.8814,25.9506],[90.8802,25.9463],[90.8752,25.9491],[90.8724,25.9467],[90.8729,25.9429],[90.8696,25.9424],[90.8568,25.9443],[90.8432,25.9448],[90.841,25.9432],[90.8398,25.9384],[90.8368,25.9382],[90.8362,25.9473],[90.8323,25.9453],[90.828,25.9474],[90.8239,25.9451],[90.8204,25.9484],[90.8099,25.9522],[90.8087,25.9472],[90.7971,25.9415],[90.7917,25.9357],[90.7817,25.9212],[90.7785,25.9143],[90.7781,25.9083],[90.7691,25.9085],[90.7577,25.9111],[90.7576,25.9166],[90.7589,25.9216],[90.7501,25.9192],[90.7454,25.9123],[90.7423,25.913],[90.7405,25.9152],[90.7462,25.9219],[90.7526,25.934],[90.7507,25.9341],[90.7475,25.9323],[90.7441,25.9328],[90.7403,25.9409],[90.7447,25.9465],[90.7438,25.9494],[90.746,25.9526],[90.7474,25.9573],[90.7436,25.9567],[90.7403,25.9549],[90.7323,25.9526],[90.7254,25.9488],[90.7207,25.9492],[90.7177,25.9547],[90.7131,25.9522],[90.686,25.9508],[90.6757,25.9365],[90.6702,25.9343],[90.654,25.9297],[90.6378,25.9233],[90.6273,25.917],[90.6269,25.9113],[90.6289,25.9065],[90.6267,25.9014],[90.6248,25.8989],[90.6142,25.8995],[90.6107,25.9074],[90.6081,25.908],[90.6065,25.9123],[90.6076,25.9196],[90.629,25.9374],[90.6054,25.947],[90.6019,25.9518],[90.5919,25.9521],[90.5873,25.9539],[90.5825,25.9598],[90.5788,25.958],[90.5728,25.9482],[90.5727,25.944],[90.5714,25.939],[90.5632,25.9356],[90.5534,25.9291],[90.5468,25.9199],[90.5392,25.9155],[90.5336,25.9088],[90.5255,25.901],[90.518,25.8965],[90.5125,25.8962],[90.5111,25.9001],[90.5185,25.9094],[90.5262,25.9283],[90.5322,25.9326],[90.5338,25.9363],[90.5348,25.9456],[90.5345,25.958],[90.5298,25.9619],[90.5241,25.9699],[90.5136,25.9824],[90.5057,25.996],[90.5001,26.0014],[90.4979,26.0037],[90.4924,26.0065],[90.4896,26.0096],[90.4812,26.014],[90.4773,26.0153],[90.4709,26.0126],[90.4653,26.0072],[90.4591,26.0032],[90.4579,26.0013],[90.4575,25.9996],[90.4471,25.9965],[90.4286,25.989],[90.4174,25.9923],[90.4165,25.9969],[90.4139,26.0013],[90.411,26.0059],[90.4076,26.0076],[90.4002,26.0093],[90.3973,26.0122],[90.3965,26.0142],[90.394,26.0141],[90.3874,26.0113],[90.3808,26.0116],[90.365,26.0103],[90.3467,26.003],[90.3449,26.0012],[90.3393,25.9969],[90.3369,25.9902],[90.3299,25.9885],[90.3291,25.9827],[90.3243,25.9744],[90.2866,25.9639],[90.2778,25.9632],[90.2274,25.9551],[90.2128,25.9539],[90.2111,25.9556],[90.2084,25.9616],[90.194,25.957],[90.1895,25.9532],[90.1857,25.9456],[90.1825,25.9445],[90.1805,25.947],[90.1761,25.9571],[90.1727,25.9587],[90.1685,25.9574],[90.1635,25.9574],[90.1584,25.9583],[90.1545,25.9602],[90.1534,25.9647],[90.1474,25.9645],[90.14,25.9581],[90.1341,25.9578],[90.1284,25.9588],[90.1232,25.9572],[90.12,25.9577],[90.1187,25.9613],[90.1138,25.9574],[90.1109,25.9541],[90.1079,25.9506],[90.1054,25.9419],[90.1005,25.9421],[90.0991,25.9393],[90.0961,25.9395],[90.088,25.9362],[90.0919,25.9288],[90.0874,25.9263],[90.0807,25.9245],[90.0795,25.9193],[90.078,25.9177],[90.0724,25.9193],[90.0676,25.9162],[90.0633,25.9155],[90.0589,25.9103],[90.0551,25.9081],[90.0522,25.8987],[90.0421,25.8908],[90.0345,25.8935],[90.0279,25.8943],[90.0213,25.8932],[90.0153,25.8886],[90.0047,25.8787],[90.0098,25.8757],[90.0144,25.8718],[90.0187,25.8714],[90.0214,25.8685],[90.0219,25.8655],[90.0208,25.8616],[90.0115,25.8497],[90.0083,25.8468],[90.0003,25.8486],[89.9976,25.8467],[89.9974,25.8442],[89.9998,25.8437],[90.0016,25.8422],[89.9978,25.8397],[89.9947,25.8388],[89.9908,25.8355],[89.9759,25.834],[89.9735,25.8281],[89.968,25.8262],[89.9589,25.8266],[89.9506,25.8249],[89.9446,25.8245],[89.9458,25.8202],[89.9456,25.8161],[89.9494,25.8144],[89.952,25.8109],[89.9508,25.792],[89.9526,25.7834],[89.955,25.7816],[89.9552,25.7745],[89.9524,25.7702],[89.9467,25.7647],[89.9435,25.7605],[89.9337,25.7525],[89.9346,25.7475],[89.9335,25.7446],[89.9279,25.7414],[89.9219,25.7392],[89.9161,25.7392],[89.9114,25.7416],[89.8991,25.7441],[89.8954,25.7441],[89.8926,25.735],[89.8942,25.7272],[89.9049,25.7148],[89.9126,25.7071],[89.9143,25.704],[89.9185,25.7027],[89.9195,25.6968],[89.9211,25.6944],[89.9324,25.69],[89.937,25.6866],[89.9417,25.6781],[89.9418,25.6737],[89.947,25.6588],[89.9804,25.6376],[89.9823,25.6284],[89.9833,25.6267],[89.9953,25.623],[89.9993,25.6219],[90.0014,25.6244],[90.0045,25.6238],[90.0184,25.6084],[90.0173,25.6022],[90.0111,25.5984],[90.0058,25.5884],[90.0021,25.5842],[89.9954,25.5863],[89.9895,25.5888],[89.9792,25.5907],[89.9751,25.5835],[89.9728,25.5746],[89.9665,25.5717],[89.9568,25.5705],[89.9494,25.5683],[89.9416,25.5676],[89.9358,25.5627],[89.9261,25.5635],[89.9181,25.5626],[89.9044,25.5595],[89.8864,25.5579],[89.8776,25.5489],[89.8738,25.5493],[89.8701,25.5442],[89.8706,25.5516],[89.8713,25.5567],[89.8718,25.5599],[89.8726,25.5621],[89.8744,25.5643],[89.8765,25.5658],[89.8772,25.5675],[89.8767,25.5694],[89.8767,25.5716],[89.8787,25.5747],[89.8797,25.5785],[89.8787,25.5814],[89.8783,25.5849],[89.8787,25.5878],[89.8797,25.5912],[89.8807,25.594],[89.885,25.6031],[89.8864,25.6081],[89.8866,25.6127],[89.8867,25.6211],[89.8861,25.6251],[89.8852,25.6298],[89.8831,25.6363],[89.8809,25.6397],[89.8798,25.6421],[89.8791,25.6453],[89.878,25.6485],[89.8772,25.6504],[89.8762,25.6538],[89.8751,25.656],[89.8737,25.6576],[89.8722,25.6582],[89.8699,25.659],[89.8675,25.6607],[89.8667,25.6628],[89.8656,25.665],[89.8629,25.673],[89.8622,25.6745],[89.8596,25.6776],[89.8576,25.6799],[89.8544,25.6843],[89.8529,25.6874],[89.8521,25.6916],[89.8524,25.6941],[89.8542,25.6966],[89.856,25.7026],[89.8561,25.7052],[89.8557,25.7071],[89.8547,25.7086],[89.8526,25.7098],[89.8523,25.7099],[89.8497,25.7108],[89.8462,25.7104],[89.8438,25.7105],[89.8421,25.7107],[89.8378,25.7119],[89.8363,25.7146],[89.8347,25.7175],[89.8336,25.7209],[89.8318,25.725],[89.8308,25.7296],[89.8306,25.7328],[89.8304,25.735],[89.8316,25.7367],[89.8343,25.7395],[89.8382,25.743],[89.8406,25.7477],[89.8428,25.7505],[89.8442,25.755],[89.8449,25.7572],[89.8449,25.7601],[89.8436,25.7682],[89.8423,25.7727],[89.8395,25.778],[89.8381,25.7817],[89.8377,25.7842],[89.8367,25.7877],[89.8355,25.7904],[89.8346,25.7919],[89.8337,25.7935],[89.8332,25.7954],[89.8332,25.7967],[89.8333,25.7989],[89.8328,25.8011],[89.832,25.8025],[89.8312,25.8055],[89.8301,25.8075],[89.829,25.8087],[89.8275,25.8098],[89.8265,25.8103],[89.825,25.8107],[89.8233,25.8111],[89.8229,25.8118],[89.8211,25.8144],[89.8182,25.8139],[89.8169,25.813],[89.8145,25.817],[89.8186,25.8212],[89.8255,25.8292],[89.8309,25.8376],[89.8304,25.8521],[89.8305,25.8533],[89.8327,25.8533],[89.8384,25.8536],[89.8397,25.8562],[89.839,25.8593],[89.8378,25.8625],[89.8366,25.8657],[89.8374,25.8681],[89.8381,25.87],[89.8398,25.8716],[89.8435,25.8745],[89.846,25.8789],[89.8491,25.8827],[89.8506,25.8866],[89.8522,25.8892],[89.8552,25.8928],[89.8582,25.8949],[89.8608,25.8973],[89.8633,25.9004],[89.8652,25.9028],[89.8696,25.9087],[89.8731,25.9115],[89.8757,25.9139],[89.8786,25.9166],[89.8815,25.9193],[89.8829,25.9224],[89.8835,25.9256],[89.8838,25.928],[89.8864,25.9342],[89.8886,25.9375],[89.8904,25.9402],[89.8899,25.9415],[89.8861,25.9436],[89.8789,25.9432],[89.8773,25.9431],[89.8714,25.9414],[89.8652,25.941],[89.8607,25.9406],[89.8571,25.9401],[89.8539,25.9398],[89.8526,25.9393],[89.8495,25.9372],[89.8473,25.936],[89.8461,25.9359],[89.8441,25.9373],[89.8443,25.939],[89.8438,25.9407],[89.8436,25.9413],[89.8406,25.9422],[89.8368,25.9416],[89.8354,25.9414],[89.8319,25.9415],[89.8295,25.9422],[89.8282,25.9436],[89.8283,25.9453],[89.8285,25.9474],[89.8296,25.9493],[89.8314,25.9506],[89.8334,25.9514],[89.836,25.9517],[89.8386,25.9512],[89.8418,25.9497],[89.8445,25.9479],[89.8465,25.9471],[89.8488,25.9464],[89.8515,25.9464],[89.8513,25.9478],[89.8491,25.95],[89.8486,25.9512],[89.8495,25.9535],[89.8497,25.9546],[89.8481,25.9565],[89.8472,25.9577],[89.8451,25.9602],[89.8434,25.9612],[89.843,25.9615],[89.8429,25.9619],[89.8415,25.9639],[89.844,25.9661],[89.8481,25.9677],[89.8513,25.9682],[89.8561,25.9669],[89.8592,25.9659],[89.8628,25.9663],[89.8658,25.9678],[89.869,25.9684],[89.8721,25.9694],[89.8743,25.9706],[89.8764,25.9733],[89.8754,25.9761],[89.8744,25.9777],[89.8729,25.9778],[89.8699,25.9781],[89.8678,25.9803],[89.8653,25.9824],[89.8613,25.9844],[89.8592,25.9851],[89.8577,25.9856],[89.8573,25.9859],[89.8531,25.9875],[89.8503,25.9924],[89.8497,25.9947],[89.8497,25.9981],[89.85,26.0012],[89.8493,26.0029],[89.8475,26.005],[89.8449,26.0066],[89.8435,26.0081],[89.8414,26.0099],[89.8396,26.0105],[89.8375,26.0085],[89.8366,26.0065],[89.8365,26.0056],[89.8364,26.0039],[89.8358,26.0012],[89.835,25.9996],[89.8343,25.9975],[89.8357,25.995],[89.8364,25.9928],[89.8367,25.9916],[89.8361,25.9891],[89.8374,25.9872],[89.8391,25.9848],[89.8392,25.9832],[89.8398,25.981],[89.8376,25.9794],[89.8348,25.9801],[89.8325,25.9808],[89.8289,25.9811],[89.8264,25.9822],[89.8234,25.9845],[89.823,25.9849],[89.8204,25.9877],[89.8177,25.9923],[89.8182,25.9943],[89.8212,25.9933],[89.8232,25.9959],[89.8238,26.0001],[89.8242,26.0036],[89.825,26.0065],[89.8261,26.0091],[89.8236,26.0129],[89.8216,26.0156],[89.82,26.018],[89.8204,26.0208],[89.8233,26.0237],[89.822,26.0257],[89.8193,26.0289],[89.8174,26.0325],[89.8154,26.0377],[89.8148,26.0408],[89.8131,26.042],[89.811,26.0429],[89.8097,26.0414],[89.8091,26.0392],[89.8089,26.038],[89.8086,26.036],[89.8081,26.0338],[89.8072,26.0308],[89.8055,26.0275],[89.8035,26.0246],[89.8014,26.0217],[89.7993,26.0192],[89.7986,26.0182],[89.797,26.0166],[89.7947,26.0157],[89.7935,26.0157],[89.7916,26.0177],[89.7914,26.018],[89.7923,26.0195],[89.7944,26.0206],[89.7962,26.0215],[89.7971,26.0227],[89.7967,26.0239],[89.7965,26.0255],[89.7991,26.0272],[89.8011,26.0286],[89.8024,26.0308],[89.8032,26.0338],[89.804,26.0355],[89.8047,26.0375],[89.8041,26.0394],[89.802,26.041],[89.7997,26.0411],[89.7977,26.0398],[89.7975,26.0391],[89.7972,26.0378],[89.7974,26.0356],[89.7957,26.0339],[89.7937,26.0342],[89.7927,26.035],[89.7926,26.0351],[89.7925,26.0352],[89.7922,26.0369],[89.7916,26.0385],[89.7902,26.0396],[89.7877,26.0397],[89.7856,26.0386],[89.7853,26.0383],[89.7834,26.0366],[89.7825,26.0351],[89.7812,26.0341],[89.7803,26.0337],[89.779,26.0344],[89.7779,26.0357],[89.778,26.0369],[89.7788,26.0387],[89.7811,26.0415],[89.7834,26.043],[89.7866,26.044],[89.79,26.0452],[89.7922,26.0461],[89.7925,26.0469],[89.7922,26.0484],[89.7902,26.0499],[89.7887,26.052],[89.7883,26.0544],[89.7912,26.0562],[89.794,26.0562],[89.7974,26.056],[89.8012,26.0567],[89.8035,26.0576],[89.8038,26.0593],[89.8018,26.0619],[89.8014,26.0634],[89.8022,26.0649],[89.8018,26.0678],[89.8007,26.0693],[89.7997,26.0708],[89.7996,26.0723],[89.7999,26.0745],[89.799,26.0746],[89.7962,26.0737],[89.7954,26.0748],[89.7958,26.0769],[89.7979,26.0791],[89.7987,26.081],[89.7985,26.0839],[89.7975,26.0862],[89.7964,26.0875],[89.7945,26.0872],[89.7922,26.0849],[89.7919,26.0847],[89.7898,26.0822],[89.7881,26.0812],[89.7859,26.0832],[89.7859,26.0834],[89.7858,26.0882],[89.7879,26.0922],[89.7893,26.0939],[89.7897,26.0946],[89.788,26.0959],[89.7865,26.0984],[89.7883,26.0998],[89.7902,26.1004],[89.7893,26.1027],[89.787,26.1052],[89.7838,26.1063],[89.7829,26.1058],[89.7803,26.1045],[89.7771,26.1035],[89.7741,26.1042],[89.7714,26.1062],[89.7711,26.1065],[89.7691,26.1079],[89.7669,26.1083],[89.7652,26.1078],[89.7628,26.1072],[89.761,26.1069],[89.7591,26.109],[89.7606,26.1123],[89.7638,26.1157],[89.768,26.1204],[89.7706,26.1242],[89.7707,26.1275],[89.7694,26.132],[89.7663,26.1356],[89.7638,26.1368],[89.7591,26.1384],[89.7573,26.1403],[89.7571,26.1441],[89.7553,26.149],[89.7509,26.1556],[89.7484,26.1578],[89.7444,26.1586],[89.7391,26.1582],[89.7364,26.1578],[89.7344,26.1574],[89.7306,26.1567],[89.7272,26.1553],[89.7245,26.1547],[89.7227,26.155],[89.7227,26.1561],[89.7228,26.1576],[89.7236,26.1604],[89.7221,26.1634],[89.7219,26.1645],[89.7197,26.1647],[89.7188,26.166],[89.7251,26.1696],[89.7251,26.1716],[89.7271,26.1739],[89.7329,26.173],[89.7338,26.1734],[89.7342,26.175],[89.7331,26.1759],[89.7302,26.177],[89.7198,26.1779],[89.7171,26.1772],[89.7116,26.1735],[89.7065,26.1731],[89.7043,26.1745],[89.7025,26.1771],[89.7002,26.1848],[89.6948,26.1891],[89.6976,26.1909],[89.7018,26.1882],[89.7054,26.1881],[89.7082,26.1868],[89.7107,26.1886],[89.7141,26.1894],[89.7161,26.1913],[89.7181,26.1968],[89.7175,26.2001],[89.7156,26.2027],[89.7116,26.2032],[89.7142,26.206],[89.7173,26.2056],[89.7206,26.2062],[89.7232,26.2053],[89.7257,26.2061],[89.7313,26.2108],[89.732,26.2123],[89.7313,26.2149],[89.7244,26.2173],[89.7155,26.2148],[89.7031,26.2133],[89.7002,26.2138],[89.6975,26.2159],[89.6972,26.2172],[89.6996,26.2189],[89.7031,26.2173],[89.7056,26.2171],[89.7102,26.2191],[89.7117,26.2277],[89.7128,26.229],[89.7182,26.2316],[89.7233,26.2329],[89.7288,26.2382],[89.7236,26.2435],[89.7157,26.2464],[89.715,26.249],[89.7165,26.2523],[89.7164,26.2553],[89.7154,26.2565],[89.7114,26.258],[89.7036,26.257],[89.701,26.2592],[89.7007,26.2608],[89.7048,26.2699],[89.7089,26.2708],[89.7115,26.2696],[89.7108,26.2646],[89.7114,26.2633],[89.7173,26.2592],[89.7252,26.2584],[89.7323,26.2603],[89.7335,26.2625],[89.7337,26.2665],[89.7375,26.2711],[89.7292,26.2829],[89.7211,26.2882],[89.7171,26.2931],[89.7154,26.297],[89.7157,26.302],[89.7178,26.3057],[89.7203,26.3081],[89.7228,26.3076],[89.7198,26.2986],[89.7209,26.2963],[89.7234,26.2948],[89.7318,26.2929],[89.7423,26.2952],[89.7461,26.2908],[89.7489,26.2894],[89.7571,26.2885],[89.7587,26.2893],[89.7591,26.2926],[89.7509,26.3062],[89.7505,26.3215],[89.7517,26.3222],[89.7536,26.3218],[89.762,26.3171],[89.7685,26.3238],[89.7777,26.3278],[89.7809,26.3309],[89.781,26.3358],[89.7792,26.3432],[89.7791,26.3474],[89.7809,26.3522],[89.782,26.3533],[89.7903,26.3581],[89.804,26.3623],[89.8099,26.3665],[89.8126,26.367],[89.8204,26.3706],[89.8172,26.3661],[89.8127,26.3624],[89.8115,26.3607],[89.8115,26.358],[89.8136,26.3532],[89.8156,26.3515],[89.8201,26.3504],[89.8212,26.3511],[89.8234,26.3552],[89.8211,26.3591],[89.8271,26.3666],[89.8274,26.3698],[89.8244,26.3769],[89.8256,26.3793],[89.8279,26.3811],[89.831,26.382],[89.834,26.3813],[89.8409,26.3778],[89.8455,26.384],[89.8513,26.3841],[89.8551,26.382],[89.8573,26.3845],[89.8532,26.396],[89.8503,26.3983],[89.8468,26.4027],[89.8461,26.3978],[89.8445,26.3944],[89.8404,26.3908],[89.8306,26.3902],[89.828,26.3935],[89.8273,26.3965],[89.8295,26.4033],[89.8333,26.4123],[89.8363,26.4113],[89.8448,26.4102],[89.8498,26.4142],[89.8476,26.4198],[89.8478,26.4218],[89.8498,26.4223],[89.853,26.4246],[89.8552,26.434],[89.8577,26.4381],[89.8611,26.4404],[89.8695,26.4484],[89.8694,26.4573],[89.8706,26.4599],[89.8702,26.464],[89.8671,26.4658],[89.8624,26.4661],[89.861,26.4748],[89.8527,26.4878],[89.855,26.4943],[89.8556,26.5051],[89.8535,26.5172],[89.8544,26.5211],[89.8618,26.5305],[89.8623,26.5373],[89.8614,26.5432],[89.8646,26.5483],[89.8643,26.5608],[89.8655,26.5658],[89.865,26.5703],[89.8615,26.5746],[89.862,26.5779],[89.8699,26.5795],[89.8775,26.5842],[89.8742,26.5892],[89.8721,26.5947],[89.8725,26.5976],[89.8752,26.6012],[89.8766,26.6063],[89.8772,26.6131],[89.8716,26.615],[89.8618,26.6152],[89.859,26.6172],[89.857,26.6234],[89.8573,26.6321],[89.8613,26.6356],[89.8737,26.6435],[89.8758,26.6463],[89.8764,26.6495],[89.8728,26.6519],[89.8681,26.6566],[89.8683,26.6608],[89.8699,26.6627],[89.8705,26.6662],[89.8693,26.6709],[89.8695,26.6738],[89.8715,26.6792],[89.8714,26.6835],[89.8614,26.7003],[89.8601,26.7014],[89.8632,26.7007],[89.8625,26.7017],[89.8656,26.706],[89.8651,26.7078],[89.864,26.7108],[89.8626,26.7137],[89.862,26.7165],[89.8628,26.7193],[89.8635,26.7222],[89.8642,26.7254],[89.8645,26.7272],[89.8643,26.728],[89.8643,26.7306],[89.8627,26.7319],[89.8603,26.734],[89.8597,26.7345],[89.8589,26.7352],[89.8598,26.736],[89.861,26.7364],[89.8629,26.7374],[89.8975,26.7244],[89.9621,26.7239],[89.967,26.7238],[89.9754,26.7257],[89.9926,26.7294],[89.997,26.7304],[90.0061,26.732],[90.0082,26.7324],[90.0097,26.7323],[90.0129,26.7322],[90.0132,26.7322],[90.0187,26.7319],[90.0492,26.7307],[90.1384,26.7533],[90.1886,26.7713],[90.1946,26.7734],[90.1875,26.807],[90.2008,26.8354],[90.2275,26.8569],[90.2291,26.8582],[90.2302,26.8591],[90.234,26.8591],[90.2418,26.8592],[90.2486,26.8592],[90.2541,26.8582],[90.2545,26.8581],[90.2555,26.8579],[90.265,26.8561],[90.2831,26.8527],[90.3002,26.8484],[90.315,26.8568],[90.3154,26.857],[90.3221,26.8608],[90.3373,26.8695],[90.347,26.875],[90.3478,26.8754],[90.3501,26.8886],[90.3502,26.8893],[90.3564,26.901],[90.4165,26.9047],[90.4202,26.9021],[90.4239,26.8997],[90.4382,26.8899],[90.466,26.8711],[90.4819,26.8604],[90.5017,26.8469],[90.5089,26.842],[90.5146,26.8382],[90.5334,26.8254],[90.543,26.8189],[90.5459,26.8169],[90.5704,26.8087],[90.585,26.8038],[90.6339,26.794],[90.6432,26.7803],[90.6459,26.7763],[90.6469,26.7766],[90.6758,26.7842],[90.6891,26.7737],[90.6935,26.7703],[90.6958,26.7701],[90.7168,26.7685],[90.7406,26.7748],[90.7413,26.775],[90.7429,26.7755],[90.7768,26.7759],[90.7868,26.776],[90.8166,26.7763],[90.9493,26.7874],[90.9565,26.788],[90.9577,26.7864],[90.959,26.7848],[90.9587,26.7844],[90.9567,26.7815],[90.9643,26.7836],[90.9702,26.7851],[90.9916,26.7908],[91.019,26.7867],[91.0284,26.7852],[91.0386,26.7837],[91.0414,26.7842],[91.0469,26.7832],[91.0497,26.7828],[91.0522,26.7823],[91.0554,26.7824],[91.0569,26.7839],[91.0583,26.7851],[91.0598,26.7863],[91.0616,26.788],[91.0634,26.7899],[91.065,26.7914],[91.0681,26.7943],[91.0696,26.7956],[91.0726,26.7988],[91.0743,26.8004],[91.0762,26.802],[91.078,26.8037],[91.0784,26.8041],[91.0802,26.8059],[91.0818,26.8075],[91.0832,26.8087],[91.0844,26.81],[91.0863,26.8116],[91.0897,26.815],[91.091,26.8162],[91.0922,26.8176],[91.0938,26.8189],[91.0943,26.8194],[91.0961,26.8209],[91.0975,26.8222],[91.1458,26.8112],[91.1614,26.8119],[91.1784,26.8128],[91.1922,26.8136],[91.2218,26.8126],[91.2368,26.8123],[91.251,26.8082],[91.2616,26.8051],[91.2628,26.8047],[91.2636,26.8045],[91.2768,26.8006],[91.2819,26.7972],[91.2964,26.7872],[91.327,26.7826],[91.3374,26.7812],[91.3597,26.7895],[91.3756,26.7954],[91.3904,26.8159],[91.3922,26.8185],[91.4043,26.8353],[91.4062,26.8379],[91.4075,26.8397],[91.4084,26.8391],[91.4409,26.8153],[91.4418,26.8147],[91.4483,26.8111],[91.4552,26.8073],[91.4636,26.8027],[91.4949,26.7914],[91.53,26.7968],[91.5319,26.7971],[91.5443,26.799],[91.5913,26.805],[91.6025,26.8104],[91.6037,26.8109],[91.6084,26.8132],[91.6256,26.8212],[91.6442,26.817],[91.6545,26.8147],[91.6897,26.8069],[91.6902,26.8071],[91.7017,26.8118],[91.705,26.8132],[91.7206,26.8119],[91.7485,26.8263],[91.7602,26.8322],[91.7612,26.8327],[91.7647,26.8346],[91.7812,26.8429],[91.8023,26.8537],[91.8074,26.8561],[91.8139,26.8593],[91.8164,26.8605],[91.8239,26.8644],[91.8328,26.8769],[91.8591,26.9137],[91.863,26.9142],[91.8778,26.916],[91.8822,26.9164],[91.8851,26.9167],[91.8921,26.9192],[91.9016,26.9148],[91.9422,26.8957],[91.9508,26.8909],[91.9639,26.8829],[91.9703,26.8706],[91.9775,26.8637],[91.9831,26.8583],[91.9904,26.8566],[92.0001,26.8542],[92.017,26.8501],[92.0361,26.8489],[92.0522,26.8479],[92.0566,26.8476],[92.0863,26.8596],[92.1029,26.8676],[92.1027,26.8815],[92.113,26.8924],[92.1204,26.8903],[92.1242,26.8898],[92.1295,26.8907],[92.1479,26.8909],[92.1624,26.8927],[92.1688,26.8919],[92.1772,26.8925],[92.1948,26.891],[92.2094,26.8969],[92.2546,26.9122],[92.2612,26.9088],[92.2651,26.9076],[92.2679,26.9051],[92.2764,26.9025],[92.2815,26.9041],[92.2901,26.9055],[92.3005,26.9081],[92.3037,26.9095],[92.3029,26.9242],[92.3201,26.9284],[92.3468,26.9335],[92.3531,26.9356],[92.3644,26.9327],[92.3673,26.9316],[92.3998,26.9263],[92.4119,26.9442],[92.4258,26.9435],[92.4422,26.955],[92.4462,26.9606],[92.4596,26.9633],[92.4663,26.9631],[92.4838,26.9647],[92.4906,26.9647],[92.505,26.9668],[92.5154,26.9644],[92.5318,26.9633],[92.5536,26.9591],[92.5852,26.9619],[92.6455,26.9874],[92.6453,26.9956],[92.6442,27.0025],[92.6446,27.01],[92.6391,27.0185],[92.6505,27.0248],[92.657,27.0376],[92.6589,27.0385],[92.6824,27.0317],[92.7023,27.0276],[92.7137,27.0261],[92.7275,27.0284],[92.7691,27.033],[92.7853,27.0307],[92.8244,27.0185],[92.8366,27.0135],[92.8724,27.0077],[92.8834,27.0023],[92.8875,27.0002],[92.8903,26.9998],[92.8998,26.9963],[92.9167,26.9847],[92.9149,26.9698],[92.9178,26.9642],[92.9217,26.9619],[92.9264,26.9607],[92.9328,26.9569],[92.9514,26.9489],[92.9616,26.9459],[92.973,26.9408],[92.9807,26.9356],[92.9827,26.9359],[92.9867,26.9338],[92.9938,26.9318],[92.9958,26.9303],[92.9974,26.9303],[93.0194,26.9168],[93.0382,26.9179],[93.0602,26.9212],[93.0688,26.9242],[93.0764,26.9199],[93.0919,26.9155],[93.109,26.9273],[93.1843,26.9387],[93.2224,26.9491],[93.2669,26.956],[93.3479,26.9632],[93.3742,26.9604],[93.3907,26.96],[93.4367,26.9561],[93.4479,26.9542],[93.4638,26.9435],[93.4681,26.9389],[93.4803,26.9402],[93.4868,26.9431],[93.4894,26.9385],[93.5258,26.9486],[93.5455,26.9517],[93.5708,26.9541],[93.5842,26.9526],[93.5958,26.9552],[93.6245,26.9642],[93.6402,26.9648],[93.6551,26.9665],[93.6758,26.9711],[93.6966,26.9924],[93.6983,26.9948],[93.701,26.9971],[93.7057,27.0037],[93.7045,27.0066],[93.7056,27.0083],[93.7189,27.0192],[93.7339,27.0272],[93.7426,27.0297],[93.7464,27.0324],[93.7685,27.0433],[93.7682,27.0555],[93.7701,27.0556],[93.771,27.0546],[93.7718,27.0555],[93.7724,27.0623],[93.7737,27.0624],[93.7754,27.0562],[93.7779,27.0528],[93.7792,27.0533],[93.7791,27.0583],[93.7812,27.0608],[93.7823,27.0669],[93.7832,27.0672],[93.7851,27.0584],[93.7861,27.0554],[93.7874,27.0542],[93.7912,27.0546],[93.794,27.0577],[93.7971,27.0709],[93.7981,27.0709],[93.7988,27.0697],[93.7994,27.0669],[93.8021,27.0618],[93.8049,27.0613],[93.8085,27.0626],[93.8102,27.0681],[93.8129,27.0707],[93.8157,27.0655],[93.8188,27.0649],[93.8229,27.0683],[93.8246,27.0722],[93.8255,27.0721],[93.8271,27.0688],[93.8282,27.069],[93.829,27.0721],[93.8321,27.0729],[93.835,27.075],[93.8367,27.0782],[93.8348,27.0821],[93.8344,27.0828],[93.8362,27.0865],[93.833,27.0876],[93.8313,27.0924],[93.8266,27.0994],[93.8272,27.1119],[93.8255,27.1193],[93.822,27.122],[93.8191,27.1229],[93.815,27.1226],[93.8132,27.1238],[93.8114,27.1263],[93.8139,27.1286],[93.8142,27.1308],[93.8135,27.132],[93.8082,27.1329],[93.8058,27.1348],[93.8022,27.1329],[93.8002,27.1326],[93.7984,27.1344],[93.7978,27.136],[93.7982,27.1372],[93.8014,27.1379],[93.8056,27.1378],[93.8068,27.1472],[93.8073,27.1501],[93.8086,27.1518],[93.817,27.1582],[93.8267,27.1694],[93.829,27.1706],[93.837,27.1721],[93.8399,27.1735],[93.8472,27.1798],[93.8575,27.1911],[93.8674,27.1988],[93.8856,27.2244],[93.891,27.2302],[93.893,27.231],[93.901,27.2415],[93.9189,27.2571],[93.9339,27.2683],[93.9389,27.2733],[93.9565,27.2948],[93.9727,27.3083],[93.9809,27.3138],[93.9857,27.3206],[93.9902,27.3246],[93.996,27.3279],[93.9978,27.3279],[94.0007,27.3301],[94,27.3347],[94.0098,27.3389],[94.0258,27.3477],[94.0301,27.348],[94.0416,27.3533],[94.0483,27.3587],[94.0548,27.3628],[94.0609,27.3636],[94.0631,27.3689],[94.0686,27.3744],[94.0724,27.383],[94.0863,27.4046],[94.0933,27.4109],[94.0999,27.4139],[94.1065,27.4181],[94.1171,27.431],[94.1233,27.435],[94.1359,27.4459],[94.1408,27.4485],[94.1545,27.4605],[94.1602,27.4665],[94.1587,27.47],[94.1572,27.478],[94.1642,27.481],[94.1679,27.4842],[94.1747,27.4841],[94.1869,27.4908],[94.1912,27.4963],[94.1952,27.4975],[94.2107,27.4979],[94.2123,27.4979],[94.2154,27.5031],[94.2217,27.507],[94.2591,27.5226],[94.2597,27.5235],[94.2625,27.5274],[94.2569,27.5405],[94.2557,27.5508],[94.2565,27.5574],[94.2406,27.5704],[94.2341,27.5715],[94.2265,27.5756],[94.2255,27.5811],[94.2214,27.5879],[94.2253,27.5952],[94.2251,27.5985],[94.2229,27.6007],[94.2135,27.6044],[94.2111,27.6108],[94.2174,27.609],[94.226,27.618],[94.2351,27.6325],[94.2451,27.6359],[94.2473,27.6358],[94.2501,27.6397],[94.2522,27.6409],[94.256,27.6366],[94.2591,27.637],[94.2628,27.636],[94.2667,27.6326],[94.2672,27.6279],[94.2622,27.6245],[94.2571,27.6191],[94.2541,27.6137],[94.2619,27.6101],[94.2725,27.6035],[94.2752,27.5974],[94.276,27.5933],[94.2877,27.5918],[94.2885,27.5945],[94.2929,27.6004],[94.298,27.6043],[94.3016,27.5999],[94.3084,27.5956],[94.3124,27.5897],[94.3197,27.5901],[94.3237,27.5872],[94.3291,27.5884],[94.3381,27.581],[94.3406,27.5834],[94.3451,27.5846],[94.3488,27.5795],[94.3557,27.5774],[94.3622,27.5802],[94.3675,27.5767],[94.3723,27.5793],[94.3758,27.5846],[94.3804,27.5851],[94.3844,27.5865],[94.3876,27.5893],[94.3948,27.5888],[94.4032,27.5872],[94.4209,27.6013],[94.431,27.6031],[94.4306,27.5965],[94.4361,27.5844],[94.4424,27.5795],[94.4496,27.575],[94.4535,27.5709],[94.4562,27.5629],[94.4597,27.5577],[94.4693,27.564],[94.4792,27.577],[94.4831,27.5772],[94.491,27.5755],[94.5,27.5773],[94.5002,27.5773],[94.5094,27.5841],[94.5157,27.5847],[94.5263,27.5958],[94.5317,27.5969],[94.5366,27.597],[94.5464,27.6035],[94.5517,27.604],[94.5561,27.6032],[94.5639,27.607],[94.5695,27.6064],[94.5735,27.607],[94.5819,27.6167],[94.5863,27.6201],[94.5915,27.6228],[94.5958,27.6215],[94.6006,27.6219],[94.6041,27.6231],[94.6094,27.6226],[94.6141,27.6257],[94.625,27.6301],[94.6307,27.6283],[94.6345,27.6288],[94.6398,27.631],[94.6452,27.6365],[94.6484,27.6421],[94.6646,27.6479],[94.6691,27.6503],[94.6757,27.6507],[94.6825,27.6496],[94.687,27.6533],[94.6865,27.6571],[94.6839,27.6633],[94.6894,27.6672],[94.6981,27.6671],[94.7131,27.6603],[94.7166,27.6616],[94.7207,27.67],[94.7255,27.6703],[94.7277,27.6679],[94.737,27.6656],[94.7427,27.6634],[94.7559,27.6665],[94.7596,27.6684],[94.7643,27.6746],[94.7669,27.6801],[94.7722,27.684],[94.7765,27.6834],[94.791,27.6889],[94.7941,27.6932],[94.7953,27.6981],[94.7976,27.6989],[94.8002,27.6971],[94.818,27.6968],[94.8213,27.6962],[94.8394,27.7035],[94.8488,27.7107],[94.8536,27.7316],[94.8607,27.7334],[94.866,27.7362],[94.8609,27.7395],[94.8839,27.7421],[94.93,27.7567],[94.987,27.7709],[94.9979,27.7766],[95.0191,27.7725],[95.0312,27.7748],[95.0388,27.7777],[95.0489,27.7865],[95.0518,27.7902],[95.1949,27.8344],[95.2365,27.8484],[95.2925,27.865],[95.3085,27.8678],[95.3166,27.8711],[95.3843,27.842],[95.516,27.8818],[95.5262,27.8979],[95.533,27.9004],[95.5435,27.9023],[95.5443,27.9058],[95.5421,27.9107],[95.5438,27.9135],[95.565,27.9225],[95.5663,27.9316],[95.5712,27.9424],[95.5805,27.9436],[95.5887,27.9416],[95.5969,27.9511],[95.6067,27.9578],[95.8259,27.9774],[95.9569,27.9691],[95.9775,27.9685],[95.9652,27.9526],[95.9523,27.9418]]]]}}]}