{"type":"FeatureCollection","name":"Chandigarh","crs":{"type":"name","properties":{"name":"urn:ogc:def:crs:OGC:1.3:CRS84"}},"features":[{"type":"Feature","properties":{"ID_0":105,"ISO":"IND","NAME_0":"India","ID_1":6,"NAME_1":"Chandigarh","TYPE_1":"Union Territor","ENGTYPE_1":"Union Territory","NL_NAME_1":null,"VARNAME_1":null},"geometry":{"type":"Polygon","coordinates":[[[76.8029,30.6755],[76.7944,30.6693],[76.7893,30.6706],[76.7707,30.6779],[76.745,30.6905],[76.7385,30.6892],[76.7329,30.6972],[76.7304,30.6975],[76.7275,30.6957],[76.7263,30.6959],[76.7246,30.7038],[76.7261,30.7049],[76.7269,30.7076],[76.7255,30.71],[76.7215,30.7121],[76.7152,30.7133],[76.7153,30.715],[76.7176,30.7175],[76.718,30.7206],[76.7161,30.7286],[76.7112,30.7323],[76.7099,30.7355],[76.7013,30.7453],[76.6955,30.7441],[76.6927,30.7447],[76.6907,30.7467],[76.6933,30.7527],[76.6929,30.7574],[76.6906,30.7601],[76.7079,30.7701],[76.7183,30.7691],[76.7227,30.7707],[76.7292,30.7763],[76.7312,30.777],[76.7305,30.781],[76.7352,30.783],[76.7392,30.7861],[76.7382,30.7899],[76.74,30.7911],[76.743,30.7915],[76.7458,30.7946],[76.7509,30.7968],[76.7593,30.799],[76.7676,30.7951],[76.7733,30.7879],[76.7773,30.7855],[76.7763,30.784],[76.7727,30.7831],[76.7693,30.777],[76.7756,30.7761],[76.7809,30.7739],[76.7887,30.781],[76.7961,30.7858],[76.7978,30.7853],[76.8022,30.7818],[76.8039,30.779],[76.8035,30.7776],[76.7914,30.7695],[76.7931,30.7665],[76.8015,30.7628],[76.812,30.7666],[76.8282,30.7638],[76.8227,30.7401],[76.8248,30.7308],[76.8344,30.7244],[76.8363,30.7143],[76.8283,30.7059],[76.8211,30.6968],[76.8177,30.6906],[76.8198,30.6858],[76.8105,30.685],[76.8059,30.6803],[76.8029,30.6755]]]}}]}