{"type":"FeatureCollection","name":"Dadra_and_Nagar_Haveli","crs":{"type":"name","properties":{"name":"urn:ogc:def:crs:OGC:1.3:CRS84"}},"features":[{"type":"Feature","properties":{"ID_0":105,"ISO":"IND","NAME_0":"India","ID_1":8,"NAME_1":"Dadra and Nagar Haveli","TYPE_1":"Union Territor","ENGTYPE_1":"Union Territory","NL_NAME_1":null,"VARNAME_1":"DAdra et Nagar Haveli|Dadra e Nagar Haveli"},"geometry":{"type":"Polygon","coordinates":[[[73.0247,20.0963],[73.0195,20.105],[73.0102,20.1104],[73.015,20.1249],[73.0167,20.1305],[73.017,20.1325],[73.0175,20.135],[73.0105,20.1402],[73.0088,20.137],[73.0076,20.1325],[73.0077,20.1294],[73.0078,20.1264],[73.0073,20.1241],[73.0067,20.1213],[73.0043,20.1179],[72.9942,20.1139],[72.9892,20.1132],[72.9853,20.1135],[72.9796,20.1253],[72.9732,20.1308],[72.986,20.1575],[72.9862,20.1627],[72.9867,20.1713],[72.986,20.1765],[72.9762,20.18],[72.9759,20.1896],[72.9704,20.2123],[72.9744,20.215],[72.9754,20.2192],[72.9745,20.2258],[72.9696,20.2339],[72.9653,20.2372],[72.9578,20.2412],[72.9515,20.2436],[72.9437,20.2449],[72.9408,20.2468],[72.9238,20.2682],[72.9223,20.2744],[72.9246,20.2787],[72.9303,20.284],[72.9381,20.288],[72.9414,20.2921],[72.946,20.2934],[72.9508,20.292],[72.9575,20.2877],[72.9698,20.2747],[72.9745,20.2718],[72.9801,20.2708],[72.9841,20.2717],[72.9878,20.2747],[72.9895,20.2775],[72.9905,20.2921],[73.0036,20.2931],[73.0105,20.2924],[73.0173,20.2905],[73.0205,20.2909],[73.0218,20.2927],[73.0222,20.2971],[73.0206,20.3021],[73.0205,20.3075],[73.0176,20.3155],[73.0198,20.3174],[73.0223,20.3159],[73.0247,20.3128],[73.027,20.3038],[73.0265,20.2941],[73.0298,20.2923],[73.0373,20.2906],[73.042,20.2902],[73.0442,20.2911],[73.0459,20.2924],[73.0476,20.3045],[73.0477,20.3166],[73.0505,20.323],[73.0551,20.3252],[73.062,20.3257],[73.0667,20.3261],[73.0715,20.3272],[73.0753,20.3296],[73.0827,20.3291],[73.0863,20.3261],[73.0886,20.3265],[73.0909,20.3268],[73.0974,20.3351],[73.0992,20.3399],[73.1013,20.356],[73.1021,20.3585],[73.1025,20.3597],[73.1034,20.3604],[73.1054,20.3605],[73.1074,20.3607],[73.1114,20.3561],[73.1143,20.3528],[73.1164,20.3472],[73.118,20.3429],[73.1215,20.3364],[73.122,20.3329],[73.1189,20.3262],[73.1165,20.3127],[73.1144,20.3106],[73.1129,20.3049],[73.1157,20.304],[73.1291,20.3058],[73.1343,20.3053],[73.1393,20.3096],[73.1402,20.3147],[73.1418,20.3175],[73.1473,20.3168],[73.1524,20.3175],[73.1614,20.3172],[73.1655,20.3159],[73.1684,20.3138],[73.1707,20.3105],[73.1771,20.3123],[73.178,20.3107],[73.1775,20.3091],[73.1771,20.3076],[73.177,20.3009],[73.1795,20.2899],[73.1789,20.2865],[73.1758,20.2842],[73.172,20.2825],[73.1691,20.2823],[73.1668,20.2834],[73.1654,20.287],[73.1613,20.2918],[73.1582,20.2905],[73.1563,20.2874],[73.1552,20.2854],[73.1551,20.2824],[73.1543,20.2793],[73.1536,20.277],[73.1525,20.2767],[73.1499,20.2801],[73.147,20.281],[73.1463,20.2805],[73.1427,20.2753],[73.1426,20.2686],[73.141,20.2652],[73.1368,20.2605],[73.128,20.2585],[73.1246,20.2567],[73.1133,20.2442],[73.1085,20.2386],[73.1105,20.2321],[73.1019,20.2289],[73.0875,20.234],[73.0819,20.2328],[73.0769,20.2298],[73.0704,20.2215],[73.0642,20.2032],[73.0666,20.1979],[73.0703,20.1975],[73.0705,20.1974],[73.073,20.1961],[73.0744,20.1925],[73.0742,20.1773],[73.0724,20.1635],[73.0755,20.1601],[73.0824,20.1566],[73.0865,20.157],[73.0879,20.1658],[73.0899,20.1704],[73.0935,20.1739],[73.0962,20.1742],[73.0979,20.1733],[73.0995,20.1726],[73.1018,20.1641],[73.1033,20.1613],[73.1051,20.16],[73.1091,20.1592],[73.113,20.1584],[73.1168,20.1588],[73.1197,20.1591],[73.1226,20.1578],[73.1249,20.1567],[73.128,20.1571],[73.1256,20.1611],[73.1261,20.1636],[73.1326,20.1678],[73.1358,20.1723],[73.1395,20.1731],[73.147,20.1711],[73.1501,20.1728],[73.1524,20.1761],[73.1521,20.1797],[73.1484,20.1855],[73.146,20.1874],[73.1416,20.2019],[73.1422,20.2044],[73.1458,20.207],[73.1498,20.2056],[73.1522,20.2032],[73.1528,20.2028],[73.1536,20.2022],[73.1635,20.2015],[73.169,20.1997],[73.173,20.2013],[73.1802,20.2086],[73.1811,20.2024],[73.1885,20.2006],[73.1913,20.1986],[73.1959,20.1975],[73.2044,20.1983],[73.2099,20.1974],[73.2162,20.1928],[73.2194,20.1904],[73.2278,20.187],[73.2292,20.1843],[73.2283,20.1801],[73.2267,20.1764],[73.2221,20.1714],[73.2178,20.1681],[73.1992,20.1616],[73.1961,20.1561],[73.1953,20.1509],[73.196,20.1399],[73.2007,20.1297],[73.211,20.1236],[73.2163,20.122],[73.2177,20.1063],[73.2191,20.0975],[73.2139,20.0906],[73.2069,20.0837],[73.2029,20.0811],[73.198,20.0778],[73.1989,20.0623],[73.1859,20.0529],[73.1838,20.0523],[73.1814,20.0516],[73.1754,20.0581],[73.1702,20.0656],[73.1633,20.0731],[73.1567,20.074],[73.1445,20.0779],[73.1395,20.0843],[73.1367,20.0853],[73.1314,20.0794],[73.1297,20.0788],[73.1277,20.0782],[73.1261,20.0781],[73.1231,20.0779],[73.1175,20.0788],[73.1118,20.083],[73.1104,20.0846],[73.1079,20.0873],[73.1052,20.0872],[73.0984,20.0937],[73.0883,20.0945],[73.0782,20.0953],[73.0606,20.0991],[73.058,20.0967],[73.0592,20.0679],[73.0528,20.0677],[73.0453,20.0718],[73.0385,20.0781],[73.0318,20.0844],[73.0247,20.0963]]]}}]}