{"type":"FeatureCollection","name":"Daman_and_Diu","crs":{"type":"name","properties":{"name":"urn:ogc:def:crs:OGC:1.3:CRS84"}},"features":[{"type":"Feature","properties":{"ID_0":105,"ISO":"IND","NAME_0":"India","ID_1":9,"NAME_1":"Daman and Diu","TYPE_1":"Union Territor","ENGTYPE_1":"Union Territory","NL_NAME_1":null,"VARNAME_1":null},"geometry":{"type":"MultiPolygon","coordinates":[[[[72.8601,20.471],[72.8634,20.4688],[72.8659,20.4675],[72.8624,20.4623],[72.8512,20.4549],[72.8487,20.4533],[72.8443,20.4484],[72.8422,20.445],[72.839,20.4391],[72.8386,20.4382],[72.8382,20.4373],[72.8366,20.4284],[72.8371,20.4223],[72.8392,20.4185],[72.8406,20.4177],[72.8416,20.4171],[72.8428,20.4164],[72.844,20.4157],[72.8449,20.4153],[72.846,20.4148],[72.8511,20.4123],[72.852,20.412],[72.862,20.4105],[72.8689,20.4059],[72.8695,20.404],[72.8701,20.4019],[72.8729,20.3957],[72.8745,20.3935],[72.8755,20.3811],[72.8728,20.3816],[72.8721,20.3822],[72.8701,20.3912],[72.8608,20.4032],[72.8511,20.4082],[72.8451,20.4071],[72.843,20.4031],[72.8425,20.3992],[72.8324,20.3707],[72.8313,20.3687],[72.8215,20.3711],[72.8215,20.3713],[72.8213,20.3713],[72.8213,20.3715],[72.8215,20.3715],[72.8215,20.3729],[72.8218,20.3729],[72.8218,20.3738],[72.8221,20.3738],[72.8221,20.3743],[72.8224,20.3743],[72.8224,20.3749],[72.8226,20.3749],[72.8226,20.3754],[72.8229,20.3754],[72.8229,20.3763],[72.8232,20.3762],[72.8232,20.3771],[72.8235,20.3771],[72.8235,20.3782],[72.8238,20.3782],[72.8238,20.379],[72.824,20.379],[72.824,20.3799],[72.8243,20.3799],[72.8243,20.3804],[72.8246,20.3804],[72.8246,20.3812],[72.8249,20.3812],[72.8249,20.3821],[72.8251,20.3821],[72.8251,20.3826],[72.8254,20.3826],[72.8254,20.3835],[72.8257,20.3835],[72.8257,20.384],[72.826,20.384],[72.826,20.3846],[72.8262,20.3846],[72.8262,20.3851],[72.8265,20.3851],[72.8265,20.3857],[72.8268,20.3857],[72.8268,20.3868],[72.8271,20.3868],[72.8271,20.3874],[72.8276,20.3874],[72.8276,20.3876],[72.8279,20.3876],[72.8279,20.3885],[72.8276,20.3885],[72.8276,20.389],[72.8274,20.389],[72.8274,20.3901],[72.8276,20.3901],[72.8276,20.3907],[72.8279,20.3907],[72.8279,20.3921],[72.8282,20.3921],[72.8282,20.3946],[72.8285,20.3946],[72.8285,20.4004],[72.8288,20.4004],[72.8288,20.4035],[72.8285,20.4035],[72.8285,20.4051],[72.8288,20.4051],[72.8288,20.4062],[72.829,20.4062],[72.829,20.4071],[72.8293,20.4071],[72.8293,20.4082],[72.8296,20.4082],[72.8296,20.4085],[72.8299,20.4085],[72.8299,20.409],[72.8301,20.409],[72.8301,20.4096],[72.8304,20.4096],[72.8304,20.4099],[72.8307,20.4099],[72.8307,20.4101],[72.831,20.4101],[72.831,20.4104],[72.8313,20.4104],[72.8313,20.4112],[72.8313,20.4126],[72.8307,20.4126],[72.8307,20.4132],[72.8304,20.4132],[72.8304,20.4135],[72.8301,20.4135],[72.8301,20.4137],[72.8299,20.4137],[72.8299,20.4143],[72.8296,20.4143],[72.8296,20.4154],[72.8293,20.4154],[72.8293,20.4212],[72.829,20.4212],[72.829,20.4257],[72.8288,20.4257],[72.8288,20.4296],[72.8285,20.4296],[72.8285,20.4299],[72.8282,20.4299],[72.8282,20.4321],[72.8285,20.4321],[72.8285,20.4337],[72.8288,20.4337],[72.8288,20.4343],[72.829,20.4343],[72.829,20.4351],[72.8293,20.4351],[72.8293,20.4363],[72.8296,20.4363],[72.8296,20.4371],[72.8299,20.4371],[72.8299,20.4388],[72.8301,20.4387],[72.8301,20.4396],[72.8304,20.4396],[72.8304,20.4404],[72.8307,20.4404],[72.8307,20.441],[72.831,20.441],[72.831,20.4415],[72.8313,20.4415],[72.8313,20.4421],[72.8315,20.4421],[72.8315,20.4426],[72.8318,20.4426],[72.8318,20.4435],[72.8321,20.4435],[72.8321,20.444],[72.8324,20.444],[72.8324,20.4449],[72.8326,20.4449],[72.8326,20.446],[72.8329,20.446],[72.8329,20.4463],[72.8335,20.4463],[72.8335,20.4465],[72.8337,20.4465],[72.8337,20.4468],[72.834,20.4468],[72.834,20.4474],[72.8346,20.4474],[72.8346,20.4479],[72.8349,20.4479],[72.8349,20.4482],[72.8351,20.4482],[72.8351,20.4488],[72.8354,20.4488],[72.8354,20.449],[72.8357,20.449],[72.8357,20.4499],[72.836,20.4499],[72.836,20.4501],[72.8363,20.4501],[72.8363,20.4504],[72.8365,20.4504],[72.8365,20.4513],[72.8368,20.4513],[72.8368,20.4515],[72.8371,20.4515],[72.8371,20.4518],[72.8374,20.4518],[72.8374,20.4524],[72.8376,20.4524],[72.8376,20.4526],[72.8379,20.4526],[72.8379,20.4532],[72.8382,20.4532],[72.8382,20.4535],[72.8385,20.4535],[72.8385,20.4538],[72.839,20.4538],[72.839,20.454],[72.8393,20.454],[72.8393,20.4543],[72.8396,20.4543],[72.8396,20.4549],[72.8401,20.4549],[72.8401,20.4551],[72.8404,20.4551],[72.8404,20.4554],[72.8407,20.4554],[72.8407,20.4557],[72.841,20.4557],[72.841,20.456],[72.8412,20.456],[72.8412,20.4563],[72.8415,20.4562],[72.8415,20.4563],[72.8415,20.4565],[72.8417,20.4565],[72.8418,20.4565],[72.8418,20.4567],[72.8418,20.4568],[72.8419,20.4568],[72.8421,20.4568],[72.8421,20.4571],[72.8424,20.4571],[72.8424,20.4574],[72.8426,20.4574],[72.8426,20.4578],[72.8426,20.4579],[72.8428,20.4579],[72.8429,20.4579],[72.8429,20.4582],[72.8435,20.4582],[72.8435,20.4585],[72.844,20.4585],[72.844,20.459],[72.8443,20.459],[72.8443,20.4593],[72.8446,20.4593],[72.8446,20.4596],[72.8454,20.4596],[72.8454,20.4599],[72.846,20.4599],[72.846,20.4596],[72.8463,20.4596],[72.8463,20.4601],[72.8468,20.4601],[72.8468,20.4604],[72.8476,20.4604],[72.8476,20.4607],[72.8479,20.4607],[72.8479,20.461],[72.8485,20.461],[72.8485,20.4612],[72.849,20.4612],[72.849,20.4615],[72.8493,20.4615],[72.8493,20.4618],[72.8499,20.4618],[72.8499,20.4621],[72.8501,20.4621],[72.8501,20.4626],[72.8504,20.4626],[72.8504,20.4629],[72.8512,20.4629],[72.8512,20.4632],[72.8515,20.4632],[72.8515,20.4635],[72.8521,20.4635],[72.8521,20.4632],[72.8524,20.4632],[72.8524,20.4635],[72.8529,20.4635],[72.8529,20.4638],[72.8532,20.4638],[72.8532,20.464],[72.8535,20.464],[72.8535,20.4646],[72.8538,20.4646],[72.8538,20.4649],[72.854,20.4649],[72.854,20.4651],[72.8543,20.4651],[72.8543,20.4657],[72.8551,20.4657],[72.8551,20.466],[72.856,20.466],[72.856,20.4657],[72.8562,20.4657],[72.8562,20.4654],[72.8568,20.4654],[72.8568,20.4651],[72.8571,20.4651],[72.8571,20.4649],[72.8587,20.4649],[72.8587,20.4646],[72.859,20.4646],[72.859,20.4649],[72.8593,20.4649],[72.8593,20.4654],[72.859,20.4654],[72.859,20.4657],[72.8587,20.4657],[72.8587,20.466],[72.8585,20.466],[72.8585,20.4668],[72.8587,20.4668],[72.8587,20.4671],[72.859,20.4671],[72.859,20.4676],[72.8593,20.4676],[72.8593,20.4682],[72.8596,20.4682],[72.8596,20.4688],[72.8599,20.4688],[72.8599,20.4704],[72.8601,20.4704],[72.8601,20.471]]],[[[70.8885,20.7098],[70.8885,20.709],[70.8876,20.709],[70.8876,20.7093],[70.8857,20.7093],[70.8857,20.7096],[70.8854,20.7096],[70.8854,20.7093],[70.8843,20.7093],[70.8843,20.7096],[70.8807,20.7096],[70.8807,20.7093],[70.8768,20.7093],[70.8768,20.709],[70.8746,20.709],[70.8746,20.7093],[70.874,20.7093],[70.874,20.7096],[70.8737,20.7096],[70.8737,20.7098],[70.884,20.7138],[70.8878,20.7111],[70.8885,20.7098]]],[[[70.9485,20.7337],[70.962,20.7292],[70.9626,20.7294],[70.9626,20.729],[70.9624,20.729],[70.9624,20.7285],[70.9621,20.7285],[70.9621,20.7279],[70.9618,20.7279],[70.9618,20.7271],[70.9615,20.7271],[70.9615,20.726],[70.9613,20.726],[70.9613,20.7232],[70.9615,20.7232],[70.9615,20.7226],[70.9618,20.7226],[70.9618,20.7224],[70.9621,20.7224],[70.9621,20.7221],[70.9624,20.7221],[70.9624,20.7218],[70.9629,20.7218],[70.9629,20.7215],[70.9635,20.7215],[70.9635,20.7218],[70.9638,20.7218],[70.9638,20.7215],[70.964,20.7215],[70.964,20.7218],[70.9651,20.7218],[70.9651,20.7221],[70.9654,20.7221],[70.9654,20.7229],[70.9635,20.7229],[70.9635,20.7232],[70.9629,20.7232],[70.9629,20.7235],[70.9626,20.7235],[70.9626,20.7251],[70.9629,20.7251],[70.9629,20.7257],[70.9632,20.7257],[70.9632,20.726],[70.9635,20.726],[70.9635,20.7265],[70.9638,20.7265],[70.9638,20.7268],[70.964,20.7268],[70.964,20.7271],[70.9643,20.7271],[70.9643,20.7274],[70.9646,20.7274],[70.9646,20.7276],[70.9649,20.7276],[70.9649,20.7279],[70.9651,20.7279],[70.9651,20.7282],[70.9654,20.7282],[70.9654,20.7285],[70.9676,20.7285],[70.9676,20.7282],[70.9682,20.7282],[70.9682,20.7279],[70.969,20.7279],[70.969,20.7276],[70.9707,20.7276],[70.9707,20.7271],[70.9718,20.7271],[70.9718,20.7268],[70.9724,20.7268],[70.9724,20.7265],[70.9729,20.7265],[70.9729,20.7262],[70.9737,20.7262],[70.9737,20.726],[70.9746,20.726],[70.9746,20.7257],[70.9754,20.7257],[70.9754,20.7254],[70.9757,20.7254],[70.9757,20.7251],[70.976,20.7251],[70.976,20.7249],[70.9762,20.7249],[70.9762,20.7243],[70.9765,20.7243],[70.9765,20.724],[70.9768,20.724],[70.9768,20.7238],[70.9771,20.7238],[70.9771,20.7232],[70.9774,20.7232],[70.9774,20.7229],[70.9776,20.7229],[70.9776,20.7226],[70.9779,20.7226],[70.9779,20.7224],[70.9782,20.7224],[70.9782,20.7221],[70.9788,20.7221],[70.9788,20.7218],[70.979,20.7218],[70.979,20.7215],[70.9793,20.7215],[70.9793,20.7213],[70.9796,20.7213],[70.9796,20.7207],[70.9799,20.7207],[70.9799,20.7204],[70.9815,20.7204],[70.9815,20.7201],[70.9824,20.7201],[70.9824,20.7199],[70.9835,20.7199],[70.9835,20.7201],[70.986,20.7201],[70.986,20.7199],[70.9863,20.7199],[70.9863,20.7196],[70.9865,20.7196],[70.9865,20.7193],[70.9876,20.7193],[70.9876,20.719],[70.9896,20.719],[70.9896,20.7188],[70.9901,20.7188],[70.9901,20.7185],[70.9907,20.7185],[70.9907,20.7182],[70.991,20.7182],[70.991,20.7179],[70.9912,20.7179],[70.9912,20.7174],[70.9915,20.7174],[70.9915,20.7171],[70.9921,20.7171],[70.9921,20.7168],[70.9932,20.7168],[70.9932,20.7165],[70.994,20.7165],[70.994,20.7162],[70.9971,20.7162],[70.9971,20.716],[70.9974,20.716],[70.9974,20.7157],[70.9976,20.7157],[70.9976,20.7144],[70.9976,20.714],[70.9974,20.714],[70.9974,20.7135],[70.9971,20.7135],[70.9971,20.7132],[70.9968,20.7132],[70.9968,20.7129],[70.9962,20.7129],[70.9962,20.7124],[70.996,20.7124],[70.996,20.7121],[70.9951,20.7121],[70.9951,20.7118],[70.9949,20.7118],[70.9949,20.7113],[70.9946,20.7113],[70.9946,20.711],[70.9943,20.711],[70.9943,20.7107],[70.9935,20.7107],[70.9935,20.7104],[70.9929,20.7104],[70.9929,20.7101],[70.9915,20.7101],[70.9915,20.7099],[70.9904,20.7099],[70.9904,20.7093],[70.9901,20.7093],[70.9901,20.709],[70.9899,20.709],[70.9899,20.7087],[70.9896,20.7087],[70.9896,20.7085],[70.989,20.7085],[70.989,20.7087],[70.9887,20.7087],[70.9887,20.709],[70.9885,20.709],[70.9885,20.7093],[70.9879,20.7093],[70.9879,20.7096],[70.9868,20.7096],[70.9868,20.7093],[70.9857,20.7093],[70.9857,20.709],[70.9851,20.709],[70.9851,20.7085],[70.9849,20.7085],[70.9849,20.7079],[70.9846,20.7079],[70.9846,20.7076],[70.9835,20.7076],[70.9835,20.7074],[70.9821,20.7074],[70.9821,20.7071],[70.9815,20.7071],[70.9815,20.7068],[70.981,20.7068],[70.981,20.7065],[70.9804,20.7065],[70.9804,20.7063],[70.9801,20.7063],[70.9801,20.706],[70.9793,20.706],[70.9793,20.7057],[70.979,20.7057],[70.979,20.7054],[70.9788,20.7054],[70.9788,20.7046],[70.9785,20.7046],[70.9785,20.7043],[70.9782,20.7043],[70.9782,20.704],[70.9779,20.704],[70.9779,20.7038],[70.9776,20.7038],[70.9776,20.7035],[70.9774,20.7035],[70.9774,20.7021],[70.9774,20.7018],[70.9771,20.7018],[70.9771,20.7015],[70.9762,20.7015],[70.9762,20.7018],[70.976,20.7018],[70.976,20.702],[70.976,20.7021],[70.9757,20.7021],[70.9757,20.7029],[70.976,20.7029],[70.976,20.7032],[70.9762,20.7032],[70.9762,20.704],[70.9743,20.704],[70.9743,20.7038],[70.9729,20.7038],[70.9729,20.704],[70.9726,20.704],[70.9726,20.7046],[70.9724,20.7046],[70.9724,20.7043],[70.9721,20.7043],[70.9721,20.704],[70.9715,20.704],[70.9715,20.7043],[70.9707,20.7043],[70.9707,20.7046],[70.9704,20.7046],[70.9704,20.7049],[70.9699,20.7049],[70.9699,20.7054],[70.9701,20.7054],[70.9701,20.7057],[70.9704,20.7057],[70.9704,20.7068],[70.9701,20.7068],[70.9701,20.7071],[70.9674,20.7071],[70.9674,20.7068],[70.9668,20.7068],[70.9668,20.7065],[70.9662,20.7065],[70.9662,20.7063],[70.966,20.7063],[70.966,20.706],[70.9657,20.706],[70.9657,20.7057],[70.9654,20.7057],[70.9654,20.7054],[70.964,20.7054],[70.964,20.7057],[70.9624,20.7057],[70.9624,20.7063],[70.9615,20.7063],[70.9615,20.7065],[70.9604,20.7065],[70.9604,20.7068],[70.9601,20.7068],[70.9601,20.7063],[70.9599,20.7063],[70.9599,20.706],[70.959,20.706],[70.959,20.7057],[70.9579,20.7057],[70.9579,20.7054],[70.9577,20.7054],[70.9576,20.7054],[70.9576,20.7051],[70.9574,20.7051],[70.9574,20.7049],[70.9568,20.7049],[70.9568,20.7046],[70.9563,20.7046],[70.9563,20.7043],[70.956,20.7043],[70.956,20.704],[70.9554,20.704],[70.9554,20.7038],[70.9518,20.7038],[70.9518,20.704],[70.951,20.704],[70.951,20.7043],[70.9504,20.7043],[70.9504,20.7046],[70.9499,20.7046],[70.9499,20.7049],[70.9488,20.7049],[70.9488,20.7051],[70.9476,20.7051],[70.9476,20.7054],[70.946,20.7054],[70.946,20.7057],[70.9437,20.7057],[70.9437,20.706],[70.9432,20.706],[70.9432,20.7063],[70.9424,20.7063],[70.9424,20.7065],[70.9415,20.7065],[70.9415,20.7068],[70.941,20.7068],[70.941,20.7071],[70.9393,20.7071],[70.9393,20.7074],[70.939,20.7074],[70.939,20.7076],[70.9388,20.7076],[70.9388,20.7079],[70.9385,20.7079],[70.9385,20.7082],[70.9379,20.7082],[70.9379,20.709],[70.9376,20.709],[70.9376,20.7093],[70.9374,20.7093],[70.9374,20.7096],[70.9371,20.7096],[70.9371,20.7099],[70.9365,20.7099],[70.9365,20.7101],[70.936,20.7101],[70.936,20.7104],[70.9354,20.7104],[70.9354,20.7107],[70.9346,20.7107],[70.9346,20.711],[70.9329,20.711],[70.9329,20.7113],[70.9318,20.7113],[70.9318,20.7115],[70.9293,20.7115],[70.9293,20.7118],[70.9251,20.7118],[70.9251,20.7115],[70.9235,20.7115],[70.9235,20.7113],[70.9226,20.7113],[70.9226,20.711],[70.9218,20.711],[70.9218,20.7107],[70.9204,20.7107],[70.9204,20.7104],[70.9193,20.7104],[70.9193,20.7101],[70.9187,20.7101],[70.9187,20.7099],[70.9185,20.7099],[70.9185,20.7096],[70.9176,20.7096],[70.9176,20.7093],[70.9174,20.7093],[70.9174,20.7087],[70.9171,20.7087],[70.9171,20.7085],[70.9165,20.7085],[70.9165,20.7082],[70.9163,20.7082],[70.9163,20.7076],[70.916,20.7076],[70.916,20.7065],[70.9157,20.7065],[70.9157,20.7057],[70.9154,20.7057],[70.9154,20.7049],[70.9157,20.7049],[70.9157,20.7035],[70.916,20.7035],[70.916,20.7026],[70.9163,20.7027],[70.9163,20.7024],[70.9182,20.7024],[70.9182,20.7021],[70.9179,20.7021],[70.9179,20.7015],[70.9171,20.7015],[70.9171,20.7012],[70.9165,20.7012],[70.9165,20.701],[70.9157,20.701],[70.9157,20.7007],[70.9154,20.7007],[70.9154,20.7004],[70.9151,20.7004],[70.9151,20.7001],[70.9149,20.7001],[70.9149,20.6999],[70.9143,20.6999],[70.9143,20.6996],[70.914,20.6996],[70.914,20.699],[70.9126,20.699],[70.9126,20.6993],[70.9118,20.6993],[70.9118,20.7004],[70.9115,20.7004],[70.9115,20.7015],[70.9115,20.7018],[70.9106,20.7018],[70.9101,20.7018],[70.9101,20.7015],[70.9099,20.7015],[70.9099,20.701],[70.9093,20.701],[70.9093,20.7007],[70.9076,20.7007],[70.9076,20.7004],[70.9074,20.7004],[70.9074,20.7007],[70.9063,20.7007],[70.9063,20.7004],[70.9051,20.7004],[70.9051,20.7001],[70.9035,20.7001],[70.9035,20.6999],[70.9026,20.6999],[70.9026,20.6996],[70.9015,20.6996],[70.9015,20.6993],[70.9013,20.6993],[70.9013,20.699],[70.9001,20.699],[70.9001,20.6987],[70.8993,20.6987],[70.8993,20.699],[70.899,20.699],[70.899,20.6993],[70.8988,20.6993],[70.8988,20.6996],[70.8985,20.6996],[70.8985,20.6999],[70.8979,20.6999],[70.8979,20.7001],[70.8974,20.7001],[70.8974,20.7004],[70.8971,20.7004],[70.8971,20.701],[70.8974,20.701],[70.8974,20.7012],[70.8976,20.7012],[70.8976,20.7021],[70.8979,20.7021],[70.8979,20.7038],[70.8976,20.7038],[70.8976,20.7043],[70.8974,20.7043],[70.8974,20.7049],[70.8965,20.7049],[70.8965,20.7051],[70.8962,20.7051],[70.8962,20.7057],[70.896,20.7057],[70.896,20.706],[70.8958,20.706],[70.8954,20.706],[70.8954,20.7063],[70.8951,20.7063],[70.8951,20.7065],[70.8949,20.7065],[70.8949,20.7068],[70.8946,20.7068],[70.8946,20.7071],[70.8943,20.7071],[70.8943,20.7074],[70.8938,20.7074],[70.8938,20.7076],[70.8929,20.7076],[70.8929,20.7079],[70.8921,20.7079],[70.8921,20.7082],[70.893,20.713],[70.8969,20.72],[70.8997,20.7239],[70.9049,20.7265],[70.9209,20.7289],[70.9297,20.7319],[70.934,20.736],[70.9389,20.7365],[70.9485,20.7337]]],[[[70.768,20.962],[70.771,20.9609],[70.773,20.9612],[70.7768,20.9685],[70.7793,20.967],[70.7838,20.9622],[70.7892,20.9599],[70.7935,20.9594],[70.8033,20.9602],[70.8079,20.9644],[70.8166,20.96],[70.8215,20.9597],[70.825,20.9604],[70.8276,20.9653],[70.8328,20.9685],[70.8383,20.9701],[70.846,20.9706],[70.8494,20.9668],[70.8513,20.9631],[70.855,20.9613],[70.8621,20.9608],[70.8691,20.9571],[70.8802,20.9554],[70.887,20.9452],[70.8897,20.9359],[70.8924,20.93],[70.9016,20.9033],[70.9028,20.8972],[70.9002,20.8857],[70.8971,20.8822],[70.8843,20.8732],[70.8751,20.8689],[70.8652,20.8654],[70.8464,20.8606],[70.8405,20.8578],[70.8258,20.8589],[70.8197,20.8577],[70.817,20.8512],[70.8202,20.8492],[70.829,20.8489],[70.8362,20.8478],[70.8381,20.8443],[70.8379,20.8366],[70.8417,20.8324],[70.8503,20.8315],[70.873,20.835],[70.8833,20.8353],[70.8906,20.8329],[70.8962,20.8248],[70.8972,20.8162],[70.896,20.8044],[70.8939,20.7947],[70.883,20.7928],[70.8765,20.7888],[70.8674,20.795],[70.8649,20.79],[70.8629,20.7818],[70.8645,20.7735],[70.8672,20.7695],[70.8673,20.7646],[70.8637,20.7637],[70.849,20.7656],[70.8462,20.7649],[70.8448,20.7641],[70.8436,20.7604],[70.8544,20.7537],[70.8544,20.7535],[70.8538,20.7535],[70.8538,20.7538],[70.8535,20.7538],[70.8535,20.754],[70.8529,20.754],[70.8529,20.7532],[70.8532,20.7532],[70.8532,20.7529],[70.8535,20.7529],[70.8535,20.7526],[70.8538,20.7526],[70.8538,20.7524],[70.8543,20.7524],[70.8543,20.7521],[70.8546,20.7521],[70.8547,20.7513],[70.8543,20.75],[70.851,20.7445],[70.8401,20.7303],[70.8403,20.7285],[70.8446,20.7263],[70.8451,20.7248],[70.8452,20.7235],[70.8466,20.7229],[70.8498,20.7239],[70.8553,20.7249],[70.8588,20.7238],[70.8615,20.7236],[70.8616,20.7246],[70.8619,20.7255],[70.8653,20.727],[70.8663,20.7259],[70.8669,20.7217],[70.8704,20.7187],[70.8704,20.7154],[70.8701,20.7154],[70.8701,20.7149],[70.8693,20.7149],[70.8693,20.7146],[70.8688,20.7146],[70.8688,20.714],[70.8685,20.714],[70.8685,20.7138],[70.8682,20.7138],[70.8682,20.7132],[70.8679,20.7132],[70.8679,20.7126],[70.8685,20.7126],[70.8685,20.7115],[70.869,20.7115],[70.869,20.7113],[70.8688,20.7113],[70.8688,20.7107],[70.869,20.7107],[70.869,20.7087],[70.8688,20.7087],[70.8688,20.7074],[70.869,20.7074],[70.869,20.7063],[70.8693,20.7063],[70.8693,20.706],[70.8721,20.706],[70.8721,20.7057],[70.8737,20.7057],[70.8737,20.7054],[70.874,20.7054],[70.874,20.7051],[70.874,20.7049],[70.8737,20.7049],[70.8737,20.7046],[70.8729,20.7046],[70.8729,20.7043],[70.8726,20.7043],[70.8726,20.704],[70.8701,20.704],[70.8701,20.7038],[70.8679,20.7038],[70.8679,20.704],[70.8671,20.704],[70.8671,20.7043],[70.8665,20.7043],[70.8665,20.7046],[70.8662,20.7046],[70.8662,20.7049],[70.8654,20.7049],[70.8654,20.7051],[70.8649,20.7051],[70.8649,20.7054],[70.8637,20.7054],[70.8637,20.7057],[70.8615,20.7057],[70.8615,20.706],[70.8587,20.706],[70.8587,20.7063],[70.8582,20.7063],[70.8582,20.7065],[70.8574,20.7065],[70.8574,20.7068],[70.8568,20.7068],[70.8568,20.7071],[70.8565,20.7071],[70.8565,20.7076],[70.8562,20.7076],[70.8562,20.7079],[70.8549,20.7079],[70.8549,20.7082],[70.8512,20.7082],[70.8512,20.7079],[70.8496,20.7079],[70.8496,20.7076],[70.8474,20.7076],[70.8474,20.7074],[70.8449,20.7074],[70.8449,20.7071],[70.8446,20.7071],[70.8446,20.7068],[70.8435,20.7068],[70.8435,20.7065],[70.8429,20.7065],[70.8429,20.7063],[70.8421,20.7063],[70.8421,20.706],[70.8412,20.706],[70.8412,20.7057],[70.841,20.7057],[70.841,20.7054],[70.8404,20.7054],[70.8404,20.7051],[70.8396,20.7051],[70.8396,20.7049],[70.839,20.7049],[70.839,20.7046],[70.8388,20.7046],[70.8388,20.7043],[70.8385,20.7043],[70.8385,20.704],[70.8382,20.704],[70.8382,20.7038],[70.8379,20.7038],[70.8379,20.7035],[70.8376,20.7035],[70.8376,20.7032],[70.8368,20.7032],[70.8368,20.7029],[70.8365,20.7029],[70.8365,20.7027],[70.8363,20.7027],[70.8363,20.7021],[70.836,20.7021],[70.836,20.7015],[70.8357,20.7015],[70.8357,20.7012],[70.8354,20.7012],[70.8354,20.701],[70.8351,20.701],[70.8351,20.7007],[70.8349,20.7007],[70.8349,20.7001],[70.8346,20.7001],[70.8346,20.6996],[70.8343,20.6996],[70.8343,20.6993],[70.834,20.6993],[70.834,20.6987],[70.8343,20.6987],[70.8343,20.6976],[70.8346,20.6976],[70.8346,20.6973],[70.8346,20.6965],[70.8349,20.6965],[70.8349,20.6963],[70.8354,20.6963],[70.8354,20.6946],[70.8357,20.6946],[70.8357,20.694],[70.836,20.694],[70.836,20.6932],[70.8368,20.6932],[70.8368,20.6929],[70.8379,20.6929],[70.8379,20.6926],[70.8382,20.6926],[70.8382,20.6918],[70.8385,20.6918],[70.8385,20.6904],[70.8382,20.6904],[70.8382,20.6901],[70.8371,20.6901],[70.8371,20.6904],[70.8365,20.6904],[70.8365,20.6901],[70.8363,20.6901],[70.8363,20.6903],[70.8363,20.6904],[70.836,20.6904],[70.836,20.6913],[70.8349,20.6913],[70.8349,20.691],[70.8335,20.691],[70.8335,20.6907],[70.8318,20.6907],[70.8318,20.691],[70.8299,20.691],[70.8299,20.6907],[70.8296,20.6907],[70.8296,20.6904],[70.829,20.6904],[70.829,20.6901],[70.8276,20.6901],[70.8276,20.6904],[70.826,20.6904],[70.826,20.6907],[70.8254,20.6907],[70.8254,20.691],[70.8249,20.691],[70.8249,20.6913],[70.8238,20.6913],[70.8238,20.691],[70.8224,20.691],[70.8224,20.6913],[70.8218,20.6913],[70.8218,20.6915],[70.8215,20.6915],[70.8215,20.6924],[70.8218,20.6924],[70.8218,20.6932],[70.8215,20.6932],[70.8215,20.6938],[70.8201,20.6938],[70.8201,20.694],[70.8196,20.694],[70.8196,20.6938],[70.819,20.6938],[70.819,20.694],[70.8187,20.694],[70.8187,20.6943],[70.8185,20.6943],[70.8185,20.6946],[70.8182,20.6946],[70.8182,20.6949],[70.8176,20.6949],[70.8176,20.6951],[70.8174,20.6951],[70.8174,20.6954],[70.8171,20.6954],[70.8171,20.6963],[70.8168,20.6963],[70.8168,20.6965],[70.8165,20.6965],[70.8165,20.6968],[70.816,20.6968],[70.816,20.6971],[70.8154,20.6971],[70.8154,20.6974],[70.8151,20.6974],[70.8151,20.6976],[70.8149,20.6976],[70.8149,20.6979],[70.8143,20.6979],[70.8143,20.6982],[70.814,20.6982],[70.814,20.6985],[70.8138,20.6985],[70.8138,20.6987],[70.8129,20.6987],[70.8129,20.699],[70.8126,20.699],[70.8126,20.6993],[70.8124,20.6993],[70.8124,20.6996],[70.8121,20.6996],[70.8121,20.6999],[70.8112,20.6999],[70.8112,20.7001],[70.8093,20.7001],[70.8093,20.6999],[70.809,20.6999],[70.809,20.6996],[70.8085,20.6996],[70.8085,20.6999],[70.8076,20.6999],[70.8076,20.7001],[70.8074,20.7001],[70.8074,20.7007],[70.8076,20.7007],[70.8076,20.701],[70.8101,20.701],[70.8101,20.7012],[70.8107,20.7012],[70.8107,20.7015],[70.8112,20.7015],[70.8112,20.7012],[70.8124,20.7012],[70.8124,20.7015],[70.8149,20.7015],[70.8151,20.7015],[70.8151,20.7018],[70.8157,20.7018],[70.8157,20.7015],[70.8174,20.7015],[70.8174,20.7018],[70.8201,20.7018],[70.8201,20.7015],[70.8204,20.7015],[70.8204,20.7012],[70.8207,20.7012],[70.8207,20.6999],[70.8204,20.6999],[70.8204,20.6996],[70.8201,20.6996],[70.8201,20.6993],[70.8196,20.6993],[70.8196,20.699],[70.8193,20.699],[70.8193,20.6982],[70.8204,20.6982],[70.8204,20.6985],[70.824,20.6985],[70.824,20.6982],[70.8251,20.6982],[70.8251,20.6979],[70.8254,20.6979],[70.8254,20.6976],[70.826,20.6976],[70.826,20.6974],[70.8274,20.6974],[70.8274,20.6979],[70.8276,20.6979],[70.8276,20.6987],[70.8271,20.6987],[70.8271,20.7015],[70.8274,20.7015],[70.8274,20.7018],[70.8276,20.7018],[70.8276,20.7027],[70.8279,20.7027],[70.8279,20.7043],[70.8282,20.7043],[70.8282,20.7071],[70.8285,20.7071],[70.8285,20.7085],[70.8288,20.7085],[70.8288,20.7093],[70.8282,20.7093],[70.8282,20.7096],[70.8279,20.7096],[70.8279,20.7101],[70.8276,20.7101],[70.8276,20.7104],[70.8279,20.7104],[70.8279,20.711],[70.8276,20.711],[70.8276,20.7113],[70.8274,20.7113],[70.8274,20.7115],[70.8271,20.7115],[70.8271,20.7121],[70.8268,20.7121],[70.8268,20.7124],[70.824,20.7124],[70.824,20.7126],[70.8238,20.7126],[70.8238,20.7129],[70.8235,20.7129],[70.8235,20.7132],[70.8213,20.7132],[70.8213,20.7135],[70.8204,20.7135],[70.8204,20.7138],[70.8196,20.7138],[70.8196,20.714],[70.819,20.714],[70.819,20.7143],[70.8179,20.7143],[70.8179,20.7146],[70.8171,20.7146],[70.8171,20.7149],[70.8154,20.7149],[70.8154,20.7151],[70.8151,20.7151],[70.8151,20.7154],[70.8154,20.7154],[70.8154,20.7157],[70.8157,20.7157],[70.8157,20.716],[70.816,20.716],[70.816,20.7165],[70.8163,20.7165],[70.8163,20.7171],[70.8165,20.7171],[70.8165,20.7174],[70.8168,20.7174],[70.8168,20.7185],[70.8165,20.7185],[70.8165,20.719],[70.8157,20.719],[70.8157,20.7193],[70.8149,20.7193],[70.8149,20.719],[70.814,20.719],[70.814,20.7188],[70.8135,20.7188],[70.8135,20.7185],[70.8133,20.7185],[70.8132,20.7185],[70.8132,20.7182],[70.8129,20.7182],[70.8129,20.7176],[70.8126,20.7176],[70.8126,20.7171],[70.8129,20.7171],[70.8129,20.7162],[70.8132,20.7162],[70.8132,20.716],[70.8135,20.716],[70.8135,20.7151],[70.8132,20.7151],[70.8132,20.7149],[70.811,20.7149],[70.811,20.7146],[70.8107,20.7146],[70.8107,20.7143],[70.8104,20.7143],[70.8104,20.7138],[70.8101,20.7138],[70.8101,20.7118],[70.8099,20.7118],[70.8099,20.711],[70.8096,20.711],[70.8096,20.7107],[70.8093,20.7107],[70.8093,20.7104],[70.809,20.7104],[70.809,20.7101],[70.8087,20.7101],[70.8087,20.7104],[70.8085,20.7104],[70.8085,20.7107],[70.8065,20.7107],[70.8065,20.7104],[70.806,20.7104],[70.806,20.7087],[70.8063,20.7087],[70.8063,20.7085],[70.8065,20.7085],[70.8065,20.7082],[70.806,20.7082],[70.806,20.7074],[70.8057,20.7074],[70.8057,20.7065],[70.806,20.7065],[70.806,20.7063],[70.8063,20.7063],[70.8063,20.706],[70.8065,20.706],[70.8065,20.7058],[70.8065,20.7057],[70.8067,20.7057],[70.8074,20.7057],[70.8074,20.7054],[70.8082,20.7054],[70.8082,20.7051],[70.8085,20.7051],[70.8085,20.7049],[70.8101,20.7049],[70.8101,20.7046],[70.8107,20.7046],[70.8107,20.7043],[70.811,20.7043],[70.811,20.7038],[70.8107,20.7038],[70.8107,20.7035],[70.8101,20.7035],[70.8101,20.7032],[70.8096,20.7032],[70.8096,20.7029],[70.8093,20.7029],[70.8093,20.7027],[70.809,20.7027],[70.809,20.7024],[70.8079,20.7024],[70.8079,20.7018],[70.8071,20.7018],[70.8071,20.7021],[70.8063,20.7021],[70.8063,20.7024],[70.8054,20.7024],[70.8054,20.7021],[70.8046,20.7021],[70.8046,20.7007],[70.8037,20.7007],[70.8037,20.701],[70.8035,20.701],[70.8035,20.7012],[70.8032,20.7012],[70.8032,20.7015],[70.8029,20.7015],[70.8029,20.7018],[70.8024,20.7018],[70.8024,20.7021],[70.8018,20.7021],[70.8018,20.7024],[70.8012,20.7024],[70.8012,20.7029],[70.801,20.7029],[70.801,20.7032],[70.8007,20.7032],[70.8007,20.7035],[70.8004,20.7035],[70.8004,20.7038],[70.7999,20.7038],[70.7999,20.704],[70.7993,20.704],[70.7993,20.7043],[70.799,20.7043],[70.799,20.7046],[70.7988,20.7046],[70.7988,20.7049],[70.7985,20.7049],[70.7985,20.7051],[70.7979,20.7051],[70.7979,20.7054],[70.7976,20.7054],[70.7976,20.7057],[70.7974,20.7057],[70.7974,20.706],[70.7971,20.706],[70.7971,20.7063],[70.7968,20.7063],[70.7968,20.7065],[70.7965,20.7065],[70.7965,20.7068],[70.7962,20.7068],[70.7962,20.7071],[70.796,20.7071],[70.796,20.7074],[70.7957,20.7074],[70.7957,20.7079],[70.7954,20.7079],[70.7954,20.7082],[70.7951,20.7082],[70.7951,20.709],[70.7949,20.709],[70.7949,20.7093],[70.7946,20.7093],[70.7946,20.7096],[70.7943,20.7096],[70.7943,20.7099],[70.794,20.7099],[70.794,20.7104],[70.7937,20.7104],[70.7937,20.711],[70.7935,20.711],[70.7935,20.7113],[70.7932,20.7113],[70.7932,20.7115],[70.7929,20.7115],[70.7929,20.7118],[70.7926,20.7118],[70.7926,20.7121],[70.7921,20.7121],[70.7921,20.7124],[70.792,20.7124],[70.7907,20.7124],[70.7907,20.7126],[70.7885,20.7126],[70.7885,20.7129],[70.7862,20.7129],[70.7862,20.7132],[70.786,20.7132],[70.786,20.7138],[70.7857,20.7138],[70.7857,20.714],[70.7856,20.714],[70.7843,20.714],[70.7843,20.7138],[70.7835,20.7138],[70.7835,20.714],[70.7829,20.714],[70.7829,20.7143],[70.7824,20.7143],[70.7824,20.7146],[70.7799,20.7146],[70.7799,20.7149],[70.7793,20.7149],[70.7793,20.7151],[70.7785,20.7151],[70.7785,20.7154],[70.7779,20.7154],[70.7779,20.7157],[70.7774,20.7157],[70.7774,20.7158],[70.7774,20.716],[70.7765,20.716],[70.7765,20.7162],[70.7763,20.7162],[70.7763,20.7165],[70.7738,20.7165],[70.7738,20.7168],[70.7732,20.7168],[70.7732,20.7171],[70.7726,20.7171],[70.7726,20.7174],[70.7724,20.7174],[70.7724,20.7176],[70.7718,20.7176],[70.7718,20.7179],[70.7715,20.7179],[70.7715,20.7182],[70.7712,20.7182],[70.7712,20.7185],[70.7707,20.7185],[70.7707,20.7188],[70.7696,20.7188],[70.7696,20.719],[70.769,20.719],[70.769,20.7193],[70.7688,20.7193],[70.7688,20.7196],[70.7685,20.7196],[70.7685,20.7199],[70.7682,20.7199],[70.7682,20.7201],[70.7676,20.7201],[70.7676,20.7204],[70.7674,20.7204],[70.7674,20.7207],[70.7665,20.7207],[70.7665,20.721],[70.7663,20.721],[70.7663,20.7213],[70.7649,20.7213],[70.7649,20.7215],[70.7621,20.7215],[70.7621,20.7218],[70.761,20.7218],[70.761,20.7221],[70.7607,20.7221],[70.7607,20.7218],[70.7604,20.7218],[70.7604,20.7221],[70.7593,20.7221],[70.7593,20.7224],[70.7585,20.7224],[70.7585,20.7226],[70.7565,20.7226],[70.7565,20.7224],[70.7554,20.7224],[70.7554,20.7221],[70.7551,20.7221],[70.7551,20.7218],[70.7549,20.7218],[70.7549,20.7215],[70.7535,20.7215],[70.7535,20.7213],[70.7526,20.7213],[70.7526,20.721],[70.7524,20.721],[70.7524,20.7207],[70.7518,20.7207],[70.7518,20.7204],[70.7504,20.7204],[70.7504,20.7201],[70.7499,20.7201],[70.7499,20.7199],[70.7496,20.7199],[70.7496,20.7196],[70.7493,20.7196],[70.7493,20.7193],[70.7471,20.7193],[70.7471,20.7196],[70.7468,20.7196],[70.7468,20.7199],[70.7465,20.7199],[70.7465,20.7201],[70.7451,20.7201],[70.7451,20.7199],[70.7449,20.7199],[70.7449,20.7201],[70.7443,20.7201],[70.7443,20.7199],[70.7438,20.7199],[70.7438,20.7201],[70.7435,20.7201],[70.7435,20.7204],[70.7432,20.7204],[70.7432,20.7207],[70.7424,20.7207],[70.7424,20.721],[70.7421,20.721],[70.7421,20.7213],[70.7418,20.7213],[70.7418,20.7215],[70.741,20.7215],[70.741,20.7218],[70.7401,20.7218],[70.7401,20.7221],[70.7399,20.7221],[70.7399,20.7224],[70.7393,20.7224],[70.7393,20.7226],[70.7385,20.7226],[70.7385,20.7229],[70.7379,20.7229],[70.7379,20.7232],[70.7374,20.7232],[70.7374,20.7235],[70.7368,20.7235],[70.7368,20.7238],[70.7363,20.7238],[70.7363,20.724],[70.7354,20.724],[70.7354,20.7243],[70.7351,20.7243],[70.7351,20.7249],[70.7349,20.7249],[70.7349,20.7251],[70.7343,20.7251],[70.7343,20.7254],[70.734,20.7254],[70.734,20.7257],[70.7337,20.7257],[70.7337,20.726],[70.7335,20.726],[70.7335,20.7262],[70.7332,20.7262],[70.7332,20.7265],[70.7329,20.7265],[70.7329,20.7268],[70.7324,20.7268],[70.7324,20.7271],[70.7318,20.7271],[70.7318,20.7274],[70.7315,20.7274],[70.7315,20.7276],[70.731,20.7276],[70.731,20.7279],[70.7307,20.7279],[70.7307,20.7282],[70.7301,20.7282],[70.7301,20.7285],[70.7288,20.7285],[70.7288,20.7287],[70.7285,20.7287],[70.7285,20.7285],[70.7282,20.7285],[70.7282,20.7287],[70.7274,20.7287],[70.7274,20.729],[70.7268,20.729],[70.7268,20.7293],[70.7262,20.7293],[70.7262,20.7296],[70.7246,20.7296],[70.7246,20.7299],[70.724,20.7299],[70.724,20.7301],[70.7235,20.7301],[70.7235,20.7304],[70.7232,20.7304],[70.7232,20.7307],[70.7226,20.7307],[70.7226,20.731],[70.7221,20.731],[70.7221,20.7313],[70.7218,20.7313],[70.7218,20.7315],[70.721,20.7315],[70.721,20.7318],[70.7199,20.7318],[70.7199,20.7321],[70.7196,20.7321],[70.7196,20.7324],[70.719,20.7324],[70.719,20.7326],[70.7185,20.7326],[70.7185,20.7329],[70.7179,20.7329],[70.7179,20.7332],[70.7174,20.7332],[70.7174,20.7335],[70.7168,20.7335],[70.7168,20.7337],[70.7162,20.7337],[70.7162,20.734],[70.7157,20.734],[70.7157,20.7343],[70.7149,20.7343],[70.7149,20.7346],[70.7143,20.7346],[70.7143,20.7349],[70.714,20.7349],[70.714,20.7351],[70.7135,20.7351],[70.7135,20.7354],[70.7132,20.7354],[70.7132,20.7357],[70.7129,20.7357],[70.7129,20.736],[70.7121,20.736],[70.7121,20.7362],[70.7113,20.7362],[70.7113,20.7365],[70.711,20.7365],[70.711,20.7368],[70.7101,20.7368],[70.7101,20.7371],[70.7096,20.7371],[70.7096,20.7374],[70.7093,20.7374],[70.7093,20.7376],[70.7082,20.7376],[70.7082,20.7379],[70.7071,20.7379],[70.7071,20.7382],[70.7051,20.7382],[70.7051,20.7379],[70.7035,20.7379],[70.7035,20.7382],[70.7032,20.7382],[70.7032,20.7388],[70.7026,20.7388],[70.7026,20.739],[70.7024,20.739],[70.7024,20.7393],[70.7021,20.7393],[70.7021,20.7396],[70.7018,20.7396],[70.7018,20.7401],[70.7012,20.7401],[70.7012,20.7404],[70.701,20.7404],[70.701,20.7407],[70.7007,20.7407],[70.7007,20.7412],[70.7001,20.7412],[70.7001,20.7415],[70.6996,20.7415],[70.6996,20.7418],[70.6993,20.7418],[70.6993,20.7421],[70.699,20.7421],[70.699,20.7424],[70.6988,20.7424],[70.6988,20.7426],[70.6982,20.7426],[70.6982,20.7429],[70.6979,20.7429],[70.6979,20.7432],[70.6976,20.7432],[70.6976,20.7435],[70.6974,20.7435],[70.6974,20.7438],[70.6968,20.7438],[70.6968,20.744],[70.6963,20.744],[70.6963,20.7443],[70.696,20.7443],[70.696,20.7449],[70.6957,20.7449],[70.6957,20.7451],[70.6951,20.7451],[70.6951,20.7454],[70.6946,20.7454],[70.6946,20.7457],[70.694,20.7457],[70.694,20.746],[70.6935,20.746],[70.6935,20.7463],[70.6932,20.7463],[70.6932,20.7465],[70.6929,20.7465],[70.6929,20.7468],[70.6924,20.7468],[70.6924,20.7471],[70.6915,20.7471],[70.6915,20.7474],[70.691,20.7474],[70.691,20.7476],[70.6893,20.7476],[70.6893,20.7479],[70.6885,20.7479],[70.6885,20.7482],[70.6879,20.7482],[70.6879,20.7485],[70.6874,20.7485],[70.6874,20.7488],[70.6868,20.7488],[70.6868,20.749],[70.6862,20.749],[70.6862,20.7493],[70.686,20.7493],[70.686,20.7496],[70.6857,20.7496],[70.6857,20.7499],[70.6851,20.7499],[70.6851,20.7501],[70.6849,20.7501],[70.6849,20.7504],[70.6843,20.7504],[70.6843,20.7507],[70.684,20.7507],[70.684,20.751],[70.6835,20.751],[70.6835,20.7513],[70.6832,20.7513],[70.6832,20.7515],[70.6829,20.7515],[70.6829,20.7518],[70.6824,20.7518],[70.6824,20.7521],[70.6821,20.7521],[70.6821,20.7526],[70.6818,20.7526],[70.6818,20.7529],[70.6815,20.7529],[70.6815,20.7532],[70.6813,20.7532],[70.6813,20.7534],[70.6813,20.7535],[70.681,20.7535],[70.681,20.7538],[70.6807,20.7538],[70.6807,20.754],[70.6804,20.754],[70.6804,20.7543],[70.6801,20.7543],[70.6801,20.7546],[70.679,20.7546],[70.679,20.7549],[70.6782,20.7549],[70.6782,20.7551],[70.6776,20.7551],[70.6776,20.7554],[70.6774,20.7554],[70.6774,20.7557],[70.6771,20.7557],[70.6771,20.756],[70.6768,20.756],[70.6768,20.7562],[70.6765,20.7562],[70.6765,20.7565],[70.6762,20.7565],[70.6762,20.7568],[70.6754,20.7568],[70.6754,20.7571],[70.6751,20.7571],[70.6751,20.7574],[70.6746,20.7574],[70.6746,20.7576],[70.6743,20.7576],[70.6743,20.7582],[70.674,20.7582],[70.674,20.7593],[70.6743,20.7593],[70.6743,20.7599],[70.674,20.7599],[70.674,20.7601],[70.6738,20.7601],[70.6738,20.761],[70.6735,20.761],[70.6735,20.7618],[70.6738,20.7618],[70.6738,20.7635],[70.676,20.7633],[70.6776,20.7648],[70.6784,20.7664],[70.6768,20.7686],[70.6752,20.7705],[70.6769,20.7715],[70.683,20.7841],[70.6848,20.7918],[70.682,20.8011],[70.6776,20.8094],[70.6763,20.8188],[70.6783,20.8263],[70.6774,20.8352],[70.679,20.844],[70.6845,20.851],[70.6942,20.883],[70.7027,20.895],[70.7132,20.9056],[70.7176,20.9121],[70.7176,20.916],[70.7194,20.937],[70.7219,20.9442],[70.7307,20.9601],[70.7386,20.9687],[70.7405,20.974],[70.7404,20.9768],[70.7345,20.986],[70.7338,20.9884],[70.7355,20.9898],[70.7417,20.9901],[70.7465,20.989],[70.7555,20.9738],[70.7623,20.9656],[70.768,20.962]]]]}}]}