{"type":"FeatureCollection","name":"Goa","crs":{"type":"name","properties":{"name":"urn:ogc:def:crs:OGC:1.3:CRS84"}},"features":[{"type":"Feature","properties":{"ID_0":105,"ISO":"IND","NAME_0":"India","ID_1":11,"NAME_1":"Goa","TYPE_1":"State","ENGTYPE_1":"State","NL_NAME_1":null,"VARNAME_1":"Gôa"},"geometry":{"type":"MultiPolygon","coordinates":[[[[73.7818,15.3557],[73.7818,15.3554],[73.7824,15.3554],[73.7824,15.3551],[73.7829,15.3551],[73.7829,15.3549],[73.7832,15.3549],[73.7832,15.3546],[73.7835,15.3546],[73.7835,15.3543],[73.7838,15.3543],[73.7838,15.354],[73.784,15.354],[73.784,15.3538],[73.7843,15.3538],[73.7843,15.3535],[73.7846,15.3535],[73.7846,15.3524],[73.7849,15.3524],[73.7849,15.3515],[73.7846,15.3515],[73.7846,15.3512],[73.7843,15.3512],[73.7843,15.351],[73.7838,15.351],[73.7838,15.3507],[73.7835,15.3507],[73.7835,15.3504],[73.7832,15.3504],[73.7832,15.3496],[73.7829,15.3496],[73.7829,15.3493],[73.7832,15.3493],[73.7832,15.349],[73.7829,15.349],[73.7829,15.3488],[73.7821,15.3488],[73.7821,15.3485],[73.7813,15.3485],[73.7813,15.3488],[73.7801,15.3488],[73.7801,15.349],[73.7799,15.349],[73.7799,15.3499],[73.7801,15.3499],[73.7801,15.3504],[73.7799,15.3504],[73.7799,15.3507],[73.7796,15.3507],[73.7796,15.351],[73.7785,15.351],[73.7785,15.3507],[73.7776,15.3507],[73.7776,15.3504],[73.7771,15.3504],[73.7771,15.3501],[73.7763,15.3501],[73.7763,15.3499],[73.776,15.3499],[73.776,15.3501],[73.7738,15.3501],[73.7738,15.3504],[73.7732,15.3504],[73.7732,15.3501],[73.7724,15.3501],[73.7724,15.3499],[73.7715,15.3499],[73.7715,15.3501],[73.771,15.3501],[73.771,15.3504],[73.7701,15.3504],[73.7701,15.3507],[73.7696,15.3507],[73.7696,15.351],[73.7688,15.351],[73.7688,15.3512],[73.7676,15.3512],[73.7676,15.351],[73.7674,15.351],[73.7674,15.3507],[73.7671,15.3507],[73.7671,15.3504],[73.7665,15.3504],[73.7665,15.3501],[73.766,15.3501],[73.766,15.3499],[73.7649,15.3499],[73.7649,15.3501],[73.7643,15.3501],[73.7643,15.3504],[73.7632,15.3504],[73.7632,15.3507],[73.7626,15.3507],[73.7626,15.351],[73.7624,15.351],[73.7624,15.3512],[73.7618,15.3512],[73.7618,15.3515],[73.7613,15.3515],[73.7613,15.3518],[73.761,15.3518],[73.761,15.3521],[73.7607,15.3521],[73.7607,15.354],[73.761,15.354],[73.761,15.3543],[73.7613,15.3543],[73.7613,15.3546],[73.7618,15.3546],[73.7618,15.3549],[73.7621,15.3549],[73.7621,15.3551],[73.7629,15.3551],[73.7629,15.3549],[73.7635,15.3549],[73.7635,15.3546],[73.764,15.3546],[73.764,15.3543],[73.7643,15.3543],[73.7643,15.354],[73.7646,15.354],[73.7646,15.3538],[73.7649,15.3538],[73.7649,15.3535],[73.7651,15.3535],[73.7651,15.3532],[73.7654,15.3532],[73.7654,15.3526],[73.7657,15.3526],[73.7657,15.3524],[73.7668,15.3524],[73.7668,15.3526],[73.7679,15.3526],[73.7679,15.3529],[73.7696,15.3529],[73.7696,15.3526],[73.7699,15.3526],[73.7699,15.3529],[73.7712,15.3529],[73.7712,15.3532],[73.7721,15.3532],[73.7721,15.3535],[73.7729,15.3535],[73.7729,15.3538],[73.774,15.3538],[73.774,15.354],[73.7746,15.354],[73.7746,15.3543],[73.7774,15.3543],[73.7774,15.3546],[73.7779,15.3546],[73.7779,15.3549],[73.7787,15.3549],[73.7787,15.3551],[73.7793,15.3551],[73.7793,15.3554],[73.7799,15.3554],[73.7799,15.3557],[73.7818,15.3557]]],[[[73.7965,15.379],[73.7965,15.3788],[73.7974,15.3788],[73.7974,15.3785],[73.7985,15.3785],[73.7985,15.3782],[73.7993,15.3782],[73.7993,15.3776],[73.799,15.3776],[73.799,15.3757],[73.7988,15.3757],[73.7988,15.3743],[73.7985,15.3743],[73.7985,15.374],[73.7982,15.374],[73.7982,15.3738],[73.7979,15.3738],[73.7979,15.3735],[73.7976,15.3735],[73.7976,15.3732],[73.7974,15.3732],[73.7974,15.3726],[73.7965,15.3726],[73.7965,15.3724],[73.7962,15.3724],[73.7962,15.3726],[73.7957,15.3726],[73.7957,15.3729],[73.7951,15.3729],[73.7951,15.3732],[73.7949,15.3732],[73.7949,15.3735],[73.7946,15.3735],[73.7946,15.3738],[73.7943,15.3738],[73.7943,15.374],[73.794,15.374],[73.794,15.3743],[73.7937,15.3743],[73.7937,15.3746],[73.7929,15.3746],[73.7929,15.3751],[73.7926,15.3751],[73.7926,15.3768],[73.7929,15.3768],[73.7929,15.3776],[73.7932,15.3776],[73.7932,15.3782],[73.7935,15.3782],[73.7935,15.3785],[73.794,15.3785],[73.794,15.3788],[73.7946,15.3788],[73.7946,15.379],[73.7965,15.379]]],[[[73.8643,15.4085],[73.8643,15.4082],[73.8654,15.4082],[73.8654,15.4074],[73.8657,15.4074],[73.8657,15.4065],[73.8654,15.4065],[73.8654,15.4043],[73.8651,15.4043],[73.8651,15.404],[73.8654,15.404],[73.8654,15.4037],[73.8651,15.4037],[73.8651,15.4035],[73.8632,15.4035],[73.8632,15.4032],[73.8626,15.4032],[73.8626,15.4035],[73.8624,15.4035],[73.8624,15.4037],[73.8621,15.4037],[73.8621,15.4043],[73.8618,15.4043],[73.8618,15.4046],[73.8615,15.4046],[73.8615,15.4051],[73.8613,15.4051],[73.8613,15.406],[73.8615,15.406],[73.8615,15.4071],[73.8618,15.4071],[73.8618,15.4079],[73.8624,15.4079],[73.8624,15.4085],[73.8643,15.4085]]],[[[73.8799,15.7792],[73.8802,15.7774],[73.8869,15.7703],[73.8868,15.7671],[73.8843,15.7646],[73.8826,15.7567],[73.8802,15.7526],[73.8824,15.7494],[73.8859,15.7473],[73.9086,15.7423],[73.9148,15.7455],[73.9179,15.7454],[73.9242,15.7428],[73.9454,15.7415],[73.9498,15.7326],[73.9508,15.7232],[73.9559,15.7169],[73.9589,15.7113],[73.9578,15.7074],[73.956,15.7048],[73.9587,15.7013],[73.9572,15.6967],[73.9657,15.695],[73.9713,15.6873],[73.9722,15.6767],[73.9716,15.6684],[73.9757,15.6598],[73.9742,15.6547],[73.9707,15.6497],[73.9693,15.6443],[73.976,15.6289],[73.9814,15.625],[73.9861,15.6234],[73.9902,15.6206],[73.9929,15.6163],[73.9987,15.6111],[74.0024,15.6091],[74.0078,15.6083],[74.0132,15.6093],[74.0279,15.6046],[74.0356,15.6093],[74.0393,15.6209],[74.0568,15.6227],[74.0677,15.6247],[74.0735,15.6267],[74.0806,15.6262],[74.1024,15.639],[74.108,15.6389],[74.1126,15.6431],[74.1228,15.6452],[74.126,15.6503],[74.129,15.6502],[74.1428,15.6471],[74.1469,15.6487],[74.155,15.6498],[74.1632,15.6486],[74.1659,15.6524],[74.1734,15.6521],[74.1754,15.6702],[74.1787,15.6714],[74.183,15.6774],[74.1901,15.681],[74.1977,15.6789],[74.1981,15.6737],[74.1945,15.6721],[74.1963,15.6649],[74.2115,15.661],[74.212,15.6585],[74.2099,15.6541],[74.2132,15.649],[74.2241,15.6503],[74.2288,15.653],[74.2284,15.6545],[74.2241,15.6589],[74.2316,15.6665],[74.2368,15.6619],[74.2419,15.6659],[74.245,15.6656],[74.2553,15.6542],[74.2565,15.6468],[74.2572,15.6339],[74.2545,15.6296],[74.2525,15.6238],[74.2544,15.6231],[74.2594,15.6245],[74.2625,15.6229],[74.2675,15.617],[74.2685,15.6096],[74.2655,15.6016],[74.2652,15.5902],[74.2564,15.5826],[74.2574,15.5755],[74.2544,15.5725],[74.2543,15.5658],[74.2646,15.5608],[74.2676,15.5634],[74.2699,15.5612],[74.2726,15.5543],[74.2789,15.5487],[74.2829,15.5416],[74.2856,15.5342],[74.2873,15.526],[74.2828,15.5205],[74.2838,15.5195],[74.2819,15.513],[74.2681,15.5059],[74.2608,15.5008],[74.2572,15.4968],[74.2563,15.4895],[74.2726,15.4652],[74.2799,15.4508],[74.2825,15.4431],[74.283,15.4375],[74.28,15.4359],[74.2827,15.4333],[74.2756,15.4239],[74.2774,15.4149],[74.2814,15.409],[74.2845,15.4015],[74.2826,15.3886],[74.2862,15.3826],[74.29,15.3812],[74.3057,15.3805],[74.3128,15.3749],[74.3284,15.3673],[74.3286,15.3655],[74.3236,15.362],[74.3226,15.3573],[74.326,15.3472],[74.3284,15.3434],[74.3233,15.3296],[74.328,15.3133],[74.3404,15.2968],[74.3417,15.2929],[74.3341,15.2829],[74.3184,15.2819],[74.3098,15.2832],[74.3023,15.2859],[74.3,15.2823],[74.2955,15.2831],[74.2891,15.2791],[74.283,15.2813],[74.2766,15.2744],[74.2728,15.2678],[74.2702,15.2609],[74.2679,15.2584],[74.2575,15.2576],[74.2593,15.25],[74.2617,15.2437],[74.2635,15.2419],[74.2708,15.2385],[74.2787,15.2372],[74.2943,15.232],[74.3021,15.2281],[74.3067,15.2232],[74.3067,15.219],[74.3101,15.2134],[74.3107,15.209],[74.3116,15.2071],[74.3145,15.2056],[74.3156,15.2032],[74.3158,15.1963],[74.317,15.1911],[74.3219,15.1841],[74.3181,15.1753],[74.3109,15.162],[74.3014,15.1499],[74.2978,15.1463],[74.2926,15.1477],[74.2896,15.1431],[74.2912,15.1354],[74.2897,15.13],[74.2914,15.1233],[74.2931,15.12],[74.2906,15.1166],[74.2882,15.1056],[74.2857,15.1037],[74.2811,15.1018],[74.2783,15.0959],[74.2838,15.094],[74.2872,15.0694],[74.289,15.0658],[74.2953,15.0627],[74.295,15.0543],[74.3012,15.0441],[74.3023,15.0399],[74.2931,15.0337],[74.2891,15.0301],[74.2894,15.0266],[74.2898,15.0216],[74.2819,15.0156],[74.2764,15.0096],[74.2718,15.0025],[74.2729,15.0015],[74.271,14.9988],[74.2713,14.9977],[74.2716,14.9977],[74.2707,14.9949],[74.2664,14.993],[74.2617,14.9908],[74.271,14.9804],[74.2739,14.9752],[74.271,14.9715],[74.2701,14.9666],[74.2666,14.9668],[74.2643,14.9632],[74.2621,14.9576],[74.2566,14.9584],[74.251,14.9608],[74.2464,14.9587],[74.2439,14.9575],[74.2417,14.9465],[74.2247,14.9413],[74.2193,14.9314],[74.2118,14.9214],[74.2031,14.9274],[74.2041,14.9321],[74.2042,14.9379],[74.1974,14.9433],[74.1925,14.945],[74.1903,14.9517],[74.1866,14.9534],[74.1804,14.953],[74.1722,14.951],[74.1699,14.9473],[74.1697,14.9422],[74.1661,14.9394],[74.166,14.9368],[74.1738,14.9179],[74.1752,14.9162],[74.1774,14.9132],[74.1754,14.9089],[74.1698,14.9093],[74.1634,14.9133],[74.1539,14.9173],[74.1492,14.9185],[74.1457,14.9174],[74.1394,14.9205],[74.1362,14.9197],[74.1334,14.9159],[74.132,14.9127],[74.1265,14.9132],[74.1227,14.9126],[74.1173,14.9096],[74.1131,14.9112],[74.1042,14.9038],[74.1033,14.9015],[74.0974,14.8957],[74.0971,14.8957],[74.0971,14.896],[74.0968,14.896],[74.0968,14.8962],[74.0965,14.8962],[74.0965,14.8965],[74.0963,14.8965],[74.0963,14.8971],[74.096,14.8971],[74.096,14.8976],[74.0954,14.8976],[74.0954,14.8979],[74.0946,14.8979],[74.0946,14.8982],[74.094,14.8982],[74.094,14.8985],[74.0938,14.8985],[74.0938,14.8988],[74.0926,14.8988],[74.0926,14.899],[74.0918,14.899],[74.0918,14.8993],[74.0904,14.8993],[74.0904,14.899],[74.0898,14.899],[74.0896,14.899],[74.0896,14.8988],[74.089,14.8988],[74.089,14.8985],[74.0888,14.8985],[74.0888,14.8982],[74.0882,14.8982],[74.0882,14.8985],[74.0876,14.8985],[74.0876,14.8988],[74.0868,14.8988],[74.0868,14.899],[74.0863,14.899],[74.0863,14.8993],[74.0857,14.8993],[74.0857,14.8996],[74.0851,14.8996],[74.0851,14.8999],[74.0849,14.8999],[74.0849,14.9004],[74.0846,14.9004],[74.0846,14.9007],[74.0843,14.9007],[74.0843,14.901],[74.084,14.901],[74.084,14.9013],[74.0835,14.9013],[74.0835,14.9015],[74.0832,14.9015],[74.0832,14.9029],[74.0829,14.9029],[74.0829,14.9035],[74.0826,14.9035],[74.0826,14.9046],[74.0829,14.9046],[74.0829,14.9053],[74.0829,14.9057],[74.0832,14.9057],[74.0832,14.9065],[74.0829,14.9065],[74.0829,14.9071],[74.0826,14.9071],[74.0826,14.9076],[74.0824,14.9076],[74.0824,14.9082],[74.0821,14.9082],[74.0821,14.9088],[74.0815,14.9088],[74.0815,14.909],[74.0813,14.909],[74.0813,14.9093],[74.0807,14.9093],[74.0807,14.9096],[74.0804,14.9096],[74.0804,14.9099],[74.0788,14.9099],[74.0788,14.9101],[74.0771,14.9101],[74.0771,14.9099],[74.0762,14.9099],[74.0762,14.9096],[74.0754,14.9096],[74.0754,14.9093],[74.0746,14.9093],[74.0746,14.909],[74.0743,14.909],[74.0743,14.9093],[74.074,14.9093],[74.074,14.909],[74.0737,14.909],[74.0737,14.9088],[74.0729,14.9088],[74.0729,14.9085],[74.0724,14.9085],[74.0724,14.9082],[74.0715,14.9082],[74.0715,14.9079],[74.0713,14.9079],[74.0713,14.9076],[74.071,14.9076],[74.071,14.9074],[74.0699,14.9074],[74.0699,14.9079],[74.0696,14.9079],[74.0696,14.9085],[74.069,14.9085],[74.069,14.9088],[74.0679,14.9088],[74.0679,14.9082],[74.0674,14.9082],[74.0674,14.9079],[74.0671,14.9079],[74.0671,14.9074],[74.0668,14.9074],[74.0668,14.9071],[74.0665,14.9071],[74.0665,14.9074],[74.066,14.9074],[74.066,14.9076],[74.0651,14.9076],[74.0651,14.9082],[74.0649,14.9082],[74.0649,14.9085],[74.0646,14.9085],[74.0646,14.909],[74.0643,14.909],[74.0643,14.9096],[74.0638,14.9096],[74.0638,14.9099],[74.0635,14.9099],[74.0635,14.9104],[74.0629,14.9104],[74.0629,14.9107],[74.0624,14.9107],[74.0624,14.9104],[74.0615,14.9104],[74.0615,14.9099],[74.0612,14.9099],[74.0612,14.9096],[74.061,14.9096],[74.0607,14.9096],[74.0607,14.9097],[74.0607,14.9099],[74.0601,14.9099],[74.0601,14.9101],[74.0596,14.9101],[74.0596,14.9107],[74.0599,14.9107],[74.0599,14.911],[74.0596,14.911],[74.0596,14.9126],[74.0593,14.9126],[74.0593,14.9129],[74.059,14.9129],[74.059,14.9135],[74.0582,14.9135],[74.0582,14.9138],[74.0574,14.9138],[74.0574,14.914],[74.0571,14.914],[74.0571,14.9143],[74.0568,14.9143],[74.0568,14.9146],[74.0565,14.9146],[74.0565,14.9143],[74.0563,14.9143],[74.0563,14.9146],[74.0549,14.9146],[74.0549,14.9143],[74.0526,14.9143],[74.0526,14.914],[74.0524,14.914],[74.0524,14.9143],[74.0518,14.9143],[74.0518,14.9146],[74.0504,14.9146],[74.0504,14.9149],[74.0496,14.9149],[74.0496,14.9151],[74.0491,14.9151],[74.0488,14.9151],[74.0488,14.9154],[74.0471,14.9154],[74.0471,14.9157],[74.0468,14.9157],[74.0468,14.916],[74.0465,14.916],[74.0465,14.9163],[74.0462,14.9163],[74.0462,14.9165],[74.046,14.9165],[74.046,14.9168],[74.0454,14.9168],[74.0454,14.9171],[74.0451,14.9171],[74.0451,14.9174],[74.0446,14.9174],[74.0446,14.9176],[74.044,14.9176],[74.044,14.9179],[74.0437,14.9179],[74.0437,14.9182],[74.0432,14.9182],[74.0432,14.9185],[74.0429,14.9185],[74.0429,14.919],[74.0432,14.919],[74.0432,14.9193],[74.0429,14.9193],[74.0429,14.9196],[74.0426,14.9196],[74.0426,14.9201],[74.0424,14.9201],[74.0424,14.9204],[74.0421,14.9204],[74.0421,14.9215],[74.0424,14.9215],[74.0424,14.9229],[74.0426,14.9229],[74.0426,14.9235],[74.0429,14.9235],[74.0429,14.9238],[74.0432,14.9238],[74.0432,14.924],[74.0435,14.924],[74.0435,14.9243],[74.044,14.9243],[74.044,14.9246],[74.0443,14.9246],[74.0443,14.9249],[74.0446,14.9249],[74.0446,14.9254],[74.0449,14.9254],[74.0449,14.9271],[74.0446,14.9271],[74.0446,14.9285],[74.0443,14.9285],[74.0443,14.9288],[74.044,14.9288],[74.044,14.9293],[74.0437,14.9293],[74.0437,14.9299],[74.0435,14.9299],[74.0435,14.9307],[74.0451,14.9307],[74.0451,14.9312],[74.0454,14.9312],[74.0454,14.9329],[74.0457,14.9329],[74.0457,14.9335],[74.046,14.9335],[74.046,14.9338],[74.0462,14.9338],[74.0462,14.9343],[74.0465,14.9343],[74.0465,14.9351],[74.0462,14.9351],[74.0462,14.9368],[74.046,14.9368],[74.046,14.9382],[74.0457,14.9382],[74.0457,14.939],[74.0454,14.939],[74.0454,14.9396],[74.0451,14.9396],[74.0451,14.9399],[74.0449,14.9399],[74.0449,14.9401],[74.0446,14.9401],[74.0446,14.9404],[74.0443,14.9404],[74.0443,14.9407],[74.044,14.9407],[74.044,14.941],[74.0437,14.941],[74.0438,14.9412],[74.0435,14.9412],[74.0435,14.9415],[74.0432,14.9415],[74.0432,14.9418],[74.0429,14.9418],[74.0429,14.9429],[74.0432,14.9429],[74.0432,14.9435],[74.0435,14.9435],[74.0435,14.944],[74.0438,14.944],[74.0438,14.9443],[74.0443,14.9443],[74.0443,14.9449],[74.0446,14.9448],[74.0446,14.9451],[74.0449,14.9451],[74.0449,14.9454],[74.0451,14.9454],[74.0451,14.946],[74.0449,14.946],[74.0449,14.9465],[74.0446,14.9465],[74.0446,14.9468],[74.0443,14.9468],[74.0443,14.9471],[74.0432,14.9471],[74.0432,14.9474],[74.0429,14.9474],[74.0429,14.9482],[74.0432,14.9482],[74.0432,14.9479],[74.0437,14.9479],[74.0437,14.9485],[74.0435,14.9485],[74.0435,14.9487],[74.0432,14.9487],[74.0432,14.9493],[74.0435,14.9493],[74.0435,14.9496],[74.044,14.9496],[74.044,14.9499],[74.0462,14.9499],[74.0462,14.9501],[74.0471,14.9501],[74.0471,14.9504],[74.0476,14.9504],[74.0476,14.9507],[74.0474,14.9507],[74.0474,14.951],[74.0468,14.951],[74.0468,14.9513],[74.0465,14.9513],[74.0465,14.9515],[74.0462,14.9515],[74.0462,14.9518],[74.0465,14.9518],[74.0465,14.9524],[74.0468,14.9524],[74.0468,14.9529],[74.0471,14.9529],[74.0471,14.954],[74.0474,14.954],[74.0474,14.9546],[74.0476,14.9546],[74.0476,14.9551],[74.0479,14.9551],[74.0479,14.9557],[74.0482,14.9557],[74.0482,14.9563],[74.0485,14.9563],[74.0485,14.9571],[74.0493,14.9571],[74.0493,14.9574],[74.0512,14.9574],[74.0512,14.9571],[74.0518,14.9571],[74.0518,14.9574],[74.0535,14.9574],[74.0535,14.9582],[74.0532,14.9582],[74.0532,14.9585],[74.0529,14.9585],[74.0529,14.9587],[74.0524,14.9587],[74.0524,14.959],[74.0518,14.959],[74.0518,14.9593],[74.0507,14.9593],[74.0507,14.959],[74.0504,14.959],[74.0504,14.9587],[74.0499,14.9587],[74.0499,14.9585],[74.0496,14.9585],[74.0496,14.9582],[74.0488,14.9582],[74.0488,14.959],[74.049,14.959],[74.049,14.9601],[74.0488,14.9601],[74.0488,14.9607],[74.0485,14.9607],[74.0485,14.9615],[74.0482,14.9615],[74.0482,14.9621],[74.0479,14.9621],[74.0479,14.9629],[74.0476,14.9629],[74.0476,14.9635],[74.0474,14.9635],[74.0474,14.9643],[74.0471,14.9643],[74.0471,14.9651],[74.0468,14.9651],[74.0468,14.9657],[74.0465,14.9657],[74.0465,14.9665],[74.0462,14.9665],[74.0462,14.9671],[74.046,14.9671],[74.046,14.9679],[74.0457,14.9679],[74.0457,14.9688],[74.0454,14.9687],[74.0454,14.9696],[74.0451,14.9696],[74.0451,14.9704],[74.0449,14.9704],[74.0449,14.9713],[74.0446,14.9713],[74.0446,14.9718],[74.0443,14.9718],[74.0443,14.9724],[74.0429,14.9724],[74.0429,14.9743],[74.0432,14.9743],[74.0432,14.9765],[74.0429,14.9765],[74.0429,14.9768],[74.0426,14.9768],[74.0426,14.9771],[74.0424,14.9771],[74.0424,14.9776],[74.0421,14.9776],[74.0421,14.9788],[74.0418,14.9788],[74.0418,14.979],[74.0415,14.979],[74.0415,14.9796],[74.0413,14.9796],[74.0413,14.9799],[74.041,14.9799],[74.041,14.9801],[74.0407,14.9801],[74.0407,14.9807],[74.0404,14.9807],[74.0404,14.981],[74.0401,14.981],[74.0401,14.9812],[74.0399,14.9812],[74.0399,14.9815],[74.0396,14.9815],[74.0396,14.9818],[74.0387,14.9818],[74.0387,14.9821],[74.0371,14.9821],[74.0371,14.9824],[74.036,14.9824],[74.036,14.9826],[74.0354,14.9826],[74.0354,14.9824],[74.0349,14.9824],[74.0349,14.9826],[74.0343,14.9826],[74.0343,14.9838],[74.0346,14.9838],[74.0346,14.9843],[74.0351,14.9843],[74.0351,14.9846],[74.0374,14.9846],[74.0374,14.9849],[74.0379,14.9849],[74.0379,14.9851],[74.0382,14.9851],[74.0382,14.9854],[74.039,14.9854],[74.039,14.9849],[74.0393,14.9849],[74.0393,14.9843],[74.0399,14.9843],[74.0399,14.984],[74.0413,14.984],[74.0413,14.9843],[74.0418,14.9843],[74.0418,14.9846],[74.0421,14.9846],[74.0421,14.9851],[74.0426,14.9851],[74.0426,14.9854],[74.0429,14.9854],[74.0429,14.9857],[74.0435,14.9857],[74.0435,14.986],[74.0438,14.986],[74.0438,14.9871],[74.044,14.9871],[74.044,14.9885],[74.0451,14.9885],[74.0451,14.9882],[74.0457,14.9882],[74.0457,14.9879],[74.0463,14.9879],[74.0465,14.9879],[74.0465,14.9878],[74.0465,14.9876],[74.0469,14.9876],[74.0471,14.9876],[74.0471,14.9875],[74.0471,14.9874],[74.0474,14.9874],[74.0479,14.9874],[74.0479,14.9871],[74.0485,14.9871],[74.0485,14.9868],[74.0493,14.9868],[74.0493,14.9865],[74.0499,14.9865],[74.0499,14.9879],[74.0501,14.9879],[74.0501,14.9882],[74.0499,14.9882],[74.0499,14.9885],[74.0493,14.9885],[74.0493,14.9882],[74.0485,14.9882],[74.0485,14.9885],[74.0479,14.9885],[74.0479,14.9888],[74.0471,14.9888],[74.0471,14.989],[74.0465,14.989],[74.0465,14.9893],[74.0442,14.9893],[74.044,14.9893],[74.044,14.989],[74.0429,14.989],[74.0429,14.9888],[74.0407,14.9888],[74.0407,14.9882],[74.0404,14.9882],[74.0404,14.9879],[74.0399,14.9879],[74.0399,14.9874],[74.0396,14.9874],[74.0396,14.9868],[74.0393,14.9868],[74.0393,14.9865],[74.039,14.9865],[74.039,14.986],[74.0385,14.986],[74.0385,14.9862],[74.0382,14.9862],[74.0382,14.9865],[74.0379,14.9865],[74.0379,14.9888],[74.0376,14.9888],[74.0376,14.9893],[74.0374,14.9893],[74.0374,14.9899],[74.0371,14.9899],[74.0371,14.9907],[74.0368,14.9907],[74.0368,14.9913],[74.0365,14.9913],[74.0365,14.9918],[74.0362,14.9918],[74.0362,14.9924],[74.036,14.9924],[74.036,14.9929],[74.0357,14.9929],[74.0357,14.9932],[74.0354,14.9932],[74.0354,14.9938],[74.0351,14.9938],[74.0351,14.994],[74.0349,14.994],[74.0349,14.9946],[74.0346,14.9946],[74.0346,14.9957],[74.0343,14.9957],[74.0343,14.9963],[74.034,14.9963],[74.034,14.9968],[74.0338,14.9968],[74.0338,14.9974],[74.0335,14.9974],[74.0335,14.9975],[74.0335,14.9979],[74.0332,14.9979],[74.0332,14.9985],[74.0329,14.9985],[74.0329,14.999],[74.0328,14.999],[74.0324,14.999],[74.0324,14.9993],[74.0315,14.9993],[74.0315,14.9996],[74.0301,14.9996],[74.0301,14.9993],[74.0293,14.9993],[74.0293,14.999],[74.0288,14.999],[74.0288,14.9988],[74.0285,14.9988],[74.0285,14.9985],[74.0282,14.9985],[74.0282,14.9982],[74.0279,14.9982],[74.0279,14.9979],[74.0268,14.9979],[74.0268,14.9985],[74.0265,14.9985],[74.0265,14.9988],[74.0268,14.9988],[74.0268,14.999],[74.0271,14.999],[74.0271,14.9993],[74.0276,14.9993],[74.0276,14.9996],[74.0282,14.9996],[74.0282,14.9999],[74.0288,14.9999],[74.0288,15.0001],[74.029,15.0001],[74.029,15.0004],[74.0293,15.0004],[74.0293,15.001],[74.0299,15.001],[74.0299,15.0012],[74.0296,15.0012],[74.0296,15.0019],[74.0296,15.0021],[74.0293,15.0021],[74.0287,15.0021],[74.0287,15.0018],[74.0285,15.0018],[74.0285,15.0015],[74.0282,15.0015],[74.0282,15.0024],[74.0276,15.0024],[74.0276,15.0026],[74.0271,15.0026],[74.0271,15.0024],[74.0268,15.0024],[74.0268,15.0021],[74.0265,15.0021],[74.0265,15.0018],[74.026,15.0018],[74.026,15.001],[74.0257,15.001],[74.0257,15.0007],[74.0254,15.0007],[74.0254,15.0024],[74.0251,15.0024],[74.0251,15.0026],[74.0246,15.0026],[74.0246,15.0029],[74.0243,15.0029],[74.0243,15.0035],[74.0249,15.0035],[74.0249,15.0038],[74.0254,15.0038],[74.0254,15.0035],[74.026,15.0035],[74.026,15.0038],[74.0263,15.0038],[74.0263,15.004],[74.0265,15.004],[74.0265,15.0043],[74.0265,15.0051],[74.0268,15.0051],[74.0268,15.0057],[74.0271,15.0057],[74.0271,15.0065],[74.0268,15.0065],[74.0268,15.0068],[74.0265,15.0068],[74.0265,15.0074],[74.026,15.0074],[74.026,15.0079],[74.0257,15.0079],[74.0257,15.0085],[74.0254,15.0085],[74.0254,15.0087],[74.0251,15.0087],[74.0251,15.009],[74.0249,15.009],[74.0249,15.0093],[74.0243,15.0093],[74.0243,15.0096],[74.024,15.0096],[74.024,15.0099],[74.0235,15.0099],[74.0235,15.0101],[74.0232,15.0101],[74.0232,15.0104],[74.0229,15.0104],[74.0229,15.0107],[74.0226,15.0107],[74.0226,15.011],[74.0221,15.011],[74.0221,15.0113],[74.0218,15.0113],[74.0218,15.0115],[74.0212,15.0115],[74.0212,15.0118],[74.021,15.0118],[74.021,15.0121],[74.0188,15.0121],[74.0188,15.0124],[74.0174,15.0124],[74.0174,15.0126],[74.0168,15.0126],[74.0168,15.0132],[74.0171,15.0132],[74.0171,15.0135],[74.0174,15.0135],[74.0174,15.0138],[74.0176,15.0138],[74.0176,15.014],[74.0163,15.014],[74.0163,15.0138],[74.016,15.0138],[74.016,15.0135],[74.0157,15.0135],[74.0157,15.0129],[74.0154,15.0129],[74.0154,15.0126],[74.0149,15.0126],[74.0149,15.0121],[74.0146,15.0121],[74.0146,15.0115],[74.0143,15.0115],[74.0143,15.0107],[74.0137,15.0107],[74.0137,15.0101],[74.0135,15.0101],[74.0135,15.0099],[74.0137,15.0099],[74.0137,15.0096],[74.014,15.0096],[74.014,15.0093],[74.0143,15.0093],[74.0143,15.0065],[74.0137,15.0065],[74.0137,15.0068],[74.0135,15.0068],[74.0135,15.0071],[74.0124,15.0071],[74.0124,15.0076],[74.0121,15.0076],[74.0121,15.0079],[74.0118,15.0079],[74.0118,15.0085],[74.0115,15.0085],[74.0115,15.0093],[74.0118,15.0093],[74.0118,15.0096],[74.0124,15.0096],[74.0124,15.0099],[74.0129,15.0099],[74.0129,15.0104],[74.0124,15.0104],[74.0124,15.0115],[74.0121,15.0115],[74.0121,15.0124],[74.0118,15.0124],[74.0118,15.0126],[74.0113,15.0126],[74.0113,15.0129],[74.0107,15.0129],[74.0107,15.0132],[74.0104,15.0132],[74.0104,15.0135],[74.0099,15.0135],[74.0099,15.0138],[74.0093,15.0138],[74.0093,15.014],[74.009,15.014],[74.009,15.0143],[74.0085,15.0143],[74.0085,15.0146],[74.0082,15.0146],[74.0082,15.0157],[74.0079,15.0157],[74.0079,15.0163],[74.0077,15.0163],[74.0077,15.0168],[74.0074,15.0168],[74.0074,15.0179],[74.0062,15.0179],[74.0062,15.0176],[74.006,15.0176],[74.006,15.0174],[74.0057,15.0174],[74.0057,15.0171],[74.0054,15.0171],[74.0054,15.0165],[74.0051,15.0165],[74.0051,15.016],[74.0049,15.016],[74.0049,15.0163],[74.0032,15.0163],[74.0032,15.0165],[74.0026,15.0165],[74.0026,15.0179],[74.0024,15.0179],[74.0024,15.0182],[74.0018,15.0182],[74.0018,15.0185],[74.0015,15.0185],[74.0015,15.0188],[74.0007,15.0188],[74.0007,15.0185],[74.0007,15.0182],[74,15.0182],[73.9996,15.0182],[73.999,15.0182],[73.999,15.0185],[73.9987,15.0185],[73.9987,15.0187],[73.9987,15.0193],[73.9982,15.0193],[73.9982,15.0204],[73.9979,15.0204],[73.9979,15.0207],[73.9976,15.0207],[73.9976,15.0213],[73.9968,15.0213],[73.9968,15.0204],[73.9965,15.0204],[73.9965,15.0197],[73.9965,15.0196],[73.996,15.0196],[73.996,15.0193],[73.9957,15.0193],[73.9957,15.019],[73.9949,15.019],[73.9949,15.0188],[73.9946,15.0188],[73.9946,15.019],[73.9943,15.019],[73.9943,15.0188],[73.9935,15.0188],[73.9935,15.0185],[73.9929,15.0185],[73.9929,15.0182],[73.9924,15.0182],[73.9924,15.0179],[73.9921,15.0179],[73.9921,15.0182],[73.9918,15.0182],[73.9918,15.0185],[73.9912,15.0185],[73.9912,15.0188],[73.991,15.0188],[73.991,15.019],[73.9907,15.019],[73.9907,15.0196],[73.9901,15.0196],[73.9901,15.0199],[73.9896,15.0199],[73.9896,15.0201],[73.989,15.0201],[73.989,15.0204],[73.9887,15.0204],[73.9887,15.0215],[73.9885,15.0215],[73.9885,15.0232],[73.9882,15.0232],[73.9882,15.0238],[73.9876,15.0238],[73.9876,15.024],[73.9874,15.024],[73.9874,15.0243],[73.9868,15.0243],[73.9868,15.0246],[73.9863,15.0246],[73.9863,15.0249],[73.986,15.0249],[73.986,15.0251],[73.9854,15.0251],[73.9854,15.0268],[73.9857,15.0268],[73.9857,15.0282],[73.9854,15.0282],[73.9854,15.029],[73.986,15.029],[73.986,15.0296],[73.9865,15.0296],[73.9865,15.0299],[73.9868,15.0299],[73.9868,15.0301],[73.9874,15.0301],[73.9874,15.0304],[73.9876,15.0304],[73.9876,15.0301],[73.9885,15.0301],[73.9885,15.0304],[73.989,15.0304],[73.989,15.0307],[73.9893,15.0307],[73.9893,15.0318],[73.9896,15.0318],[73.9896,15.0326],[73.9899,15.0326],[73.9899,15.0335],[73.9901,15.0335],[73.9901,15.0343],[73.9899,15.0343],[73.9899,15.0349],[73.9896,15.0349],[73.9896,15.0363],[73.9893,15.0363],[73.9893,15.0365],[73.989,15.0365],[73.989,15.0368],[73.9887,15.0368],[73.9887,15.0374],[73.9885,15.0374],[73.9885,15.0382],[73.9882,15.0382],[73.9882,15.039],[73.9879,15.039],[73.9879,15.0393],[73.9876,15.0393],[73.9876,15.0396],[73.9879,15.0396],[73.9879,15.0401],[73.9876,15.0401],[73.9876,15.0407],[73.9874,15.0407],[73.9874,15.0413],[73.9871,15.0412],[73.9871,15.0418],[73.9868,15.0418],[73.9868,15.0426],[73.9865,15.0426],[73.9865,15.0432],[73.9863,15.0432],[73.9863,15.0438],[73.986,15.0438],[73.986,15.0443],[73.9857,15.0443],[73.9857,15.0446],[73.9854,15.0446],[73.9854,15.0454],[73.9851,15.0454],[73.9851,15.0463],[73.9849,15.0463],[73.9849,15.0465],[73.9846,15.0465],[73.9846,15.0471],[73.9843,15.0471],[73.9843,15.0476],[73.984,15.0476],[73.984,15.0482],[73.9837,15.0482],[73.9837,15.0488],[73.9835,15.0488],[73.9835,15.0493],[73.9832,15.0493],[73.9832,15.0499],[73.9829,15.0499],[73.9829,15.0501],[73.9824,15.0501],[73.9824,15.0507],[73.9821,15.0507],[73.9821,15.051],[73.9818,15.051],[73.9818,15.0513],[73.9815,15.0513],[73.9815,15.0515],[73.981,15.0515],[73.981,15.0518],[73.9804,15.0518],[73.9804,15.0521],[73.9804,15.0524],[73.9792,15.0524],[73.9782,15.0524],[73.9782,15.0521],[73.9776,15.0521],[73.9776,15.0518],[73.9774,15.0518],[73.9774,15.0515],[73.9771,15.0515],[73.9771,15.0513],[73.9765,15.0513],[73.9765,15.051],[73.9762,15.051],[73.9762,15.0507],[73.9757,15.0507],[73.9757,15.0504],[73.9746,15.0504],[73.9746,15.0507],[73.974,15.0507],[73.974,15.051],[73.9726,15.051],[73.9726,15.0513],[73.9721,15.0513],[73.9721,15.0515],[73.9718,15.0515],[73.9718,15.0518],[73.9715,15.0518],[73.9715,15.0521],[73.9713,15.0521],[73.9713,15.0524],[73.971,15.0524],[73.971,15.0529],[73.9707,15.0529],[73.9707,15.0543],[73.971,15.0543],[73.971,15.0546],[73.9713,15.0546],[73.9713,15.0568],[73.971,15.0568],[73.971,15.0571],[73.9707,15.0571],[73.9707,15.0574],[73.9704,15.0574],[73.9704,15.0585],[73.9701,15.0585],[73.9701,15.0599],[73.9699,15.0599],[73.9699,15.0601],[73.9696,15.0601],[73.9696,15.0604],[73.969,15.0604],[73.969,15.061],[73.9688,15.061],[73.9688,15.0612],[73.9685,15.0612],[73.9685,15.0615],[73.9676,15.0615],[73.9676,15.0618],[73.9674,15.0618],[73.9674,15.0621],[73.9668,15.0621],[73.9668,15.0624],[73.9662,15.0624],[73.9662,15.0629],[73.9665,15.0629],[73.9665,15.0632],[73.9668,15.0632],[73.9668,15.0635],[73.9671,15.0635],[73.9671,15.0643],[73.9674,15.0643],[73.9674,15.0651],[73.9671,15.0651],[73.9671,15.0656],[73.9671,15.0657],[73.9668,15.0657],[73.9668,15.066],[73.9663,15.066],[73.9646,15.066],[73.9646,15.0657],[73.9643,15.0657],[73.9643,15.066],[73.9638,15.066],[73.9638,15.0663],[73.9635,15.0663],[73.9635,15.0665],[73.9629,15.0665],[73.9629,15.0668],[73.9623,15.0668],[73.9623,15.0674],[73.9621,15.0674],[73.9621,15.0676],[73.9615,15.0676],[73.9615,15.0679],[73.9613,15.0679],[73.9613,15.0682],[73.9604,15.0682],[73.9604,15.0685],[73.9601,15.0685],[73.9601,15.0688],[73.9596,15.0688],[73.9596,15.069],[73.959,15.069],[73.959,15.0696],[73.9587,15.0696],[73.9587,15.0701],[73.9576,15.0701],[73.9576,15.0699],[73.9557,15.0699],[73.9557,15.0701],[73.9543,15.0701],[73.9543,15.0704],[73.9538,15.0704],[73.9538,15.0707],[73.9535,15.0707],[73.9535,15.0715],[73.9538,15.0715],[73.9538,15.0718],[73.954,15.0718],[73.954,15.0726],[73.9538,15.0726],[73.9538,15.0729],[73.9535,15.0729],[73.9535,15.0732],[73.9529,15.0732],[73.9529,15.0735],[73.9518,15.0735],[73.9518,15.0738],[73.9512,15.0738],[73.9512,15.074],[73.951,15.074],[73.951,15.0743],[73.9504,15.0743],[73.9504,15.0746],[73.9501,15.0746],[73.9501,15.0749],[73.9496,15.0749],[73.9496,15.0751],[73.9485,15.0751],[73.9485,15.0754],[73.9437,15.0754],[73.9437,15.0751],[73.9429,15.0751],[73.9429,15.0749],[73.9426,15.0749],[73.9426,15.0751],[73.9421,15.0751],[73.9421,15.0749],[73.9418,15.0749],[73.9418,15.0751],[73.9412,15.0751],[73.9412,15.0754],[73.9407,15.0754],[73.9407,15.0757],[73.9401,15.0757],[73.9401,15.0754],[73.9396,15.0754],[73.9396,15.0757],[73.939,15.0757],[73.939,15.076],[73.9388,15.076],[73.9388,15.0763],[73.9385,15.0763],[73.9385,15.0765],[73.9382,15.0765],[73.9382,15.0768],[73.936,15.0768],[73.936,15.0771],[73.9357,15.0771],[73.9357,15.0776],[73.9354,15.0776],[73.9354,15.0779],[73.9351,15.0779],[73.9351,15.0782],[73.9324,15.0782],[73.9324,15.0779],[73.9318,15.0779],[73.9318,15.0782],[73.9315,15.0782],[73.9315,15.0785],[73.931,15.0785],[73.931,15.079],[73.9307,15.079],[73.9307,15.0796],[73.9301,15.0796],[73.9301,15.0801],[73.9299,15.0801],[73.9299,15.0804],[73.9296,15.0804],[73.9296,15.0807],[73.9293,15.0807],[73.9293,15.081],[73.929,15.081],[73.929,15.0812],[73.929,15.0815],[73.9293,15.0815],[73.9293,15.0821],[73.9296,15.0821],[73.9296,15.0826],[73.9293,15.0826],[73.9293,15.0835],[73.9282,15.0835],[73.9282,15.0838],[73.9279,15.0838],[73.9279,15.0835],[73.9276,15.0835],[73.9276,15.0838],[73.9271,15.0838],[73.9271,15.0843],[73.9268,15.0843],[73.9268,15.0849],[73.9262,15.0849],[73.9262,15.0854],[73.926,15.0854],[73.926,15.0857],[73.9249,15.0857],[73.9249,15.086],[73.9243,15.086],[73.9243,15.0857],[73.9235,15.0857],[73.9235,15.0854],[73.9232,15.0854],[73.9232,15.0857],[73.9226,15.0857],[73.9226,15.086],[73.9221,15.086],[73.9221,15.0857],[73.9218,15.0857],[73.9218,15.0851],[73.9212,15.0851],[73.9212,15.0846],[73.9201,15.0846],[73.9201,15.0843],[73.9199,15.0843],[73.9199,15.0846],[73.9196,15.0846],[73.9196,15.0843],[73.919,15.0843],[73.919,15.084],[73.9187,15.084],[73.9187,15.0838],[73.9182,15.0838],[73.9182,15.0835],[73.9176,15.0835],[73.9176,15.0832],[73.9174,15.0832],[73.9174,15.0829],[73.9171,15.0829],[73.9171,15.0832],[73.9165,15.0832],[73.9165,15.084],[73.9163,15.084],[73.9163,15.0843],[73.9143,15.0843],[73.9143,15.084],[73.9118,15.084],[73.9118,15.0846],[73.9121,15.0846],[73.9121,15.0854],[73.9124,15.0854],[73.9124,15.0857],[73.9126,15.0857],[73.9126,15.086],[73.9132,15.086],[73.9132,15.0863],[73.9137,15.0863],[73.9137,15.0865],[73.9143,15.0865],[73.9143,15.0868],[73.9149,15.0868],[73.9149,15.0871],[73.9151,15.0871],[73.9151,15.0874],[73.9154,15.0874],[73.9154,15.0876],[73.9157,15.0876],[73.9157,15.0879],[73.916,15.0879],[73.916,15.0882],[73.9163,15.0882],[73.9163,15.0885],[73.9165,15.0885],[73.9165,15.0888],[73.9168,15.0888],[73.9168,15.089],[73.9174,15.089],[73.9174,15.0893],[73.9182,15.0893],[73.9182,15.0896],[73.9187,15.0896],[73.9187,15.0899],[73.9193,15.0899],[73.9193,15.0901],[73.9199,15.0901],[73.9199,15.0904],[73.9201,15.0904],[73.9201,15.0907],[73.9207,15.0907],[73.9207,15.091],[73.921,15.091],[73.921,15.0913],[73.9215,15.0913],[73.9215,15.0915],[73.9218,15.0915],[73.9218,15.0918],[73.9224,15.0918],[73.9224,15.0921],[73.9226,15.0921],[73.9226,15.0924],[73.9229,15.0924],[73.9229,15.0926],[73.9235,15.0926],[73.9235,15.0929],[73.9238,15.0929],[73.9238,15.0938],[73.924,15.0938],[73.924,15.0946],[73.9238,15.0946],[73.9238,15.0949],[73.924,15.0949],[73.924,15.0951],[73.9243,15.0951],[73.9243,15.0954],[73.9246,15.0954],[73.9246,15.0957],[73.9251,15.0957],[73.9251,15.096],[73.9257,15.096],[73.9257,15.0963],[73.926,15.0963],[73.926,15.0968],[73.9262,15.0968],[73.9262,15.0991],[73.9262,15.1001],[73.926,15.1001],[73.926,15.101],[73.9257,15.101],[73.9257,15.1018],[73.9254,15.1018],[73.9254,15.1024],[73.9251,15.1024],[73.9251,15.1032],[73.9254,15.1032],[73.9254,15.1038],[73.9251,15.1038],[73.9251,15.1043],[73.9249,15.1043],[73.9249,15.1046],[73.924,15.1046],[73.924,15.1049],[73.9238,15.1049],[73.9238,15.1051],[73.9232,15.1051],[73.9232,15.1054],[73.9229,15.1054],[73.9229,15.1057],[73.9224,15.1057],[73.9224,15.106],[73.9221,15.106],[73.9221,15.1063],[73.9215,15.1063],[73.9215,15.1074],[73.9207,15.1074],[73.9207,15.1071],[73.9204,15.1071],[73.9204,15.1074],[73.9193,15.1074],[73.9193,15.1071],[73.9185,15.1071],[73.9185,15.1074],[73.9179,15.1074],[73.9179,15.1076],[73.9176,15.1076],[73.9176,15.1079],[73.9174,15.1079],[73.9174,15.1082],[73.9179,15.1082],[73.9179,15.1085],[73.9185,15.1085],[73.9185,15.1087],[73.921,15.1087],[73.921,15.109],[73.9218,15.109],[73.9218,15.1093],[73.9221,15.1093],[73.9221,15.1096],[73.9224,15.1096],[73.9224,15.1099],[73.9229,15.1099],[73.9229,15.1101],[73.9251,15.1101],[73.9251,15.1104],[73.9265,15.1104],[73.9265,15.1107],[73.9268,15.1107],[73.9268,15.111],[73.9274,15.111],[73.9274,15.1113],[73.9279,15.1113],[73.9279,15.1115],[73.9287,15.1115],[73.9287,15.1118],[73.9299,15.1118],[73.9299,15.1121],[73.9304,15.1121],[73.9304,15.1124],[73.931,15.1124],[73.931,15.1126],[73.9315,15.1126],[73.9315,15.1129],[73.9318,15.1129],[73.9318,15.1132],[73.9321,15.1132],[73.9321,15.1135],[73.9324,15.1135],[73.9324,15.1138],[73.9332,15.1138],[73.9332,15.1135],[73.9337,15.1135],[73.9337,15.1132],[73.934,15.1132],[73.934,15.1129],[73.9343,15.1129],[73.9343,15.1126],[73.9346,15.1126],[73.9346,15.1124],[73.9351,15.1124],[73.9351,15.1126],[73.9357,15.1126],[73.9357,15.1132],[73.936,15.1132],[73.936,15.1143],[73.9362,15.1143],[73.9362,15.1163],[73.9365,15.1163],[73.9365,15.1165],[73.9368,15.1165],[73.9368,15.1176],[73.9374,15.1176],[73.9374,15.1182],[73.9376,15.1182],[73.9376,15.1187],[73.9388,15.1187],[73.9388,15.119],[73.939,15.119],[73.939,15.1193],[73.9399,15.1193],[73.9399,15.1196],[73.9407,15.1196],[73.9407,15.1215],[73.9404,15.1215],[73.9404,15.1221],[73.9399,15.1221],[73.9399,15.1246],[73.9396,15.1246],[73.9396,15.126],[73.9399,15.126],[73.9399,15.1265],[73.9401,15.1265],[73.9401,15.1271],[73.9404,15.1271],[73.9404,15.1276],[73.9401,15.1276],[73.9401,15.1279],[73.9396,15.1279],[73.9396,15.1282],[73.9393,15.1282],[73.9393,15.1287],[73.939,15.1287],[73.939,15.1293],[73.9385,15.1293],[73.9385,15.1296],[73.9382,15.1296],[73.9382,15.1299],[73.9376,15.1299],[73.9376,15.1301],[73.9371,15.1301],[73.9371,15.1315],[73.9368,15.1315],[73.9368,15.1318],[73.9362,15.1318],[73.9362,15.1315],[73.9357,15.1315],[73.9357,15.1318],[73.9351,15.1318],[73.9351,15.1324],[73.9354,15.1324],[73.9354,15.1329],[73.9357,15.1329],[73.9357,15.1332],[73.936,15.1332],[73.936,15.1338],[73.9362,15.1338],[73.9362,15.134],[73.9365,15.134],[73.9365,15.1343],[73.9382,15.1343],[73.9382,15.1346],[73.9388,15.1346],[73.9388,15.1349],[73.9396,15.1349],[73.9396,15.1351],[73.9401,15.1351],[73.9401,15.1354],[73.9413,15.1354],[73.9413,15.1357],[73.9415,15.1357],[73.9415,15.1362],[73.9418,15.1362],[73.9418,15.1365],[73.9421,15.1365],[73.9421,15.1368],[73.9424,15.1368],[73.9424,15.1374],[73.9426,15.1374],[73.9426,15.1379],[73.9429,15.1379],[73.9429,15.139],[73.9432,15.139],[73.9432,15.1393],[73.9437,15.1393],[73.9437,15.1396],[73.944,15.1396],[73.944,15.1401],[73.9437,15.1401],[73.9437,15.1404],[73.944,15.1404],[73.944,15.141],[73.9443,15.141],[73.9443,15.1412],[73.9449,15.1412],[73.9449,15.1415],[73.9451,15.1415],[73.9451,15.1418],[73.9457,15.1418],[73.9457,15.1424],[73.9463,15.1424],[73.9463,15.1426],[73.9471,15.1426],[73.9471,15.1432],[73.9474,15.1432],[73.9474,15.1438],[73.9476,15.1438],[73.9476,15.1443],[73.9479,15.1443],[73.9479,15.1449],[73.9482,15.1449],[73.9482,15.1454],[73.9485,15.1454],[73.9485,15.146],[73.9482,15.146],[73.9482,15.1474],[73.9479,15.1474],[73.9479,15.1479],[73.9476,15.1479],[73.9476,15.149],[73.9473,15.149],[73.9473,15.1493],[73.9471,15.1493],[73.9471,15.1499],[73.9473,15.1499],[73.9473,15.1501],[73.9471,15.1501],[73.9471,15.151],[73.9468,15.151],[73.9468,15.1518],[73.9465,15.1518],[73.9465,15.1529],[73.9463,15.1529],[73.9463,15.1538],[73.946,15.1538],[73.946,15.1551],[73.9457,15.1551],[73.9457,15.1557],[73.9454,15.1557],[73.9454,15.1563],[73.9451,15.1563],[73.9451,15.1568],[73.9449,15.1568],[73.9449,15.1571],[73.9446,15.1571],[73.9446,15.1582],[73.9443,15.1582],[73.9443,15.1585],[73.944,15.1585],[73.944,15.1618],[73.9437,15.1618],[73.9437,15.1621],[73.944,15.1621],[73.944,15.1626],[73.9437,15.1626],[73.9437,15.1637],[73.9435,15.1637],[73.9435,15.1646],[73.9432,15.1646],[73.9432,15.1657],[73.9429,15.1657],[73.9429,15.1668],[73.9426,15.1668],[73.9426,15.169],[73.9424,15.169],[73.9424,15.171],[73.9421,15.171],[73.9421,15.1718],[73.9418,15.1718],[73.9418,15.1724],[73.9415,15.1724],[73.9415,15.1732],[73.9412,15.1732],[73.9412,15.174],[73.941,15.174],[73.941,15.1751],[73.9407,15.1751],[73.9407,15.1763],[73.9404,15.1763],[73.9404,15.1774],[73.9401,15.1774],[73.9401,15.1788],[73.9399,15.1788],[73.9399,15.1796],[73.9396,15.1796],[73.9396,15.181],[73.9393,15.181],[73.9393,15.1821],[73.939,15.1821],[73.939,15.1832],[73.9388,15.1832],[73.9388,15.184],[73.9385,15.184],[73.9385,15.1846],[73.9382,15.1846],[73.9382,15.1851],[73.9379,15.1851],[73.9379,15.1863],[73.9376,15.1863],[73.9376,15.1874],[73.9374,15.1874],[73.9374,15.189],[73.9371,15.189],[73.9371,15.1896],[73.9368,15.1896],[73.9368,15.191],[73.9365,15.191],[73.9365,15.1918],[73.9362,15.1918],[73.9362,15.1929],[73.936,15.1929],[73.936,15.1946],[73.9357,15.1946],[73.9357,15.1957],[73.9354,15.1957],[73.9354,15.1968],[73.9351,15.1968],[73.9351,15.1985],[73.9349,15.1985],[73.9349,15.2007],[73.9346,15.2007],[73.9346,15.2024],[73.9343,15.2024],[73.9343,15.2029],[73.934,15.2029],[73.934,15.2035],[73.9337,15.2035],[73.9337,15.2043],[73.9335,15.2043],[73.9335,15.2049],[73.9332,15.2049],[73.9332,15.2057],[73.9329,15.2057],[73.9329,15.2063],[73.9326,15.2063],[73.9326,15.2065],[73.9329,15.2065],[73.9329,15.2079],[73.9326,15.2079],[73.9326,15.2085],[73.9324,15.2085],[73.9324,15.2093],[73.9321,15.2093],[73.9321,15.2099],[73.9318,15.2099],[73.9318,15.2104],[73.9315,15.2104],[73.9315,15.211],[73.9313,15.211],[73.9313,15.2115],[73.931,15.2115],[73.931,15.2132],[73.9307,15.2132],[73.9307,15.2154],[73.9304,15.2154],[73.9304,15.2165],[73.9301,15.2165],[73.9301,15.2176],[73.9299,15.2176],[73.9299,15.2188],[73.9296,15.2188],[73.9296,15.2199],[73.9293,15.2199],[73.9293,15.2204],[73.929,15.2204],[73.929,15.221],[73.9293,15.221],[73.9293,15.2224],[73.9287,15.2224],[73.9287,15.2229],[73.929,15.2229],[73.929,15.224],[73.9287,15.224],[73.9287,15.2246],[73.9285,15.2246],[73.9285,15.2262],[73.9282,15.2262],[73.9282,15.2268],[73.9279,15.2268],[73.9279,15.2271],[73.9276,15.2271],[73.9276,15.2274],[73.9279,15.2274],[73.9279,15.2279],[73.9276,15.2279],[73.9276,15.2285],[73.9274,15.2285],[73.9274,15.229],[73.9271,15.229],[73.9271,15.2296],[73.9268,15.2296],[73.9268,15.2299],[73.9265,15.2299],[73.9265,15.2304],[73.9262,15.2304],[73.9262,15.231],[73.926,15.231],[73.926,15.2321],[73.9257,15.2321],[73.9257,15.2332],[73.9254,15.2332],[73.9254,15.2343],[73.9251,15.2343],[73.9251,15.2354],[73.9249,15.2354],[73.9249,15.2363],[73.9246,15.2363],[73.9246,15.2374],[73.9243,15.2374],[73.9243,15.2382],[73.924,15.2382],[73.924,15.2393],[73.9238,15.2393],[73.9238,15.2404],[73.9235,15.2404],[73.9235,15.2415],[73.9232,15.2415],[73.9232,15.2426],[73.9229,15.2426],[73.9229,15.2435],[73.9226,15.2435],[73.9226,15.244],[73.9224,15.244],[73.9224,15.2454],[73.9221,15.2454],[73.9221,15.2474],[73.9218,15.2474],[73.9218,15.2482],[73.9215,15.2482],[73.9215,15.2493],[73.9212,15.2493],[73.9212,15.2501],[73.921,15.2501],[73.921,15.251],[73.9207,15.251],[73.9207,15.2521],[73.9204,15.2521],[73.9204,15.2529],[73.9201,15.2529],[73.9201,15.2532],[73.9199,15.2532],[73.9199,15.2538],[73.9196,15.2538],[73.9196,15.2551],[73.9193,15.2551],[73.9193,15.2563],[73.919,15.2563],[73.919,15.2582],[73.9187,15.2582],[73.9187,15.259],[73.9185,15.259],[73.9185,15.2599],[73.9182,15.2599],[73.9182,15.2607],[73.9179,15.2607],[73.9179,15.2618],[73.9176,15.2618],[73.9176,15.2626],[73.9171,15.2626],[73.9171,15.2632],[73.9174,15.2632],[73.9174,15.2635],[73.9168,15.2635],[73.9168,15.2643],[73.9165,15.2643],[73.9165,15.2654],[73.9168,15.2654],[73.9168,15.266],[73.9165,15.266],[73.9165,15.2665],[73.9163,15.2665],[73.9163,15.2674],[73.916,15.2674],[73.916,15.2679],[73.9157,15.2679],[73.9157,15.2685],[73.9154,15.2685],[73.9154,15.2693],[73.9151,15.2693],[73.9151,15.2699],[73.9149,15.2699],[73.9149,15.2715],[73.9146,15.2715],[73.9146,15.2732],[73.9143,15.2732],[73.9143,15.2738],[73.914,15.2738],[73.914,15.2743],[73.9137,15.2743],[73.9137,15.2749],[73.9135,15.2749],[73.9135,15.2754],[73.9132,15.2754],[73.9132,15.276],[73.9129,15.276],[73.9129,15.2765],[73.9126,15.2765],[73.9126,15.2771],[73.9124,15.2771],[73.9124,15.2799],[73.9121,15.2799],[73.9121,15.2807],[73.9118,15.2807],[73.9118,15.2815],[73.9115,15.2815],[73.9115,15.2824],[73.9112,15.2824],[73.9112,15.2832],[73.911,15.2832],[73.911,15.2843],[73.9107,15.2843],[73.9107,15.2854],[73.9104,15.2854],[73.9104,15.286],[73.9099,15.286],[73.9099,15.2882],[73.9096,15.2882],[73.9096,15.289],[73.9093,15.289],[73.9093,15.2901],[73.909,15.2901],[73.909,15.2907],[73.9088,15.2907],[73.9088,15.291],[73.9082,15.291],[73.9082,15.2915],[73.9079,15.2915],[73.9079,15.2926],[73.9076,15.2926],[73.9076,15.2935],[73.9074,15.2935],[73.9074,15.2943],[73.9071,15.2943],[73.9071,15.2951],[73.9068,15.2951],[73.9068,15.296],[73.9065,15.296],[73.9065,15.2968],[73.9063,15.2968],[73.9063,15.2976],[73.906,15.2976],[73.906,15.2988],[73.9057,15.2987],[73.9057,15.2996],[73.9054,15.2996],[73.9054,15.3004],[73.9051,15.3004],[73.9051,15.3013],[73.9049,15.3013],[73.9049,15.3021],[73.9046,15.3021],[73.9046,15.3029],[73.9043,15.3029],[73.9043,15.3038],[73.904,15.3038],[73.904,15.3049],[73.9037,15.3049],[73.9037,15.3057],[73.9035,15.3057],[73.9035,15.3063],[73.9032,15.3062],[73.9032,15.3071],[73.9029,15.3071],[73.9029,15.3079],[73.9026,15.3079],[73.9026,15.3085],[73.9024,15.3085],[73.9024,15.3093],[73.9021,15.3093],[73.9021,15.3101],[73.9018,15.3101],[73.9018,15.311],[73.9015,15.311],[73.9015,15.3118],[73.9013,15.3118],[73.9013,15.3126],[73.901,15.3126],[73.901,15.3132],[73.9007,15.3132],[73.9007,15.314],[73.9004,15.314],[73.9004,15.3149],[73.9001,15.3149],[73.9001,15.3154],[73.8999,15.3154],[73.8999,15.3162],[73.8996,15.3162],[73.8996,15.3165],[73.8993,15.3165],[73.8993,15.3171],[73.8996,15.3171],[73.8996,15.3176],[73.8999,15.3176],[73.8999,15.318],[73.8999,15.3182],[73.8996,15.3182],[73.8996,15.3188],[73.8993,15.3188],[73.8993,15.319],[73.899,15.319],[73.899,15.3196],[73.8988,15.3196],[73.8988,15.3199],[73.8985,15.3199],[73.8985,15.3201],[73.8982,15.3201],[73.8982,15.3215],[73.8979,15.3215],[73.8979,15.3218],[73.8976,15.3218],[73.8976,15.3224],[73.8974,15.3224],[73.8974,15.3232],[73.8971,15.3232],[73.8971,15.3246],[73.8968,15.3246],[73.8968,15.3249],[73.8971,15.3249],[73.8971,15.3251],[73.8968,15.3251],[73.8968,15.3257],[73.8965,15.3257],[73.8965,15.3268],[73.8962,15.3268],[73.8962,15.3274],[73.896,15.3274],[73.896,15.3276],[73.8957,15.3276],[73.8957,15.3282],[73.896,15.3282],[73.896,15.3287],[73.8957,15.3287],[73.8957,15.3296],[73.8954,15.3296],[73.8954,15.3301],[73.8951,15.3301],[73.8951,15.331],[73.8949,15.331],[73.8949,15.3318],[73.8946,15.3318],[73.8946,15.3324],[73.8943,15.3324],[73.8943,15.3329],[73.894,15.3329],[73.894,15.3335],[73.8938,15.3335],[73.8938,15.334],[73.8935,15.334],[73.8935,15.3346],[73.8932,15.3346],[73.8932,15.3351],[73.8929,15.3351],[73.8929,15.3357],[73.8926,15.3357],[73.8926,15.3365],[73.8924,15.3365],[73.8924,15.3374],[73.8921,15.3374],[73.8921,15.3382],[73.8918,15.3382],[73.8918,15.3388],[73.8915,15.3388],[73.8915,15.3396],[73.8913,15.3396],[73.8913,15.3404],[73.891,15.3404],[73.891,15.341],[73.8907,15.341],[73.8907,15.3415],[73.8904,15.3415],[73.8904,15.3421],[73.8901,15.3421],[73.8901,15.3426],[73.8899,15.3426],[73.8899,15.3432],[73.8896,15.3432],[73.8896,15.344],[73.8893,15.344],[73.8893,15.3446],[73.889,15.3446],[73.889,15.3451],[73.8887,15.3451],[73.8887,15.3457],[73.8885,15.3457],[73.8885,15.3463],[73.8882,15.3462],[73.8882,15.3471],[73.8879,15.3471],[73.8879,15.3476],[73.8876,15.3476],[73.8876,15.3482],[73.8874,15.3482],[73.8874,15.3488],[73.8871,15.3488],[73.8871,15.3493],[73.8868,15.3493],[73.8868,15.3499],[73.8865,15.3499],[73.8865,15.3504],[73.8863,15.3504],[73.8863,15.3507],[73.886,15.3507],[73.886,15.3512],[73.8857,15.3512],[73.8857,15.3515],[73.8854,15.3515],[73.8854,15.3521],[73.8851,15.3521],[73.8851,15.3526],[73.8849,15.3526],[73.8849,15.3532],[73.8846,15.3532],[73.8846,15.3538],[73.8843,15.3538],[73.8843,15.3543],[73.884,15.3543],[73.884,15.3549],[73.8838,15.3549],[73.8838,15.3554],[73.8835,15.3554],[73.8835,15.356],[73.8832,15.356],[73.8832,15.3565],[73.8829,15.3565],[73.8829,15.3571],[73.8826,15.3571],[73.8826,15.3574],[73.8824,15.3574],[73.8824,15.3579],[73.8821,15.3579],[73.8821,15.3582],[73.8818,15.3582],[73.8818,15.3588],[73.8815,15.3588],[73.8815,15.359],[73.8812,15.359],[73.8812,15.3596],[73.881,15.3596],[73.881,15.3599],[73.8807,15.3599],[73.8807,15.3604],[73.8804,15.3604],[73.8804,15.3607],[73.8801,15.3607],[73.8801,15.3612],[73.8799,15.3612],[73.8799,15.3615],[73.8796,15.3615],[73.8796,15.3621],[73.8793,15.3621],[73.8793,15.3624],[73.879,15.3624],[73.879,15.3629],[73.8788,15.3629],[73.8788,15.3632],[73.8785,15.3632],[73.8785,15.3638],[73.8782,15.3638],[73.8782,15.364],[73.8779,15.364],[73.8779,15.3646],[73.8776,15.3646],[73.8776,15.3649],[73.8774,15.3649],[73.8774,15.3654],[73.8771,15.3654],[73.8771,15.3657],[73.8768,15.3657],[73.8768,15.3663],[73.8765,15.3662],[73.8765,15.3665],[73.8763,15.3665],[73.8763,15.3671],[73.876,15.3671],[73.876,15.3674],[73.8757,15.3674],[73.8757,15.3676],[73.8754,15.3676],[73.8754,15.3682],[73.8751,15.3682],[73.8751,15.3685],[73.8749,15.3685],[73.8749,15.3688],[73.8746,15.3688],[73.8746,15.369],[73.8743,15.369],[73.8743,15.3693],[73.874,15.3693],[73.874,15.3696],[73.8737,15.3696],[73.8737,15.3699],[73.8735,15.3699],[73.8735,15.3701],[73.8726,15.3701],[73.8726,15.3704],[73.8721,15.3704],[73.8721,15.3707],[73.8699,15.3707],[73.8699,15.3704],[73.8688,15.3704],[73.8688,15.3701],[73.8682,15.3701],[73.8682,15.3699],[73.8646,15.3699],[73.8646,15.3696],[73.8632,15.3696],[73.8632,15.3693],[73.8629,15.3693],[73.8629,15.369],[73.8626,15.369],[73.8626,15.3685],[73.8629,15.3685],[73.8629,15.3679],[73.8632,15.3679],[73.8632,15.3676],[73.8626,15.3676],[73.8626,15.3671],[73.8624,15.3671],[73.8624,15.3665],[73.8621,15.3665],[73.8621,15.3662],[73.8618,15.3663],[73.8618,15.366],[73.861,15.366],[73.861,15.3657],[73.8607,15.3657],[73.8607,15.366],[73.8604,15.366],[73.8604,15.3657],[73.8596,15.3657],[73.8596,15.366],[73.859,15.366],[73.859,15.3663],[73.854,15.3663],[73.854,15.366],[73.8538,15.366],[73.8538,15.3657],[73.8532,15.3657],[73.8532,15.3654],[73.8529,15.3654],[73.8529,15.3649],[73.8526,15.3649],[73.8526,15.364],[73.8524,15.364],[73.8524,15.3615],[73.8521,15.3615],[73.8521,15.3612],[73.8515,15.3612],[73.8515,15.361],[73.8501,15.361],[73.8501,15.3607],[73.8496,15.3607],[73.8496,15.361],[73.8492,15.361],[73.8476,15.361],[73.8476,15.3607],[73.8465,15.3607],[73.8465,15.3604],[73.8432,15.3604],[73.8432,15.3601],[73.8418,15.3601],[73.8418,15.3604],[73.841,15.3604],[73.841,15.3607],[73.8407,15.3607],[73.8407,15.361],[73.8401,15.361],[73.8401,15.3612],[73.8399,15.3612],[73.8399,15.3615],[73.8396,15.3615],[73.8396,15.3618],[73.8388,15.3618],[73.8388,15.3621],[73.8382,15.3621],[73.8382,15.3624],[73.8376,15.3624],[73.8376,15.3629],[73.8371,15.3629],[73.8371,15.3632],[73.8368,15.3632],[73.8368,15.3635],[73.8365,15.3635],[73.8365,15.3649],[73.8363,15.3649],[73.8363,15.3654],[73.836,15.3654],[73.836,15.3657],[73.8357,15.3657],[73.8357,15.3668],[73.8354,15.3668],[73.8354,15.3671],[73.8351,15.3671],[73.8351,15.3679],[73.8349,15.3679],[73.8349,15.3682],[73.8346,15.3682],[73.8346,15.3685],[73.8343,15.3685],[73.8343,15.369],[73.834,15.369],[73.834,15.3696],[73.8335,15.3696],[73.8335,15.3699],[73.8329,15.3699],[73.8329,15.3701],[73.8324,15.3701],[73.8324,15.3704],[73.8318,15.3704],[73.8318,15.3707],[73.8315,15.3707],[73.8315,15.371],[73.8313,15.371],[73.8313,15.3707],[73.8304,15.3707],[73.8304,15.3701],[73.8301,15.3701],[73.8301,15.3699],[73.8296,15.3699],[73.8296,15.3696],[73.8288,15.3696],[73.8288,15.3693],[73.8274,15.3693],[73.8274,15.3696],[73.8262,15.3696],[73.8262,15.3699],[73.8251,15.3699],[73.8251,15.3701],[73.8249,15.3701],[73.8249,15.3704],[73.8243,15.3704],[73.8243,15.3707],[73.824,15.3707],[73.824,15.3704],[73.8238,15.3704],[73.8238,15.3707],[73.8232,15.3707],[73.8232,15.3704],[73.8229,15.3704],[73.8229,15.3707],[73.8221,15.3707],[73.8221,15.3713],[73.8224,15.3713],[73.8224,15.3718],[73.8221,15.3718],[73.8221,15.3721],[73.8218,15.3721],[73.8218,15.3724],[73.8215,15.3724],[73.8215,15.3726],[73.8213,15.3726],[73.8213,15.3729],[73.821,15.3729],[73.821,15.3732],[73.8193,15.3732],[73.8193,15.3729],[73.819,15.3729],[73.819,15.3732],[73.8182,15.3732],[73.8182,15.3735],[73.8168,15.3735],[73.8168,15.3738],[73.8157,15.3738],[73.8157,15.374],[73.8151,15.374],[73.8151,15.3743],[73.8148,15.3743],[73.8148,15.3751],[73.8146,15.3751],[73.8146,15.3757],[73.814,15.3757],[73.814,15.376],[73.8129,15.376],[73.8129,15.3762],[73.8126,15.3762],[73.8126,15.3765],[73.8121,15.3765],[73.8121,15.3762],[73.8118,15.3762],[73.8118,15.3765],[73.811,15.3765],[73.811,15.3762],[73.8107,15.3762],[73.8107,15.3765],[73.8087,15.3765],[73.8087,15.3768],[73.8082,15.3768],[73.8082,15.3774],[73.8079,15.3774],[73.8079,15.3776],[73.8076,15.3776],[73.8076,15.3779],[73.8071,15.3779],[73.8071,15.3785],[73.8068,15.3785],[73.8068,15.379],[73.8071,15.379],[73.8071,15.3799],[73.8074,15.3799],[73.8074,15.3804],[73.8076,15.3804],[73.8076,15.3818],[73.8074,15.3818],[73.8074,15.3832],[73.8076,15.3832],[73.8076,15.386],[73.8074,15.386],[73.8074,15.3901],[73.8071,15.3901],[73.8071,15.3907],[73.8068,15.3907],[73.8068,15.3915],[73.8065,15.3915],[73.8065,15.3921],[73.8063,15.3921],[73.8063,15.3926],[73.806,15.3926],[73.806,15.3929],[73.8057,15.3929],[73.8057,15.3932],[73.8054,15.3932],[73.8054,15.3935],[73.8051,15.3935],[73.8051,15.3938],[73.8049,15.3938],[73.8049,15.394],[73.8043,15.394],[73.8043,15.3946],[73.8037,15.3946],[73.8037,15.3949],[73.8021,15.3949],[73.8021,15.3946],[73.801,15.3946],[73.801,15.3943],[73.7962,15.3943],[73.7962,15.3946],[73.7954,15.3946],[73.7954,15.3943],[73.7949,15.3943],[73.7949,15.394],[73.7943,15.394],[73.7943,15.3938],[73.7932,15.3938],[73.7932,15.394],[73.7918,15.394],[73.7918,15.3943],[73.7915,15.3943],[73.7915,15.394],[73.791,15.394],[73.791,15.3943],[73.7907,15.3943],[73.7907,15.3949],[73.7901,15.3949],[73.7901,15.3951],[73.7899,15.3951],[73.7899,15.3957],[73.7896,15.3957],[73.7896,15.396],[73.7893,15.396],[73.7893,15.3965],[73.789,15.3965],[73.789,15.3974],[73.7893,15.3974],[73.7893,15.3982],[73.7896,15.3982],[73.7896,15.3988],[73.7899,15.3988],[73.7899,15.399],[73.7901,15.399],[73.7901,15.3996],[73.7904,15.3996],[73.7904,15.3999],[73.7901,15.3999],[73.7901,15.4001],[73.7899,15.4001],[73.7899,15.4004],[73.7893,15.4004],[73.7893,15.4007],[73.789,15.4007],[73.789,15.401],[73.7887,15.401],[73.7887,15.4013],[73.7879,15.4013],[73.7879,15.4018],[73.7876,15.4018],[73.7876,15.4021],[73.7874,15.4021],[73.7874,15.4024],[73.7871,15.4024],[73.7871,15.4029],[73.7868,15.4029],[73.7868,15.4037],[73.7865,15.4037],[73.7865,15.4049],[73.7862,15.4049],[73.7862,15.4057],[73.786,15.4057],[73.786,15.4063],[73.7857,15.4063],[73.7857,15.4068],[73.7854,15.4068],[73.7854,15.4071],[73.7846,15.4071],[73.7846,15.4074],[73.784,15.4074],[73.784,15.4076],[73.7838,15.4076],[73.7838,15.4079],[73.7835,15.4079],[73.7835,15.4085],[73.7832,15.4085],[73.7832,15.4087],[73.7829,15.4087],[73.7829,15.4104],[73.7826,15.4104],[73.7826,15.4124],[73.7829,15.4124],[73.7829,15.4129],[73.7832,15.4129],[73.7832,15.4132],[73.7835,15.4132],[73.7835,15.4135],[73.7838,15.4135],[73.7838,15.4137],[73.784,15.4137],[73.784,15.414],[73.7843,15.414],[73.7843,15.4143],[73.7851,15.4143],[73.7851,15.4146],[73.7874,15.4146],[73.7874,15.4143],[73.7879,15.4143],[73.7879,15.414],[73.7885,15.414],[73.7885,15.4137],[73.7887,15.4137],[73.7887,15.414],[73.7893,15.414],[73.7893,15.4143],[73.7899,15.4143],[73.7899,15.4146],[73.7901,15.4146],[73.7901,15.4154],[73.7904,15.4154],[73.7904,15.4168],[73.7907,15.4168],[73.7907,15.4176],[73.791,15.4176],[73.791,15.4179],[73.7913,15.4179],[73.7913,15.4185],[73.7915,15.4185],[73.7915,15.4188],[73.7921,15.4188],[73.7921,15.4185],[73.7924,15.4185],[73.7924,15.4176],[73.7926,15.4176],[73.7926,15.4168],[73.794,15.4168],[73.794,15.4165],[73.7949,15.4165],[73.7949,15.4163],[73.7951,15.4163],[73.7951,15.4151],[73.7954,15.4151],[73.7954,15.4149],[73.7957,15.4149],[73.7957,15.4143],[73.796,15.4143],[73.796,15.4137],[73.7962,15.4137],[73.7962,15.4135],[73.7965,15.4135],[73.7965,15.4132],[73.7968,15.4132],[73.7968,15.4129],[73.7974,15.4129],[73.7974,15.4126],[73.7979,15.4126],[73.7979,15.4124],[73.8004,15.4124],[73.8004,15.4121],[73.801,15.4121],[73.801,15.4118],[73.8012,15.4118],[73.8012,15.4115],[73.8018,15.4115],[73.8018,15.4113],[73.8021,15.4113],[73.8021,15.4104],[73.8024,15.4104],[73.8024,15.4099],[73.8037,15.4099],[73.8037,15.4096],[73.804,15.4096],[73.804,15.4093],[73.8043,15.4093],[73.8043,15.409],[73.8049,15.409],[73.8049,15.4082],[73.8051,15.4082],[73.8051,15.4079],[73.8063,15.4079],[73.8063,15.4076],[73.8065,15.4076],[73.8065,15.4074],[73.8068,15.4074],[73.8068,15.4071],[73.8074,15.4071],[73.8074,15.4068],[73.8076,15.4068],[73.8076,15.4065],[73.8079,15.4065],[73.8079,15.4063],[73.8082,15.4063],[73.8082,15.4057],[73.8085,15.4057],[73.8085,15.4051],[73.8087,15.4051],[73.8087,15.4046],[73.809,15.4046],[73.809,15.4039],[73.809,15.4026],[73.8093,15.4026],[73.8093,15.401],[73.811,15.401],[73.811,15.4013],[73.8118,15.4013],[73.8118,15.4015],[73.8123,15.4015],[73.8124,15.4018],[73.8132,15.4018],[73.8132,15.4021],[73.8135,15.4021],[73.8135,15.4024],[73.8138,15.4024],[73.8138,15.4026],[73.8143,15.4026],[73.8143,15.4029],[73.8149,15.4029],[73.8149,15.4032],[73.8154,15.4032],[73.8154,15.4035],[73.8157,15.4035],[73.8157,15.4037],[73.816,15.4037],[73.816,15.404],[73.8162,15.404],[73.8162,15.4043],[73.8165,15.4043],[73.8165,15.4051],[73.8163,15.4051],[73.8163,15.4071],[73.8165,15.4071],[73.8165,15.4076],[73.8162,15.4076],[73.8162,15.4085],[73.816,15.4085],[73.816,15.4104],[73.8165,15.4104],[73.8165,15.4107],[73.8168,15.4107],[73.8168,15.411],[73.8187,15.411],[73.8187,15.4107],[73.8196,15.4107],[73.8196,15.4104],[73.8213,15.4104],[73.8213,15.4101],[73.8221,15.4101],[73.8221,15.4096],[73.8226,15.4096],[73.8226,15.4093],[73.8232,15.4093],[73.8232,15.4082],[73.8235,15.4082],[73.8235,15.4079],[73.8232,15.4079],[73.8232,15.4076],[73.8235,15.4076],[73.8235,15.4057],[73.8238,15.4057],[73.8238,15.4054],[73.8246,15.4054],[73.8249,15.4054],[73.8249,15.4051],[73.8262,15.4051],[73.8262,15.4049],[73.8265,15.4049],[73.8265,15.4046],[73.8268,15.4046],[73.8268,15.4043],[73.8271,15.4043],[73.8271,15.4037],[73.8274,15.4037],[73.8274,15.4035],[73.8282,15.4035],[73.8282,15.4043],[73.8279,15.4043],[73.8279,15.4049],[73.8276,15.4049],[73.8276,15.4065],[73.8279,15.4065],[73.8279,15.4068],[73.8282,15.4068],[73.8282,15.4071],[73.8293,15.4071],[73.8293,15.4074],[73.8296,15.4074],[73.8296,15.4071],[73.8301,15.4071],[73.8301,15.4068],[73.831,15.4068],[73.831,15.4065],[73.8324,15.4065],[73.8324,15.4068],[73.8329,15.4068],[73.8329,15.4074],[73.8332,15.4074],[73.8332,15.4079],[73.8335,15.4079],[73.8335,15.4082],[73.8337,15.4082],[73.8337,15.4096],[73.834,15.4096],[73.834,15.4099],[73.8346,15.4099],[73.8346,15.4101],[73.8357,15.4101],[73.8357,15.4099],[73.8363,15.4099],[73.8363,15.4101],[73.8374,15.4101],[73.8374,15.4104],[73.8382,15.4104],[73.8382,15.4107],[73.8393,15.4107],[73.8393,15.411],[73.8396,15.411],[73.8396,15.4107],[73.8407,15.4107],[73.8407,15.4104],[73.8412,15.4104],[73.8412,15.4101],[73.8415,15.4101],[73.8415,15.4096],[73.8418,15.4096],[73.8418,15.4093],[73.8426,15.4093],[73.8426,15.409],[73.8432,15.409],[73.8432,15.4087],[73.844,15.4087],[73.844,15.4085],[73.8443,15.4085],[73.8443,15.4076],[73.8446,15.4076],[73.8446,15.4063],[73.8449,15.4063],[73.8449,15.4054],[73.8451,15.4054],[73.8451,15.4049],[73.8449,15.4049],[73.8449,15.4037],[73.8451,15.4037],[73.8451,15.4035],[73.8446,15.4035],[73.8446,15.4032],[73.8449,15.4032],[73.8449,15.4026],[73.8446,15.4026],[73.8446,15.4024],[73.844,15.4024],[73.844,15.4018],[73.8443,15.4018],[73.8443,15.4015],[73.8446,15.4015],[73.8446,15.401],[73.8449,15.401],[73.8449,15.4004],[73.8451,15.4004],[73.8451,15.4001],[73.8454,15.4001],[73.8454,15.3999],[73.8463,15.3999],[73.8463,15.3996],[73.8476,15.3996],[73.8476,15.3999],[73.849,15.3999],[73.849,15.4001],[73.8496,15.4001],[73.8496,15.4007],[73.8499,15.4007],[73.8499,15.401],[73.8501,15.401],[73.8501,15.4015],[73.8504,15.4015],[73.8504,15.4018],[73.8518,15.4018],[73.8518,15.4021],[73.8526,15.4021],[73.8526,15.4018],[73.8535,15.4018],[73.8535,15.4015],[73.854,15.4015],[73.854,15.4013],[73.8549,15.4013],[73.8549,15.401],[73.8557,15.401],[73.8557,15.4007],[73.8562,15.4007],[73.8562,15.4004],[73.8565,15.4004],[73.8565,15.4001],[73.8571,15.4001],[73.8571,15.3999],[73.8576,15.3999],[73.8576,15.3996],[73.8579,15.3996],[73.8579,15.399],[73.8582,15.399],[73.8582,15.3988],[73.8585,15.3988],[73.8585,15.399],[73.8587,15.399],[73.8587,15.3985],[73.859,15.3985],[73.859,15.3988],[73.8593,15.3988],[73.8593,15.399],[73.8596,15.399],[73.8596,15.3993],[73.8599,15.3993],[73.8599,15.3996],[73.8601,15.3996],[73.8601,15.3999],[73.8604,15.3999],[73.8604,15.4001],[73.8607,15.4001],[73.8607,15.4004],[73.8608,15.4004],[73.861,15.4004],[73.861,15.4007],[73.8613,15.4007],[73.8613,15.4013],[73.8618,15.4013],[73.8618,15.4015],[73.8626,15.4015],[73.8626,15.4021],[73.8635,15.4021],[73.8635,15.4024],[73.8646,15.4024],[73.8649,15.4024],[73.8649,15.4025],[73.8649,15.4029],[73.8651,15.4029],[73.8651,15.4026],[73.8654,15.4026],[73.8654,15.4024],[73.8674,15.4024],[73.8674,15.4021],[73.8679,15.4021],[73.8679,15.4018],[73.8688,15.4018],[73.8688,15.4015],[73.8693,15.4015],[73.8693,15.4013],[73.8701,15.4013],[73.8701,15.4007],[73.871,15.4007],[73.871,15.4004],[73.8715,15.4004],[73.8715,15.3999],[73.8718,15.3999],[73.8718,15.3988],[73.8712,15.3988],[73.8712,15.3985],[73.871,15.3985],[73.871,15.3979],[73.8712,15.3979],[73.8712,15.3974],[73.8715,15.3974],[73.8715,15.3971],[73.8721,15.3971],[73.8721,15.3968],[73.874,15.3968],[73.874,15.3971],[73.8751,15.3971],[73.8751,15.3974],[73.8754,15.3974],[73.8754,15.3971],[73.8757,15.3971],[73.8757,15.3968],[73.8768,15.3968],[73.8768,15.3971],[73.8771,15.3971],[73.8771,15.3974],[73.8774,15.3974],[73.8774,15.3979],[73.8776,15.3979],[73.8776,15.3982],[73.8785,15.3982],[73.8785,15.3985],[73.8787,15.3985],[73.8787,15.3988],[73.879,15.3988],[73.879,15.399],[73.8804,15.399],[73.8804,15.3988],[73.8807,15.3988],[73.8807,15.3985],[73.8826,15.3985],[73.8826,15.3988],[73.8829,15.3988],[73.8829,15.399],[73.8832,15.399],[73.8832,15.3993],[73.8835,15.3993],[73.8835,15.3996],[73.8838,15.3996],[73.8838,15.3999],[73.884,15.3999],[73.884,15.4001],[73.8843,15.4001],[73.8843,15.4007],[73.8846,15.4007],[73.8846,15.401],[73.8849,15.401],[73.8849,15.4013],[73.8851,15.4013],[73.8851,15.4015],[73.8854,15.4015],[73.8854,15.4018],[73.8857,15.4018],[73.8857,15.4024],[73.8865,15.4024],[73.8865,15.4026],[73.8868,15.4026],[73.8868,15.4049],[73.8865,15.4049],[73.8865,15.406],[73.8863,15.406],[73.8863,15.4063],[73.8871,15.4063],[73.8871,15.4065],[73.8879,15.4065],[73.8879,15.4076],[73.8885,15.4076],[73.8885,15.4079],[73.8896,15.4079],[73.8896,15.4076],[73.8904,15.4076],[73.8904,15.4079],[73.8907,15.4079],[73.8907,15.4082],[73.891,15.4082],[73.891,15.4085],[73.8915,15.4085],[73.8915,15.4087],[73.8921,15.4087],[73.8921,15.4085],[73.8924,15.4085],[73.8924,15.4087],[73.8926,15.4087],[73.8926,15.4085],[73.8932,15.4085],[73.8932,15.4082],[73.8938,15.4082],[73.8938,15.4079],[73.894,15.4079],[73.894,15.4076],[73.8946,15.4076],[73.8946,15.4074],[73.8949,15.4074],[73.8949,15.4082],[73.8951,15.4082],[73.8951,15.4093],[73.8954,15.4093],[73.8954,15.4104],[73.8957,15.4104],[73.8957,15.4113],[73.896,15.4113],[73.896,15.4124],[73.8962,15.4124],[73.8962,15.4135],[73.8965,15.4135],[73.8965,15.4146],[73.8968,15.4146],[73.8968,15.4149],[73.8965,15.4149],[73.8965,15.4151],[73.8963,15.4151],[73.8963,15.4154],[73.896,15.4154],[73.896,15.416],[73.8957,15.416],[73.8957,15.4165],[73.8954,15.4165],[73.8954,15.4168],[73.8949,15.4168],[73.8949,15.4176],[73.8946,15.4176],[73.8946,15.4179],[73.8943,15.4179],[73.8943,15.4185],[73.8938,15.4185],[73.8938,15.4188],[73.8935,15.4188],[73.8935,15.419],[73.8932,15.419],[73.8932,15.4196],[73.8929,15.4196],[73.8929,15.4204],[73.8926,15.4204],[73.8926,15.4213],[73.8921,15.4213],[73.8921,15.4224],[73.8918,15.4224],[73.8918,15.4229],[73.8915,15.4229],[73.8915,15.4235],[73.8913,15.4235],[73.8913,15.424],[73.891,15.424],[73.891,15.4246],[73.8907,15.4246],[73.8907,15.4249],[73.8904,15.4249],[73.8904,15.4251],[73.8901,15.4251],[73.8901,15.4257],[73.8896,15.4257],[73.8896,15.4261],[73.8896,15.4263],[73.8893,15.4263],[73.8893,15.4268],[73.889,15.4268],[73.889,15.4271],[73.8887,15.4271],[73.8887,15.4274],[73.8885,15.4274],[73.8885,15.4282],[73.8882,15.4282],[73.8882,15.4285],[73.8879,15.4285],[73.8879,15.429],[73.8876,15.429],[73.8876,15.4299],[73.8874,15.4299],[73.8874,15.4301],[73.8868,15.4301],[73.8868,15.4304],[73.8874,15.4304],[73.8874,15.4307],[73.8871,15.4307],[73.8871,15.431],[73.8865,15.431],[73.8865,15.4313],[73.8863,15.4313],[73.8863,15.4315],[73.8857,15.4315],[73.8857,15.4318],[73.8854,15.4318],[73.8854,15.4321],[73.8849,15.4321],[73.8849,15.4324],[73.8843,15.4324],[73.8843,15.4327],[73.8824,15.4327],[73.8824,15.4329],[73.8818,15.4329],[73.8818,15.4327],[73.8804,15.4327],[73.8804,15.4329],[73.8801,15.4329],[73.8801,15.4327],[73.8796,15.4327],[73.8796,15.4329],[73.8793,15.4329],[73.8793,15.4327],[73.879,15.4327],[73.879,15.4324],[73.8785,15.4324],[73.8785,15.4321],[73.8779,15.4321],[73.8779,15.4315],[73.8774,15.4315],[73.8774,15.4313],[73.8771,15.4313],[73.8771,15.431],[73.8765,15.431],[73.8765,15.4307],[73.8757,15.4307],[73.8757,15.4304],[73.8754,15.4304],[73.8754,15.4307],[73.8749,15.4307],[73.8749,15.431],[73.8743,15.431],[73.8743,15.4307],[73.8737,15.4307],[73.8737,15.431],[73.8732,15.431],[73.8732,15.4313],[73.8726,15.4313],[73.8726,15.4315],[73.8724,15.4315],[73.8724,15.4313],[73.8721,15.4313],[73.8721,15.4315],[73.871,15.4315],[73.8707,15.4315],[73.8707,15.4313],[73.8688,15.4313],[73.8688,15.431],[73.8679,15.431],[73.8679,15.4307],[73.8676,15.4307],[73.8676,15.4304],[73.8674,15.4304],[73.8674,15.4301],[73.8671,15.4301],[73.8671,15.4296],[73.8662,15.4296],[73.8662,15.4293],[73.8654,15.4293],[73.8654,15.429],[73.8651,15.429],[73.8651,15.4288],[73.8646,15.4288],[73.8646,15.4285],[73.8615,15.4285],[73.8615,15.4296],[73.8618,15.4296],[73.8618,15.4304],[73.8621,15.4304],[73.8621,15.4313],[73.8618,15.4313],[73.8618,15.4327],[73.8615,15.4326],[73.8615,15.4332],[73.8613,15.4332],[73.8613,15.4338],[73.861,15.4338],[73.861,15.434],[73.8607,15.434],[73.8607,15.4343],[73.8604,15.4343],[73.8604,15.4349],[73.8602,15.4349],[73.8602,15.4376],[73.8604,15.4376],[73.8604,15.4379],[73.8602,15.4379],[73.8602,15.4401],[73.8599,15.4401],[73.8599,15.441],[73.8596,15.441],[73.8596,15.4415],[73.8593,15.4415],[73.8593,15.4421],[73.8585,15.4421],[73.8585,15.4424],[73.8582,15.4424],[73.8582,15.4426],[73.8576,15.4426],[73.8576,15.4429],[73.8565,15.4429],[73.8565,15.4435],[73.8557,15.4435],[73.8557,15.4438],[73.8554,15.4438],[73.8554,15.4446],[73.8551,15.4446],[73.8551,15.4451],[73.8549,15.4451],[73.8549,15.4457],[73.8538,15.4457],[73.8538,15.4463],[73.8535,15.4463],[73.8535,15.4465],[73.8532,15.4465],[73.8532,15.4468],[73.8529,15.4468],[73.8529,15.4474],[73.8526,15.4474],[73.8526,15.4485],[73.8521,15.4485],[73.8521,15.449],[73.8518,15.449],[73.8518,15.4496],[73.8515,15.4496],[73.8515,15.4497],[73.8515,15.4499],[73.8512,15.4499],[73.8512,15.4501],[73.851,15.4501],[73.851,15.4504],[73.8507,15.4504],[73.8507,15.4507],[73.8501,15.4507],[73.8501,15.4513],[73.8499,15.4513],[73.8499,15.4515],[73.8493,15.4515],[73.8493,15.4518],[73.849,15.4518],[73.849,15.4521],[73.8476,15.4521],[73.8476,15.4524],[73.8465,15.4524],[73.8465,15.4521],[73.846,15.4521],[73.846,15.4515],[73.8457,15.4515],[73.8457,15.4518],[73.8454,15.4518],[73.8454,15.4515],[73.8446,15.4515],[73.8446,15.4513],[73.844,15.4513],[73.844,15.451],[73.8432,15.451],[73.8432,15.4507],[73.8429,15.4507],[73.8429,15.4504],[73.8426,15.4504],[73.8426,15.4488],[73.8424,15.4488],[73.8424,15.4482],[73.8421,15.4482],[73.8421,15.4476],[73.8407,15.4476],[73.8407,15.4479],[73.8404,15.4479],[73.8404,15.4482],[73.8401,15.4482],[73.8401,15.4485],[73.8396,15.4485],[73.8396,15.4488],[73.8393,15.4488],[73.8393,15.449],[73.8388,15.449],[73.8388,15.4496],[73.8385,15.4496],[73.8385,15.4499],[73.8388,15.4499],[73.8388,15.4501],[73.8388,15.4501],[73.8385,15.4501],[73.8382,15.4501],[73.8382,15.4503],[73.8382,15.4504],[73.8379,15.4504],[73.8379,15.4507],[73.8374,15.4507],[73.8374,15.451],[73.8371,15.451],[73.8371,15.4513],[73.8368,15.4513],[73.8368,15.451],[73.8361,15.451],[73.836,15.451],[73.836,15.4507],[73.8357,15.4507],[73.8357,15.451],[73.8354,15.451],[73.8354,15.4507],[73.8351,15.4507],[73.8351,15.451],[73.8349,15.451],[73.8349,15.4507],[73.834,15.4507],[73.834,15.4513],[73.8329,15.4513],[73.8329,15.4515],[73.8324,15.4515],[73.8323,15.4518],[73.8321,15.4518],[73.8321,15.4521],[73.8315,15.4521],[73.8315,15.4524],[73.831,15.4524],[73.831,15.4526],[73.8307,15.4526],[73.8307,15.4529],[73.8301,15.4529],[73.8301,15.4532],[73.8296,15.4532],[73.8296,15.4535],[73.8293,15.4535],[73.8293,15.4532],[73.8288,15.4532],[73.8288,15.4529],[73.8274,15.4529],[73.8274,15.4532],[73.8268,15.4532],[73.8268,15.4535],[73.8262,15.4535],[73.8262,15.4538],[73.8257,15.4538],[73.8257,15.454],[73.8249,15.454],[73.8249,15.4543],[73.8246,15.4543],[73.8246,15.454],[73.8243,15.454],[73.8243,15.4543],[73.8229,15.4543],[73.8229,15.454],[73.8187,15.454],[73.8187,15.4538],[73.8182,15.4538],[73.8182,15.4535],[73.8179,15.4535],[73.8179,15.4532],[73.8176,15.4532],[73.8176,15.453],[73.8176,15.4526],[73.8165,15.4526],[73.8165,15.4524],[73.816,15.4524],[73.816,15.4531],[73.816,15.4532],[73.8157,15.4532],[73.8157,15.4538],[73.8154,15.4538],[73.8154,15.454],[73.8151,15.454],[73.8151,15.4543],[73.8149,15.4543],[73.8149,15.4546],[73.8143,15.4546],[73.8143,15.4549],[73.814,15.4549],[73.814,15.4551],[73.8135,15.4551],[73.8135,15.4554],[73.8124,15.4554],[73.8124,15.4557],[73.8121,15.4557],[73.8121,15.4554],[73.8112,15.4554],[73.8112,15.4551],[73.8107,15.4551],[73.8107,15.4549],[73.8104,15.4549],[73.8104,15.4546],[73.8099,15.4546],[73.8099,15.4549],[73.8096,15.4549],[73.8096,15.4546],[73.8093,15.4546],[73.8093,15.4543],[73.809,15.4543],[73.809,15.454],[73.8082,15.454],[73.8082,15.4538],[73.8071,15.4538],[73.8071,15.454],[73.8065,15.454],[73.8065,15.4543],[73.8051,15.4543],[73.8051,15.454],[73.8037,15.454],[73.8037,15.4532],[73.8035,15.4532],[73.8035,15.4518],[73.8037,15.4518],[73.8037,15.4507],[73.804,15.4507],[73.804,15.4499],[73.8032,15.4499],[73.8032,15.4501],[73.8029,15.4501],[73.8029,15.4504],[73.8024,15.4504],[73.8024,15.451],[73.8021,15.451],[73.8021,15.4515],[73.8015,15.4515],[73.8015,15.4518],[73.8012,15.4518],[73.8012,15.4521],[73.8007,15.4521],[73.8007,15.4524],[73.801,15.4524],[73.801,15.4529],[73.8007,15.4529],[73.8007,15.4532],[73.8004,15.4532],[73.8004,15.4535],[73.8001,15.4535],[73.8001,15.4538],[73.7988,15.4538],[73.7988,15.4543],[73.7979,15.4543],[73.7979,15.4549],[73.7974,15.4549],[73.7974,15.4554],[73.7971,15.4554],[73.7971,15.4557],[73.7962,15.4557],[73.7962,15.456],[73.7957,15.456],[73.7957,15.4565],[73.7954,15.4565],[73.7954,15.4568],[73.7951,15.4568],[73.7951,15.4574],[73.7946,15.4574],[73.7946,15.4579],[73.794,15.4579],[73.794,15.4582],[73.7937,15.4582],[73.7937,15.4585],[73.7932,15.4585],[73.7932,15.4588],[73.7929,15.4588],[73.7929,15.459],[73.7921,15.459],[73.7921,15.4593],[73.7915,15.4593],[73.7915,15.4596],[73.7913,15.4596],[73.7913,15.4601],[73.791,15.4601],[73.791,15.4607],[73.7907,15.4607],[73.7907,15.461],[73.7901,15.461],[73.7901,15.4613],[73.7896,15.4613],[73.7896,15.461],[73.789,15.461],[73.789,15.4613],[73.7879,15.4613],[73.7879,15.4615],[73.7876,15.4615],[73.7876,15.4621],[73.7874,15.4621],[73.7874,15.4629],[73.7871,15.4629],[73.7871,15.4643],[73.7874,15.4643],[73.7874,15.4646],[73.7876,15.4646],[73.7876,15.4649],[73.7882,15.4649],[73.7882,15.4651],[73.7901,15.4651],[73.7901,15.4649],[73.7907,15.4649],[73.7907,15.4646],[73.7913,15.4646],[73.7913,15.4643],[73.7915,15.4643],[73.7915,15.464],[73.7921,15.464],[73.7921,15.4638],[73.7926,15.4638],[73.7926,15.4635],[73.7929,15.4635],[73.7929,15.4632],[73.7932,15.4632],[73.7932,15.4629],[73.7935,15.4629],[73.7935,15.4626],[73.7943,15.4626],[73.7943,15.4624],[73.7946,15.4624],[73.7946,15.4621],[73.7949,15.4621],[73.7949,15.4618],[73.7951,15.4618],[73.7951,15.4615],[73.7957,15.4615],[73.7957,15.4613],[73.7962,15.4613],[73.7962,15.461],[73.7968,15.461],[73.7968,15.4607],[73.7971,15.4607],[73.7971,15.4604],[73.7979,15.4604],[73.7979,15.4601],[73.7988,15.4601],[73.7988,15.4604],[73.8001,15.4604],[73.8001,15.4607],[73.801,15.4607],[73.801,15.461],[73.8012,15.461],[73.8012,15.4613],[73.8015,15.4613],[73.8015,15.4615],[73.8018,15.4615],[73.8018,15.4618],[73.8021,15.4618],[73.8021,15.4624],[73.8024,15.4624],[73.8024,15.4626],[73.8026,15.4626],[73.8026,15.4629],[73.8029,15.4629],[73.8029,15.4632],[73.8032,15.4632],[73.8032,15.4638],[73.8035,15.4637],[73.8035,15.4639],[73.8035,15.464],[73.8037,15.464],[73.8037,15.4646],[73.804,15.4646],[73.804,15.4649],[73.8043,15.4649],[73.8043,15.4651],[73.8046,15.4651],[73.8046,15.4657],[73.8049,15.4657],[73.8049,15.4665],[73.8051,15.4665],[73.8051,15.4674],[73.8054,15.4674],[73.8054,15.4679],[73.8057,15.4679],[73.8057,15.4688],[73.806,15.4688],[73.806,15.4696],[73.8063,15.4696],[73.8063,15.4729],[73.8065,15.4729],[73.8065,15.4732],[73.8068,15.4732],[73.8068,15.4746],[73.8071,15.4746],[73.8071,15.476],[73.8068,15.476],[73.8068,15.4765],[73.8065,15.4765],[73.8065,15.4768],[73.8068,15.4768],[73.8068,15.4779],[73.8071,15.4779],[73.8071,15.479],[73.8074,15.479],[73.8074,15.4793],[73.8071,15.4793],[73.8071,15.481],[73.8068,15.481],[73.8068,15.4813],[73.8063,15.4812],[73.8063,15.4821],[73.806,15.4821],[73.806,15.4832],[73.8063,15.4832],[73.8063,15.484],[73.8065,15.484],[73.8065,15.4849],[73.8071,15.4849],[73.8071,15.4851],[73.8074,15.4851],[73.8074,15.486],[73.8071,15.486],[73.8071,15.4871],[73.8068,15.4871],[73.8068,15.4885],[73.8065,15.4885],[73.8065,15.4899],[73.8063,15.4899],[73.8063,15.491],[73.806,15.491],[73.806,15.4924],[73.8057,15.4924],[73.8057,15.4934],[73.8057,15.4937],[73.8054,15.4937],[73.8054,15.4949],[73.8046,15.4949],[73.8046,15.4951],[73.8035,15.4951],[73.8035,15.4954],[73.8012,15.4954],[73.8012,15.4957],[73.801,15.4957],[73.801,15.496],[73.8001,15.496],[73.8001,15.4963],[73.7988,15.4963],[73.7988,15.4968],[73.7982,15.4968],[73.7982,15.4971],[73.7979,15.4971],[73.7979,15.4974],[73.7974,15.4974],[73.7974,15.4976],[73.7971,15.4976],[73.7971,15.4979],[73.7968,15.4979],[73.7968,15.4982],[73.7962,15.4982],[73.7962,15.4985],[73.7949,15.4985],[73.7949,15.4982],[73.7946,15.4982],[73.7946,15.4985],[73.794,15.4985],[73.794,15.4988],[73.7935,15.4987],[73.7935,15.499],[73.7932,15.499],[73.7932,15.4993],[73.7921,15.4993],[73.7921,15.4996],[73.7904,15.4996],[73.7904,15.4999],[73.7901,15.4999],[73.7901,15.4996],[73.7899,15.4996],[73.7899,15.4999],[73.7893,15.4999],[73.7893,15.4996],[73.789,15.4996],[73.789,15.4999],[73.7887,15.4999],[73.7887,15.4996],[73.7885,15.4996],[73.7885,15.4993],[73.7879,15.4993],[73.7879,15.499],[73.7871,15.499],[73.7871,15.4987],[73.7868,15.4988],[73.7868,15.4985],[73.7865,15.4985],[73.7865,15.4982],[73.7862,15.4982],[73.7862,15.4976],[73.7857,15.4976],[73.7857,15.4971],[73.786,15.4971],[73.786,15.4965],[73.7862,15.4965],[73.7862,15.4963],[73.7868,15.4963],[73.7868,15.496],[73.7874,15.496],[73.7874,15.4957],[73.7879,15.4957],[73.7879,15.4954],[73.7882,15.4954],[73.7882,15.4951],[73.7879,15.4951],[73.7879,15.4943],[73.7876,15.4943],[73.7876,15.494],[73.7874,15.494],[73.7874,15.4937],[73.7871,15.4937],[73.7871,15.4932],[73.7865,15.4932],[73.7865,15.4929],[73.7862,15.4929],[73.7862,15.4926],[73.7857,15.4926],[73.7857,15.4924],[73.7854,15.4924],[73.7854,15.4926],[73.7835,15.4926],[73.7835,15.4924],[73.7824,15.4924],[73.7824,15.4921],[73.7813,15.4921],[73.7813,15.4918],[73.781,15.4918],[73.781,15.4921],[73.7799,15.4921],[73.7799,15.4926],[73.7796,15.4926],[73.7796,15.4924],[73.7793,15.4924],[73.7793,15.4926],[73.7787,15.4926],[73.7787,15.4924],[73.7779,15.4924],[73.7779,15.4921],[73.7774,15.4921],[73.7774,15.4918],[73.7769,15.4918],[73.7768,15.4918],[73.7768,15.4913],[73.7765,15.4913],[73.7765,15.491],[73.776,15.491],[73.776,15.4904],[73.7757,15.4904],[73.7757,15.4901],[73.7751,15.4901],[73.7751,15.4899],[73.7718,15.4899],[73.7718,15.4901],[73.7707,15.4901],[73.7707,15.4904],[73.7685,15.4904],[73.7685,15.4907],[73.7679,15.4907],[73.7679,15.491],[73.7676,15.491],[73.7676,15.4915],[73.7674,15.4915],[73.7674,15.4924],[73.7671,15.4924],[73.7671,15.4935],[73.7668,15.4935],[73.7668,15.4937],[73.7663,15.4937],[73.7663,15.494],[73.7651,15.494],[73.7651,15.4943],[73.7649,15.4943],[73.7649,15.4946],[73.7646,15.4946],[73.7646,15.4951],[73.7643,15.4951],[73.7643,15.4965],[73.764,15.4965],[73.764,15.4968],[73.7643,15.4968],[73.7643,15.4979],[73.7646,15.4979],[73.7646,15.4982],[73.7654,15.4982],[73.7654,15.4985],[73.766,15.4985],[73.766,15.499],[73.7665,15.499],[73.7665,15.4993],[73.7668,15.4993],[73.7668,15.4999],[73.7671,15.4999],[73.7671,15.5004],[73.7668,15.5004],[73.7668,15.5015],[73.7665,15.5015],[73.7665,15.5038],[73.7663,15.5038],[73.7663,15.5043],[73.766,15.5043],[73.766,15.5051],[73.7663,15.5051],[73.7663,15.5057],[73.766,15.5057],[73.766,15.506],[73.7663,15.506],[73.7663,15.5065],[73.766,15.5065],[73.766,15.5068],[73.7654,15.5068],[73.7654,15.5071],[73.7651,15.5071],[73.7651,15.5074],[73.7649,15.5074],[73.7649,15.5096],[73.7646,15.5096],[73.7646,15.5101],[73.7643,15.5101],[73.7643,15.5113],[73.764,15.5113],[73.764,15.5118],[73.7637,15.5118],[73.7637,15.5124],[73.764,15.5124],[73.764,15.5126],[73.7637,15.5126],[73.7637,15.514],[73.7635,15.514],[73.7635,15.5151],[73.7632,15.5151],[73.7632,15.5165],[73.7629,15.5165],[73.7629,15.5174],[73.7626,15.5174],[73.7626,15.5176],[73.7624,15.5176],[73.7624,15.5179],[73.7621,15.5179],[73.7621,15.5185],[73.7618,15.5185],[73.7618,15.5188],[73.7621,15.5188],[73.7621,15.5199],[73.7618,15.5199],[73.7618,15.5204],[73.7615,15.5204],[73.7615,15.5215],[73.7613,15.5215],[73.7613,15.5221],[73.761,15.5221],[73.761,15.5232],[73.7607,15.5232],[73.7607,15.5246],[73.7604,15.5246],[73.7604,15.5249],[73.7601,15.5249],[73.7601,15.5257],[73.7604,15.5257],[73.7604,15.5263],[73.7601,15.5263],[73.7601,15.5265],[73.7599,15.5265],[73.7599,15.5268],[73.7596,15.5268],[73.7596,15.5288],[73.7593,15.5288],[73.7593,15.5296],[73.759,15.5296],[73.759,15.5299],[73.7588,15.5299],[73.7588,15.5307],[73.7585,15.5307],[73.7585,15.5313],[73.7582,15.5313],[73.7582,15.5329],[73.7579,15.5329],[73.7579,15.5338],[73.7576,15.5338],[73.7576,15.5354],[73.7574,15.5354],[73.7574,15.5363],[73.7571,15.5363],[73.7571,15.5365],[73.7568,15.5365],[73.7568,15.5371],[73.7565,15.5371],[73.7565,15.5385],[73.7568,15.5385],[73.7568,15.5393],[73.7562,15.5393],[73.7562,15.5396],[73.756,15.5396],[73.756,15.5404],[73.7557,15.5404],[73.7557,15.5418],[73.7554,15.5418],[73.7554,15.5429],[73.7551,15.5429],[73.7551,15.5437],[73.7549,15.5437],[73.7549,15.5457],[73.7546,15.5457],[73.7546,15.5463],[73.754,15.5463],[73.754,15.5476],[73.7537,15.5476],[73.7537,15.5487],[73.7535,15.5487],[73.7535,15.549],[73.7532,15.549],[73.7532,15.5501],[73.7529,15.5501],[73.7529,15.5513],[73.7526,15.5513],[73.7526,15.5521],[73.7524,15.5521],[73.7524,15.5526],[73.7521,15.5526],[73.7521,15.5538],[73.7518,15.5538],[73.7518,15.5543],[73.7515,15.5543],[73.7515,15.5549],[73.7513,15.5549],[73.7513,15.5571],[73.751,15.5571],[73.751,15.5576],[73.7507,15.5576],[73.7507,15.5585],[73.7504,15.5585],[73.7504,15.559],[73.7501,15.559],[73.7501,15.5593],[73.7499,15.5593],[73.7499,15.5599],[73.7496,15.5599],[73.7496,15.5604],[73.7493,15.5604],[73.7493,15.5607],[73.7487,15.5607],[73.7487,15.5613],[73.7485,15.5613],[73.7485,15.5615],[73.7479,15.5615],[73.7479,15.5618],[73.7474,15.5618],[73.7474,15.5615],[73.7465,15.5615],[73.7465,15.5613],[73.7462,15.5613],[73.7462,15.561],[73.7451,15.561],[73.7451,15.5607],[73.7449,15.5607],[73.7449,15.561],[73.7446,15.561],[73.7446,15.5613],[73.7443,15.5613],[73.7443,15.5615],[73.744,15.5615],[73.744,15.5618],[73.7438,15.5618],[73.7438,15.5621],[73.7435,15.5621],[73.7435,15.5624],[73.7432,15.5624],[73.7432,15.5626],[73.7429,15.5626],[73.7429,15.5629],[73.7426,15.5629],[73.7426,15.5632],[73.7412,15.5632],[73.7412,15.5635],[73.741,15.5635],[73.741,15.5643],[73.7407,15.5643],[73.7407,15.5651],[73.7404,15.5651],[73.7404,15.5654],[73.7407,15.5654],[73.7407,15.5657],[73.741,15.5657],[73.741,15.566],[73.7412,15.566],[73.7412,15.5663],[73.7415,15.5663],[73.7415,15.5665],[73.7412,15.5665],[73.7412,15.5671],[73.741,15.5671],[73.741,15.5676],[73.7407,15.5676],[73.7407,15.5682],[73.741,15.5682],[73.741,15.5693],[73.7412,15.5693],[73.7412,15.5699],[73.7415,15.5699],[73.7415,15.5701],[73.7418,15.5701],[73.7418,15.5707],[73.7415,15.5707],[73.7415,15.5712],[73.7412,15.5712],[73.7412,15.5715],[73.741,15.5715],[73.741,15.5721],[73.7407,15.5721],[73.7407,15.5729],[73.7404,15.5729],[73.7404,15.5732],[73.7401,15.5732],[73.7401,15.5737],[73.7404,15.5737],[73.7404,15.574],[73.7401,15.574],[73.7401,15.5751],[73.7399,15.5751],[73.7399,15.5757],[73.7396,15.5757],[73.7396,15.5768],[73.7393,15.5768],[73.7393,15.5774],[73.739,15.5774],[73.739,15.5779],[73.7387,15.5779],[73.7387,15.5782],[73.7385,15.5782],[73.7385,15.5785],[73.7382,15.5785],[73.7382,15.579],[73.7379,15.579],[73.7379,15.5793],[73.7376,15.5793],[73.7376,15.5796],[73.7379,15.5796],[73.7379,15.5801],[73.7376,15.5801],[73.7376,15.5807],[73.7371,15.5807],[73.7371,15.581],[73.7368,15.581],[73.7368,15.5835],[73.7365,15.5835],[73.7365,15.5843],[73.7363,15.5843],[73.7363,15.5849],[73.7365,15.5849],[73.7365,15.5854],[73.7363,15.5854],[73.7363,15.586],[73.736,15.586],[73.736,15.5863],[73.7357,15.5863],[73.7357,15.5865],[73.7354,15.5865],[73.7354,15.5871],[73.7351,15.5871],[73.7351,15.5874],[73.7346,15.5874],[73.7346,15.5876],[73.7343,15.5876],[73.7343,15.5879],[73.7337,15.5879],[73.7337,15.5882],[73.7335,15.5882],[73.7335,15.5885],[73.7329,15.5885],[73.7329,15.5888],[73.7324,15.5887],[73.7324,15.589],[73.7321,15.589],[73.7321,15.5893],[73.7318,15.5893],[73.7318,15.5899],[73.7315,15.5899],[73.7315,15.5904],[73.7312,15.5904],[73.7312,15.591],[73.7315,15.591],[73.7315,15.5913],[73.7321,15.5913],[73.7321,15.5921],[73.7326,15.5921],[73.7326,15.5924],[73.7329,15.5924],[73.7329,15.5926],[73.7332,15.5926],[73.7332,15.5929],[73.734,15.5929],[73.734,15.5932],[73.7343,15.5932],[73.7343,15.5935],[73.734,15.5935],[73.734,15.5943],[73.7338,15.5943],[73.7338,15.5952],[73.7335,15.5952],[73.7335,15.5962],[73.7332,15.5962],[73.7332,15.5971],[73.7329,15.5971],[73.7329,15.5982],[73.7326,15.5982],[73.7326,15.5988],[73.7324,15.5988],[73.7324,15.599],[73.7321,15.599],[73.7321,15.6004],[73.7326,15.6004],[73.7326,15.6007],[73.7329,15.6007],[73.7329,15.601],[73.7332,15.601],[73.7332,15.6012],[73.7335,15.6012],[73.7335,15.6035],[73.7332,15.6035],[73.7332,15.604],[73.7329,15.604],[73.7329,15.6046],[73.7326,15.6046],[73.7326,15.6051],[73.7324,15.6051],[73.7324,15.6054],[73.7321,15.6054],[73.7321,15.6057],[73.7324,15.6057],[73.7324,15.6063],[73.7321,15.6063],[73.7321,15.6065],[73.7318,15.6065],[73.7318,15.6068],[73.7315,15.6068],[73.7315,15.6071],[73.7312,15.6071],[73.7312,15.6076],[73.731,15.6076],[73.731,15.6082],[73.7312,15.6082],[73.7312,15.6085],[73.7332,15.6085],[73.7332,15.6082],[73.734,15.6082],[73.734,15.6085],[73.7346,15.6085],[73.7346,15.6088],[73.7351,15.6088],[73.7351,15.6085],[73.7354,15.6085],[73.7354,15.6088],[73.7376,15.6088],[73.7376,15.609],[73.739,15.609],[73.739,15.6085],[73.7393,15.6085],[73.7393,15.6082],[73.739,15.6082],[73.739,15.6074],[73.7393,15.6074],[73.7393,15.6071],[73.7401,15.6071],[73.7401,15.6068],[73.7404,15.6068],[73.7404,15.6065],[73.741,15.6065],[73.741,15.6063],[73.7412,15.6063],[73.7412,15.6049],[73.7415,15.6049],[73.7415,15.6046],[73.7426,15.6046],[73.7426,15.6049],[73.7435,15.6049],[73.7435,15.6051],[73.7443,15.6051],[73.7443,15.6054],[73.7451,15.6054],[73.7451,15.6057],[73.7454,15.6057],[73.7454,15.606],[73.746,15.606],[73.746,15.6063],[73.7462,15.6063],[73.7462,15.6065],[73.7465,15.6065],[73.7465,15.6068],[73.7468,15.6068],[73.7468,15.6071],[73.7471,15.6071],[73.7471,15.6076],[73.7474,15.6076],[73.7474,15.6079],[73.7476,15.6079],[73.7476,15.6082],[73.7485,15.6082],[73.7485,15.6085],[73.7496,15.6085],[73.7496,15.6088],[73.7504,15.6088],[73.7504,15.609],[73.751,15.609],[73.751,15.6093],[73.7513,15.6093],[73.7513,15.6096],[73.7518,15.6096],[73.7518,15.6099],[73.7521,15.6099],[73.7521,15.6104],[73.7524,15.6104],[73.7524,15.6115],[73.7526,15.6115],[73.7526,15.6124],[73.7529,15.6124],[73.7529,15.6135],[73.7532,15.6135],[73.7532,15.614],[73.7537,15.614],[73.7537,15.6143],[73.754,15.6143],[73.754,15.6149],[73.7543,15.6149],[73.7543,15.6154],[73.7546,15.6154],[73.7546,15.6157],[73.7549,15.6157],[73.7549,15.6174],[73.7543,15.6174],[73.7543,15.6176],[73.7537,15.6176],[73.7537,15.6179],[73.7532,15.6179],[73.7532,15.6182],[73.7526,15.6182],[73.7526,15.6185],[73.7521,15.6185],[73.7521,15.6188],[73.7515,15.6188],[73.7515,15.619],[73.751,15.619],[73.751,15.6193],[73.7507,15.6193],[73.7507,15.6199],[73.7504,15.6199],[73.7504,15.6201],[73.7499,15.6201],[73.7499,15.6204],[73.7493,15.6204],[73.7493,15.6207],[73.749,15.6207],[73.749,15.621],[73.7485,15.621],[73.7485,15.6213],[73.7482,15.6213],[73.7482,15.6218],[73.7479,15.6218],[73.7479,15.6226],[73.7482,15.6226],[73.7482,15.6243],[73.7485,15.6243],[73.7485,15.6246],[73.7482,15.6246],[73.7482,15.6249],[73.7479,15.6249],[73.7479,15.6251],[73.7476,15.6251],[73.7476,15.6254],[73.7474,15.6254],[73.7474,15.6257],[73.7471,15.6257],[73.7471,15.626],[73.7468,15.626],[73.7468,15.6263],[73.7465,15.6263],[73.7465,15.6265],[73.7462,15.6265],[73.7462,15.6268],[73.746,15.6268],[73.746,15.6265],[73.7454,15.6265],[73.7454,15.6263],[73.7449,15.6263],[73.7449,15.626],[73.744,15.626],[73.744,15.6257],[73.7438,15.6257],[73.7438,15.6254],[73.7432,15.6254],[73.7432,15.6251],[73.7426,15.6251],[73.7426,15.6249],[73.7424,15.6249],[73.7424,15.6246],[73.7418,15.6246],[73.7418,15.6243],[73.7412,15.6243],[73.7412,15.624],[73.7407,15.624],[73.7407,15.6237],[73.7404,15.6237],[73.7404,15.6235],[73.7401,15.6235],[73.7401,15.6232],[73.7399,15.6232],[73.7399,15.6229],[73.7396,15.6229],[73.7396,15.6226],[73.7393,15.6226],[73.7393,15.6221],[73.739,15.6221],[73.739,15.6213],[73.7387,15.6213],[73.7387,15.6199],[73.7385,15.6199],[73.7385,15.6196],[73.7387,15.6196],[73.7387,15.6193],[73.7385,15.6193],[73.7385,15.6171],[73.7379,15.6171],[73.7379,15.6162],[73.7374,15.6163],[73.7374,15.6154],[73.7371,15.6154],[73.7371,15.6151],[73.7368,15.6151],[73.7368,15.6149],[73.7365,15.6149],[73.7365,15.6146],[73.7363,15.6146],[73.7363,15.6143],[73.736,15.6143],[73.736,15.6146],[73.7357,15.6146],[73.7357,15.6149],[73.7354,15.6149],[73.7354,15.616],[73.7349,15.616],[73.7349,15.6163],[73.7343,15.6163],[73.7343,15.6165],[73.7338,15.6165],[73.7338,15.6168],[73.7335,15.6168],[73.7335,15.6171],[73.7332,15.6171],[73.7332,15.6168],[73.7329,15.6168],[73.7329,15.6176],[73.7326,15.6176],[73.7326,15.619],[73.7324,15.619],[73.7324,15.6196],[73.7321,15.6196],[73.7321,15.6201],[73.7312,15.6201],[73.7312,15.6207],[73.731,15.6207],[73.731,15.621],[73.7307,15.621],[73.7307,15.6213],[73.7304,15.6213],[73.7304,15.6226],[73.7301,15.6226],[73.7301,15.6229],[73.7299,15.6229],[73.7299,15.6232],[73.7296,15.6232],[73.7296,15.6237],[73.7293,15.6237],[73.7293,15.624],[73.7296,15.624],[73.7296,15.6246],[73.7293,15.6246],[73.7293,15.6254],[73.729,15.6254],[73.729,15.6257],[73.7288,15.6257],[73.7288,15.626],[73.7285,15.626],[73.7285,15.6263],[73.7282,15.6263],[73.7282,15.6271],[73.7279,15.6271],[73.7279,15.6276],[73.7276,15.6276],[73.7276,15.6279],[73.7274,15.6279],[73.7274,15.6282],[73.7268,15.6282],[73.7268,15.6285],[73.7262,15.6285],[73.7262,15.6287],[73.7257,15.6287],[73.7257,15.629],[73.7251,15.629],[73.7251,15.6293],[73.7249,15.6293],[73.7249,15.6296],[73.7232,15.6296],[73.7232,15.6299],[73.7229,15.6299],[73.7229,15.6301],[73.7226,15.6301],[73.7226,15.6313],[73.7229,15.6313],[73.7229,15.6315],[73.7226,15.6315],[73.7226,15.6324],[73.7224,15.6324],[73.7224,15.6329],[73.7221,15.6329],[73.7221,15.6335],[73.7218,15.6335],[73.7218,15.6343],[73.7215,15.6343],[73.7215,15.6351],[73.7213,15.6351],[73.7213,15.6357],[73.721,15.6357],[73.721,15.6365],[73.7207,15.6365],[73.7207,15.6371],[73.7204,15.6371],[73.7204,15.6374],[73.7201,15.6374],[73.7201,15.6382],[73.7199,15.6382],[73.7199,15.6388],[73.7196,15.6388],[73.7196,15.639],[73.7193,15.639],[73.7193,15.6393],[73.719,15.6393],[73.719,15.6396],[73.7188,15.6396],[73.7188,15.6401],[73.7185,15.6401],[73.7185,15.6404],[73.7182,15.6404],[73.7182,15.6407],[73.7179,15.6407],[73.7179,15.6418],[73.7176,15.6418],[73.7176,15.6426],[73.7174,15.6426],[73.7174,15.644],[73.7171,15.644],[73.7171,15.6451],[73.7168,15.6451],[73.7168,15.6454],[73.7165,15.6454],[73.7165,15.6463],[73.7162,15.6463],[73.7162,15.6468],[73.7165,15.6468],[73.7165,15.6471],[73.7162,15.6471],[73.7162,15.6476],[73.716,15.6476],[73.716,15.6482],[73.7157,15.6482],[73.7157,15.6485],[73.7154,15.6485],[73.7154,15.6493],[73.7151,15.6493],[73.7151,15.6496],[73.7149,15.6496],[73.7149,15.6501],[73.7151,15.6501],[73.7151,15.6507],[73.7154,15.6507],[73.7154,15.6526],[73.7157,15.6526],[73.7157,15.6538],[73.7154,15.6538],[73.7154,15.6543],[73.7151,15.6543],[73.7151,15.6549],[73.7143,15.6549],[73.7143,15.6554],[73.7138,15.6554],[73.7138,15.656],[73.7135,15.656],[73.7135,15.6563],[73.7132,15.6563],[73.7132,15.6568],[73.7129,15.6568],[73.7129,15.6585],[73.7126,15.6585],[73.7126,15.6613],[73.7124,15.6612],[73.7124,15.6618],[73.7121,15.6618],[73.7121,15.6626],[73.7118,15.6626],[73.7118,15.6638],[73.7115,15.6638],[73.7115,15.664],[73.7118,15.664],[73.7118,15.6646],[73.7115,15.6646],[73.7115,15.6651],[73.7113,15.6651],[73.7113,15.6657],[73.711,15.6657],[73.711,15.6671],[73.7113,15.6671],[73.7113,15.6685],[73.711,15.6685],[73.711,15.6688],[73.7107,15.6688],[73.7107,15.669],[73.7104,15.669],[73.7104,15.6693],[73.7101,15.6693],[73.7101,15.6699],[73.7099,15.6699],[73.7099,15.6704],[73.7096,15.6704],[73.7096,15.6707],[73.7093,15.6707],[73.7093,15.671],[73.709,15.671],[73.709,15.6712],[73.7085,15.6712],[73.7085,15.6715],[73.7079,15.6715],[73.7079,15.6718],[73.7076,15.6718],[73.7076,15.6721],[73.7074,15.6721],[73.7074,15.6724],[73.7071,15.6724],[73.7071,15.6729],[73.7068,15.6729],[73.7068,15.6735],[73.7065,15.6735],[73.7065,15.6743],[73.7063,15.6743],[73.7063,15.6749],[73.706,15.6749],[73.706,15.6751],[73.7057,15.6751],[73.7057,15.6757],[73.7054,15.6757],[73.7054,15.6763],[73.7051,15.6762],[73.7051,15.6765],[73.7054,15.6765],[73.7054,15.6768],[73.7051,15.6768],[73.7051,15.6788],[73.7049,15.6788],[73.7049,15.679],[73.7046,15.679],[73.7046,15.6796],[73.7043,15.6796],[73.7043,15.681],[73.704,15.681],[73.704,15.6818],[73.7038,15.6818],[73.7038,15.6824],[73.704,15.6824],[73.704,15.6826],[73.7038,15.6826],[73.7038,15.6843],[73.7035,15.6843],[73.7035,15.6851],[73.7032,15.6851],[73.7032,15.6857],[73.7026,15.6857],[73.7026,15.686],[73.7029,15.686],[73.7029,15.6865],[73.7032,15.6865],[73.7032,15.6868],[73.7029,15.6868],[73.7029,15.6876],[73.7026,15.6876],[73.7026,15.6879],[73.7024,15.6879],[73.7024,15.6888],[73.7021,15.6888],[73.7021,15.6893],[73.7018,15.6893],[73.7018,15.6899],[73.7015,15.6899],[73.7015,15.6907],[73.7012,15.6907],[73.7012,15.6913],[73.701,15.6913],[73.701,15.6915],[73.7007,15.6915],[73.7007,15.6918],[73.7004,15.6918],[73.7004,15.6921],[73.6996,15.6921],[73.6996,15.6924],[73.6993,15.6924],[73.6993,15.6921],[73.6979,15.6921],[73.6979,15.6943],[73.6976,15.6943],[73.6976,15.6949],[73.6974,15.6949],[73.6974,15.6954],[73.6971,15.6954],[73.6971,15.6968],[73.6974,15.6968],[73.6974,15.6982],[73.6971,15.6982],[73.6971,15.6985],[73.6968,15.6985],[73.6968,15.6988],[73.6971,15.6988],[73.6971,15.6993],[73.6965,15.6993],[73.6965,15.6996],[73.6957,15.6996],[73.6957,15.6993],[73.6954,15.6993],[73.6954,15.6996],[73.6951,15.6996],[73.6951,15.6999],[73.6949,15.6999],[73.6949,15.7001],[73.6943,15.7001],[73.6943,15.7004],[73.694,15.7004],[73.694,15.7021],[73.6937,15.7021],[73.6937,15.7026],[73.6932,15.7026],[73.6932,15.7051],[73.6935,15.7051],[73.6935,15.7071],[73.6929,15.7071],[73.6929,15.7079],[73.6926,15.7079],[73.6926,15.709],[73.6924,15.709],[73.6924,15.7093],[73.6926,15.7093],[73.6926,15.7101],[73.6921,15.7101],[73.6921,15.7104],[73.6918,15.7104],[73.6918,15.7107],[73.6915,15.7107],[73.6915,15.7115],[73.6912,15.7115],[73.6912,15.7118],[73.691,15.7118],[73.691,15.7121],[73.6913,15.7121],[73.6913,15.7124],[73.691,15.7124],[73.691,15.7126],[73.6912,15.7126],[73.6912,15.7138],[73.691,15.7138],[73.691,15.714],[73.6907,15.714],[73.6907,15.7151],[73.6904,15.7151],[73.6904,15.7157],[73.6901,15.7157],[73.6901,15.7163],[73.6899,15.7163],[73.6899,15.7165],[73.6896,15.7165],[73.6896,15.7171],[73.6899,15.7171],[73.6899,15.7179],[73.6901,15.7179],[73.6901,15.7185],[73.6899,15.7185],[73.6899,15.7188],[73.6893,15.7188],[73.6893,15.719],[73.689,15.719],[73.689,15.7193],[73.6885,15.7193],[73.6885,15.7196],[73.6879,15.7196],[73.6879,15.7199],[73.6876,15.7199],[73.6876,15.7201],[73.6871,15.7201],[73.6871,15.7204],[73.6868,15.7204],[73.6868,15.7207],[73.6865,15.7207],[73.6865,15.7204],[73.6862,15.7204],[73.6862,15.7201],[73.6832,15.7201],[73.6832,15.7204],[73.6829,15.7204],[73.6829,15.7218],[73.6813,15.7218],[73.6813,15.7215],[73.681,15.7215],[73.681,15.721],[73.6807,15.721],[73.6807,15.7207],[73.6799,15.7207],[73.6799,15.721],[73.6796,15.721],[73.6796,15.7215],[73.6793,15.7215],[73.6793,15.7224],[73.6796,15.7224],[73.6796,15.7229],[73.6799,15.7229],[73.6799,15.7235],[73.6801,15.7235],[73.6801,15.7244],[73.6825,15.7253],[73.6853,15.7259],[73.6919,15.7269],[73.6973,15.7262],[73.7027,15.7249],[73.7066,15.7217],[73.711,15.7202],[73.7186,15.7216],[73.7226,15.7229],[73.7276,15.7225],[73.7323,15.7206],[73.737,15.7173],[73.741,15.7187],[73.7441,15.7256],[73.7487,15.7306],[73.7582,15.7328],[73.7758,15.7305],[73.7865,15.7233],[73.7932,15.7237],[73.7976,15.7251],[73.8028,15.7322],[73.8126,15.7335],[73.816,15.7353],[73.8204,15.7399],[73.833,15.7378],[73.8385,15.7488],[73.8403,15.7562],[73.8388,15.7609],[73.8451,15.7634],[73.8472,15.7661],[73.8496,15.776],[73.8519,15.7784],[73.857,15.7782],[73.8558,15.7833],[73.8601,15.7878],[73.8616,15.7939],[73.8655,15.7975],[73.8735,15.7953],[73.8759,15.7932],[73.8748,15.7863],[73.8751,15.7829],[73.8799,15.7792]]]]}}]}