{"type":"FeatureCollection","name":"Himachal_Pradesh","crs":{"type":"name","properties":{"name":"urn:ogc:def:crs:OGC:1.3:CRS84"}},"features":[{"type":"Feature","properties":{"ID_0":105,"ISO":"IND","NAME_0":"India","ID_1":14,"NAME_1":"Himachal Pradesh","TYPE_1":"Union Territor","ENGTYPE_1":"Union Territory","NL_NAME_1":null,"VARNAME_1":null},"geometry":{"type":"Polygon","coordinates":[[[76.8028,33.2367],[76.8063,33.2362],[76.8085,33.2423],[76.8092,33.2443],[76.8139,33.2474],[76.8173,33.2485],[76.8219,33.2484],[76.8235,33.2479],[76.8272,33.2467],[76.8283,33.2464],[76.8289,33.2425],[76.8232,33.2374],[76.8179,33.2311],[76.813,33.2227],[76.8111,33.2155],[76.8172,33.2122],[76.8186,33.2056],[76.8033,33.1939],[76.8066,33.1847],[76.8052,33.1823],[76.8004,33.1778],[76.7981,33.1733],[76.7993,33.1695],[76.802,33.166],[76.8014,33.1615],[76.8035,33.1557],[76.8095,33.1486],[76.815,33.1462],[76.8173,33.142],[76.823,33.1413],[76.8292,33.1377],[76.8281,33.1317],[76.8374,33.1264],[76.8341,33.1206],[76.8392,33.1153],[76.8444,33.1123],[76.8526,33.1115],[76.8604,33.1164],[76.8687,33.1202],[76.8772,33.1142],[76.8774,33.1072],[76.8848,33.0974],[76.8943,33.0951],[76.895,33.0914],[76.8909,33.0846],[76.8907,33.0808],[76.8964,33.0758],[76.8969,33.071],[76.9001,33.0641],[76.9102,33.0502],[76.9133,33.0442],[76.9146,33.0388],[76.9175,33.0337],[76.9241,33.029],[76.9327,33.0285],[76.9483,33.0185],[76.9568,33.0167],[76.9621,33.0139],[76.9637,33.01],[76.9665,33.0072],[76.9808,33.0015],[76.9869,32.9959],[76.9915,32.9929],[76.994,32.9923],[76.9985,32.9896],[77.0112,32.9932],[77.0199,32.9917],[77.0244,32.997],[77.0353,32.9997],[77.0524,32.9909],[77.0585,32.9861],[77.0659,32.9855],[77.0717,32.9762],[77.0749,32.9734],[77.0842,32.9737],[77.0971,32.9776],[77.1032,32.9872],[77.1124,32.9841],[77.1201,32.9827],[77.1275,32.9838],[77.1364,32.9805],[77.1359,32.9744],[77.1343,32.9695],[77.1355,32.9647],[77.1353,32.9609],[77.1364,32.9578],[77.1461,32.9564],[77.1461,32.9428],[77.1488,32.9414],[77.1486,32.9379],[77.1469,32.9344],[77.1507,32.9202],[77.1462,32.914],[77.1574,32.9132],[77.1604,32.9161],[77.1616,32.9211],[77.1637,32.9251],[77.1666,32.9281],[77.1739,32.9311],[77.1818,32.9155],[77.189,32.9101],[77.2045,32.9064],[77.218,32.8973],[77.2283,32.8956],[77.2293,32.8868],[77.2275,32.8839],[77.2241,32.8827],[77.2248,32.88],[77.2278,32.877],[77.2363,32.8723],[77.238,32.869],[77.2389,32.8652],[77.2476,32.8649],[77.2583,32.8764],[77.2701,32.8664],[77.2743,32.8598],[77.2813,32.8557],[77.2887,32.8526],[77.298,32.854],[77.3052,32.854],[77.3125,32.8463],[77.3109,32.8377],[77.3165,32.8298],[77.3207,32.8281],[77.3216,32.8224],[77.3279,32.8199],[77.336,32.8189],[77.3405,32.8205],[77.3484,32.8212],[77.3565,32.8253],[77.3596,32.8382],[77.3618,32.8426],[77.3627,32.8466],[77.3598,32.8516],[77.3587,32.8564],[77.3597,32.8596],[77.3631,32.8635],[77.3712,32.8674],[77.3794,32.8808],[77.3875,32.8855],[77.3954,32.8873],[77.3973,32.887],[77.3992,32.8839],[77.4031,32.8815],[77.4101,32.8782],[77.4177,32.8792],[77.4257,32.8837],[77.4312,32.8758],[77.4322,32.8704],[77.4362,32.8659],[77.4483,32.8617],[77.4552,32.8617],[77.4732,32.8788],[77.4846,32.8865],[77.4943,32.8815],[77.5062,32.8831],[77.5113,32.8854],[77.5196,32.8874],[77.5232,32.8898],[77.527,32.8923],[77.5353,32.9023],[77.5447,32.9117],[77.5495,32.9134],[77.5538,32.9131],[77.5696,32.9217],[77.5797,32.9317],[77.581,32.9345],[77.5815,32.9392],[77.5839,32.9438],[77.5864,32.9399],[77.5934,32.9415],[77.6061,32.9424],[77.6107,32.9423],[77.613,32.9414],[77.6173,32.944],[77.6234,32.9445],[77.6385,32.9561],[77.6433,32.9579],[77.6499,32.9583],[77.6533,32.9594],[77.6564,32.966],[77.66,32.969],[77.6631,32.9759],[77.6652,32.986],[77.6709,32.9863],[77.678,32.9807],[77.6795,32.9778],[77.6909,32.9794],[77.695,32.9778],[77.6967,32.9734],[77.6999,32.969],[77.7037,32.9661],[77.7083,32.9673],[77.7125,32.9718],[77.7231,32.9644],[77.7273,32.9576],[77.7341,32.9503],[77.7364,32.9479],[77.739,32.9473],[77.7448,32.9459],[77.7472,32.9422],[77.7475,32.9405],[77.7476,32.9394],[77.751,32.936],[77.7596,32.9274],[77.778,32.9158],[77.7817,32.91],[77.7902,32.9054],[77.7925,32.8981],[77.787,32.8917],[77.7727,32.8909],[77.766,32.8803],[77.7614,32.8648],[77.7677,32.8585],[77.7758,32.8547],[77.7809,32.8541],[77.7877,32.8498],[77.7919,32.8493],[77.799,32.8458],[77.8082,32.836],[77.8143,32.8362],[77.8188,32.8385],[77.8251,32.8399],[77.8314,32.835],[77.8476,32.8284],[77.8525,32.8252],[77.855,32.8212],[77.8613,32.8162],[77.8638,32.8115],[77.8645,32.8065],[77.869,32.8004],[77.867,32.7903],[77.8722,32.7863],[77.8763,32.78],[77.8809,32.7754],[77.8875,32.7753],[77.8909,32.7745],[77.8995,32.7753],[77.9035,32.7729],[77.9089,32.7721],[77.9123,32.7672],[77.9151,32.7661],[77.9169,32.7627],[77.9179,32.7569],[77.9172,32.7519],[77.9144,32.7445],[77.9143,32.7418],[77.9118,32.7365],[77.9156,32.7337],[77.9185,32.7308],[77.912,32.7258],[77.9094,32.7214],[77.9085,32.7164],[77.9063,32.7123],[77.9057,32.7036],[77.9024,32.6984],[77.9033,32.6931],[77.911,32.6882],[77.9202,32.6795],[77.9262,32.6668],[77.9272,32.6626],[77.9323,32.6562],[77.9389,32.648],[77.9465,32.6427],[77.9527,32.6404],[77.9551,32.6348],[77.9542,32.626],[77.9595,32.6207],[77.9622,32.6138],[77.9678,32.608],[77.975,32.5964],[77.9767,32.5919],[77.9826,32.5865],[77.9871,32.5882],[78.0174,32.587],[78.0274,32.5886],[78.0358,32.5919],[78.0416,32.5992],[78.0415,32.6053],[78.0368,32.6109],[78.0344,32.6157],[78.0324,32.6284],[78.0327,32.6338],[78.0339,32.6356],[78.0441,32.6288],[78.059,32.6246],[78.0653,32.6243],[78.0675,32.6256],[78.0729,32.6444],[78.079,32.6528],[78.0885,32.6598],[78.0934,32.6622],[78.0993,32.66],[78.107,32.6497],[78.1162,32.6424],[78.1215,32.6423],[78.1267,32.6491],[78.1307,32.6601],[78.136,32.6703],[78.1444,32.6766],[78.1525,32.679],[78.1584,32.6791],[78.1705,32.6772],[78.1795,32.6704],[78.184,32.6639],[78.195,32.6673],[78.2016,32.6652],[78.2129,32.6692],[78.225,32.6756],[78.2333,32.6837],[78.2366,32.6947],[78.2591,32.7029],[78.2727,32.7029],[78.2849,32.7068],[78.2957,32.7128],[78.2986,32.7197],[78.2981,32.7248],[78.2946,32.7316],[78.2877,32.7378],[78.3139,32.749],[78.3447,32.7634],[78.3643,32.763],[78.3714,32.7618],[78.3728,32.7602],[78.3707,32.7458],[78.3712,32.7337],[78.3749,32.7226],[78.3778,32.7193],[78.3676,32.6995],[78.3637,32.6855],[78.3632,32.672],[78.3709,32.6382],[78.3759,32.6296],[78.3888,32.6232],[78.3771,32.6149],[78.3406,32.5931],[78.3318,32.5849],[78.318,32.5802],[78.3024,32.5787],[78.2966,32.5775],[78.2992,32.5293],[78.295,32.5225],[78.2785,32.5079],[78.3062,32.4777],[78.3104,32.4759],[78.3564,32.5127],[78.3767,32.5261],[78.3824,32.5297],[78.3944,32.5285],[78.3979,32.5271],[78.3991,32.5264],[78.4003,32.5237],[78.4014,32.5182],[78.4053,32.5151],[78.4052,32.5142],[78.4089,32.5127],[78.4092,32.512],[78.4108,32.5117],[78.415,32.511],[78.4165,32.5112],[78.4257,32.512],[78.4317,32.5103],[78.4356,32.5077],[78.4364,32.5071],[78.4384,32.5054],[78.44,32.5032],[78.4406,32.5005],[78.4435,32.4993],[78.445,32.4979],[78.4476,32.4924],[78.4487,32.4901],[78.4487,32.4892],[78.4483,32.4872],[78.448,32.4864],[78.4458,32.4821],[78.4433,32.4795],[78.4416,32.4777],[78.441,32.4768],[78.4373,32.4711],[78.4358,32.4661],[78.4354,32.4626],[78.4366,32.4594],[78.4371,32.4591],[78.4371,32.458],[78.4381,32.4571],[78.4381,32.4564],[78.4415,32.4547],[78.4432,32.4543],[78.446,32.4535],[78.4547,32.4506],[78.462,32.448],[78.4661,32.4452],[78.4668,32.4431],[78.4676,32.4429],[78.4682,32.4428],[78.4681,32.4424],[78.4687,32.4421],[78.4709,32.4373],[78.471,32.4373],[78.4714,32.4371],[78.4719,32.4369],[78.473,32.4329],[78.4736,32.4325],[78.4749,32.4311],[78.4751,32.4302],[78.4766,32.4291],[78.4766,32.4275],[78.4779,32.4267],[78.4781,32.4259],[78.4837,32.425],[78.4873,32.4253],[78.5026,32.4262],[78.5115,32.4237],[78.5145,32.4219],[78.5188,32.4185],[78.5172,32.4131],[78.5167,32.4125],[78.505,32.4029],[78.5039,32.4018],[78.5021,32.4005],[78.5017,32.4001],[78.4976,32.3952],[78.4959,32.3908],[78.494,32.3773],[78.4917,32.3733],[78.485,32.3677],[78.484,32.3669],[78.4829,32.3659],[78.4773,32.3629],[78.468,32.358],[78.4646,32.3532],[78.4641,32.3522],[78.4629,32.3496],[78.4613,32.343],[78.4607,32.3372],[78.4612,32.337],[78.4647,32.3206],[78.4653,32.3123],[78.467,32.2919],[78.4662,32.284],[78.4643,32.2778],[78.4627,32.2761],[78.4592,32.2707],[78.4584,32.2691],[78.4565,32.2678],[78.454,32.2641],[78.4529,32.2636],[78.4508,32.2619],[78.4505,32.2614],[78.4484,32.2582],[78.4472,32.2571],[78.4454,32.2558],[78.445,32.2554],[78.4417,32.2518],[78.4409,32.2516],[78.4394,32.2483],[78.4392,32.2465],[78.4467,32.2458],[78.4479,32.2457],[78.4591,32.2454],[78.4601,32.2452],[78.4641,32.246],[78.4776,32.2439],[78.4828,32.2431],[78.5015,32.2457],[78.5059,32.2478],[78.5139,32.2494],[78.5202,32.2501],[78.5208,32.2502],[78.5237,32.2505],[78.5357,32.2498],[78.5394,32.25],[78.5431,32.2487],[78.5622,32.2373],[78.5739,32.2313],[78.5929,32.2187],[78.5934,32.2178],[78.5943,32.2171],[78.5951,32.2167],[78.5952,32.2158],[78.5951,32.2115],[78.5911,32.2039],[78.5905,32.1976],[78.5913,32.1974],[78.5942,32.1885],[78.5937,32.1824],[78.5923,32.18],[78.5895,32.174],[78.5888,32.1715],[78.5853,32.1689],[78.5841,32.1685],[78.578,32.1655],[78.5778,32.1651],[78.5773,32.1651],[78.5746,32.1615],[78.5743,32.1586],[78.5747,32.1577],[78.5757,32.1577],[78.5762,32.1566],[78.5797,32.1545],[78.5883,32.1474],[78.5888,32.146],[78.5895,32.1455],[78.5899,32.1423],[78.5912,32.1412],[78.5925,32.14],[78.5942,32.1357],[78.5945,32.1319],[78.5963,32.1234],[78.5971,32.123],[78.5973,32.122],[78.5993,32.1209],[78.5995,32.1203],[78.6062,32.1175],[78.6102,32.1178],[78.6159,32.1158],[78.6165,32.116],[78.6171,32.1162],[78.6286,32.115],[78.6396,32.1121],[78.6479,32.1071],[78.6484,32.1064],[78.649,32.1053],[78.6497,32.0987],[78.6511,32.0933],[78.6524,32.0883],[78.6567,32.0838],[78.6574,32.0813],[78.658,32.0809],[78.6598,32.0795],[78.6599,32.079],[78.6608,32.0783],[78.6744,32.0693],[78.6808,32.0639],[78.6813,32.0634],[78.6821,32.0622],[78.6826,32.0609],[78.6848,32.0586],[78.6861,32.0576],[78.6876,32.0534],[78.6881,32.0531],[78.6888,32.0526],[78.6894,32.051],[78.6901,32.0457],[78.6908,32.0452],[78.6934,32.0432],[78.6939,32.0427],[78.6939,32.0418],[78.6955,32.0413],[78.6959,32.0399],[78.697,32.0392],[78.6975,32.0387],[78.7052,32.0337],[78.7054,32.0331],[78.7119,32.0293],[78.7169,32.0252],[78.7171,32.0246],[78.7226,32.0204],[78.7228,32.0198],[78.7255,32.0175],[78.7259,32.0163],[78.7269,32.0132],[78.7277,32.013],[78.7281,32.0126],[78.7289,32.012],[78.7292,32.0111],[78.7297,32.0109],[78.7302,32.0095],[78.7301,32.0088],[78.7312,32.0083],[78.7314,32.0076],[78.7371,32.0041],[78.7395,32.0045],[78.7506,32.0036],[78.7531,32.003],[78.7606,32.0012],[78.7684,31.9999],[78.77,31.9994],[78.771,31.9998],[78.771,31.9964],[78.7706,31.9949],[78.7704,31.9945],[78.7692,31.9913],[78.7611,31.9638],[78.7575,31.9547],[78.7561,31.9503],[78.7526,31.9396],[78.7503,31.9347],[78.7454,31.925],[78.7403,31.92],[78.7395,31.9198],[78.7375,31.9174],[78.736,31.9161],[78.7352,31.9158],[78.7349,31.9151],[78.7345,31.9148],[78.7328,31.913],[78.7324,31.9096],[78.7313,31.9089],[78.7302,31.9081],[78.7294,31.9066],[78.7293,31.9057],[78.731,31.9043],[78.7314,31.9029],[78.7316,31.8982],[78.7284,31.89],[78.7276,31.8895],[78.7272,31.8887],[78.7248,31.885],[78.7245,31.8843],[78.7244,31.884],[78.7241,31.8833],[78.7238,31.8815],[78.724,31.8752],[78.7234,31.847],[78.7219,31.838],[78.7218,31.8373],[78.7205,31.8353],[78.7197,31.8349],[78.7184,31.8343],[78.7038,31.8268],[78.7021,31.8258],[78.7015,31.8258],[78.7013,31.8253],[78.701,31.8245],[78.7004,31.8245],[78.6947,31.8172],[78.693,31.8143],[78.6924,31.8126],[78.6908,31.8067],[78.6912,31.7969],[78.6914,31.7934],[78.6932,31.7865],[78.6939,31.7859],[78.6943,31.7838],[78.6963,31.7788],[78.697,31.7781],[78.7008,31.7745],[78.7018,31.7736],[78.7033,31.7704],[78.7138,31.7674],[78.7156,31.7669],[78.7218,31.7651],[78.7247,31.7639],[78.724,31.7601],[78.7199,31.7564],[78.7169,31.7537],[78.7163,31.7525],[78.7151,31.7503],[78.7142,31.7492],[78.7118,31.7449],[78.7113,31.7413],[78.7119,31.741],[78.7124,31.7408],[78.7126,31.739],[78.7133,31.7385],[78.7141,31.738],[78.7143,31.7367],[78.7185,31.7345],[78.7201,31.732],[78.7206,31.732],[78.7215,31.7303],[78.7231,31.7254],[78.7237,31.7237],[78.7257,31.7178],[78.7286,31.7024],[78.732,31.6977],[78.7332,31.696],[78.7344,31.692],[78.7352,31.6915],[78.7353,31.6909],[78.7361,31.6905],[78.74,31.688],[78.7475,31.6851],[78.7484,31.6851],[78.7499,31.6847],[78.7521,31.6849],[78.7536,31.6851],[78.7546,31.6848],[78.7648,31.6862],[78.7714,31.6879],[78.7732,31.6884],[78.7796,31.6898],[78.7802,31.6876],[78.7807,31.6756],[78.7807,31.6735],[78.7808,31.6727],[78.7842,31.6613],[78.786,31.6598],[78.7865,31.6585],[78.7867,31.6576],[78.7875,31.6571],[78.7893,31.6548],[78.7924,31.6522],[78.7931,31.6511],[78.7946,31.6503],[78.7946,31.6499],[78.7953,31.6492],[78.8089,31.6399],[78.8097,31.6396],[78.8167,31.6365],[78.8199,31.6338],[78.8236,31.6307],[78.8241,31.6304],[78.8248,31.6294],[78.8269,31.628],[78.8272,31.6273],[78.8276,31.6266],[78.8276,31.6257],[78.8283,31.6251],[78.8285,31.6247],[78.8306,31.6205],[78.8312,31.6199],[78.8311,31.6153],[78.8276,31.6072],[78.8245,31.6028],[78.8238,31.6024],[78.8228,31.6006],[78.8189,31.5975],[78.8179,31.5962],[78.815,31.5937],[78.8139,31.5933],[78.813,31.5922],[78.8122,31.5908],[78.811,31.589],[78.8103,31.5884],[78.8095,31.5882],[78.8092,31.5875],[78.8051,31.5832],[78.7973,31.5762],[78.7914,31.5736],[78.7848,31.5714],[78.7681,31.5657],[78.7681,31.5651],[78.7637,31.5621],[78.7612,31.5575],[78.7576,31.5536],[78.75,31.5488],[78.7466,31.5477],[78.7301,31.5443],[78.7213,31.541],[78.7192,31.5368],[78.7172,31.5305],[78.7164,31.5299],[78.7156,31.5298],[78.7153,31.5291],[78.7087,31.524],[78.7068,31.5211],[78.7066,31.5184],[78.7081,31.5149],[78.7151,31.5077],[78.7161,31.5039],[78.716,31.4872],[78.7166,31.4849],[78.7192,31.4841],[78.7236,31.486],[78.7238,31.486],[78.729,31.4871],[78.7442,31.4903],[78.7468,31.4905],[78.7481,31.4909],[78.7489,31.4906],[78.7515,31.4889],[78.7546,31.4807],[78.7605,31.4765],[78.7612,31.4758],[78.7612,31.4752],[78.7612,31.4749],[78.7623,31.4743],[78.7656,31.4724],[78.7661,31.4721],[78.7664,31.4714],[78.7682,31.4709],[78.7715,31.4691],[78.773,31.4675],[78.7742,31.4662],[78.7791,31.463],[78.7802,31.462],[78.7925,31.4554],[78.7955,31.4528],[78.7969,31.4491],[78.7973,31.4446],[78.796,31.4396],[78.7958,31.4345],[78.7956,31.4306],[78.7925,31.4179],[78.7897,31.4155],[78.7836,31.413],[78.7824,31.4122],[78.7819,31.4119],[78.7817,31.411],[78.7811,31.4105],[78.7765,31.4067],[78.776,31.4024],[78.7763,31.4015],[78.7764,31.4012],[78.7778,31.4014],[78.782,31.4004],[78.7945,31.3965],[78.8017,31.3938],[78.808,31.3923],[78.8113,31.3908],[78.8167,31.3884],[78.821,31.3842],[78.821,31.3833],[78.8267,31.3811],[78.8272,31.3813],[78.8301,31.3755],[78.8342,31.3725],[78.8348,31.3711],[78.8347,31.3705],[78.8358,31.3694],[78.8376,31.3644],[78.8381,31.3642],[78.8403,31.3544],[78.8401,31.3506],[78.8378,31.345],[78.8317,31.3389],[78.8287,31.3325],[78.829,31.3302],[78.8335,31.3291],[78.8351,31.3293],[78.8379,31.3288],[78.8387,31.3284],[78.8401,31.3277],[78.8456,31.3242],[78.8484,31.3223],[78.8494,31.321],[78.8506,31.32],[78.8506,31.3191],[78.8516,31.3184],[78.8521,31.3179],[78.8534,31.317],[78.8534,31.3161],[78.8539,31.3161],[78.8582,31.313],[78.8604,31.3091],[78.8608,31.3083],[78.8614,31.3083],[78.8614,31.3077],[78.8642,31.3053],[78.8646,31.3043],[78.8647,31.3037],[78.8675,31.3014],[78.8701,31.2914],[78.8706,31.2911],[78.871,31.2895],[78.8715,31.2893],[78.8783,31.2729],[78.8789,31.2726],[78.8795,31.2707],[78.885,31.2668],[78.8854,31.2665],[78.8896,31.2652],[78.9008,31.2613],[78.9069,31.2592],[78.9059,31.2502],[78.9099,31.2339],[78.9156,31.2252],[78.9196,31.2231],[78.9351,31.2224],[78.9351,31.2192],[78.9332,31.2146],[78.9359,31.2057],[78.9417,31.2008],[78.9449,31.1969],[78.9462,31.1936],[78.9528,31.1898],[78.9609,31.1864],[78.9662,31.186],[78.9685,31.1835],[78.9719,31.1824],[78.9747,31.1781],[78.9775,31.1702],[78.9777,31.1548],[78.9758,31.1507],[78.9781,31.1457],[78.9848,31.1409],[78.9871,31.1406],[78.9892,31.1374],[78.9908,31.1309],[78.9967,31.1176],[78.9967,31.1162],[78.9966,31.1153],[78.9908,31.1171],[78.9849,31.1165],[78.9657,31.1154],[78.9558,31.1109],[78.9524,31.1084],[78.9421,31.105],[78.9375,31.1053],[78.9326,31.107],[78.9205,31.1076],[78.9127,31.1162],[78.9078,31.1163],[78.9038,31.1155],[78.9006,31.1121],[78.8994,31.1076],[78.8968,31.1056],[78.8907,31.1061],[78.8842,31.1042],[78.88,31.1038],[78.8714,31.1073],[78.8623,31.1124],[78.852,31.1262],[78.8443,31.128],[78.8378,31.1307],[78.829,31.1363],[78.8247,31.1436],[78.8187,31.1472],[78.8159,31.1539],[78.8102,31.1639],[78.8117,31.1694],[78.8005,31.1783],[78.7976,31.1825],[78.798,31.1889],[78.8011,31.1939],[78.8032,31.1992],[78.8002,31.2024],[78.795,31.205],[78.7888,31.2045],[78.7709,31.1973],[78.7646,31.1959],[78.7576,31.1947],[78.7495,31.1944],[78.7204,31.197],[78.713,31.1967],[78.7075,31.195],[78.7007,31.1964],[78.6956,31.1963],[78.6761,31.2032],[78.6658,31.2025],[78.6598,31.2033],[78.6507,31.1979],[78.6477,31.1947],[78.6455,31.2025],[78.638,31.2084],[78.636,31.2196],[78.6345,31.2219],[78.6283,31.2219],[78.6171,31.2252],[78.6133,31.2274],[78.61,31.2311],[78.6006,31.2359],[78.5954,31.2364],[78.5839,31.2343],[78.5794,31.235],[78.5666,31.2337],[78.5619,31.2296],[78.5563,31.2274],[78.5502,31.2185],[78.5371,31.2067],[78.5141,31.2039],[78.4866,31.2042],[78.477,31.2051],[78.4701,31.2038],[78.4672,31.2118],[78.4666,31.2209],[78.4572,31.2278],[78.4441,31.2442],[78.4317,31.2496],[78.4271,31.256],[78.4195,31.2599],[78.4144,31.2509],[78.4051,31.2487],[78.3975,31.2478],[78.3913,31.253],[78.3931,31.2623],[78.3862,31.2696],[78.3833,31.2743],[78.3814,31.2815],[78.3735,31.2792],[78.3693,31.2879],[78.3634,31.2901],[78.3563,31.2909],[78.3475,31.2901],[78.3425,31.289],[78.3361,31.2875],[78.3266,31.2882],[78.3169,31.2851],[78.3063,31.2862],[78.2984,31.2882],[78.2968,31.2845],[78.2955,31.2729],[78.2934,31.266],[78.2885,31.2642],[78.2782,31.2667],[78.269,31.2714],[78.2581,31.2604],[78.255,31.2566],[78.2532,31.2529],[78.2497,31.2506],[78.2482,31.2467],[78.2426,31.2434],[78.2375,31.2439],[78.2376,31.2398],[78.2326,31.235],[78.2184,31.2387],[78.2121,31.2386],[78.2068,31.2372],[78.204,31.2341],[78.2003,31.2257],[78.1928,31.2229],[78.1876,31.2222],[78.1849,31.2233],[78.1765,31.23],[78.1714,31.2318],[78.1658,31.2311],[78.1631,31.2315],[78.1604,31.2319],[78.1554,31.2303],[78.1531,31.2307],[78.1478,31.2316],[78.1458,31.2269],[78.1436,31.2241],[78.1371,31.2224],[78.1349,31.2161],[78.1192,31.214],[78.1138,31.2062],[78.1098,31.2057],[78.1069,31.2025],[78.1008,31.1998],[78.0924,31.1928],[78.0877,31.1908],[78.0801,31.1907],[78.0755,31.1929],[78.0711,31.1928],[78.0592,31.1924],[78.0538,31.1929],[78.0397,31.1875],[78.0387,31.1872],[78.03,31.1853],[78.0269,31.1802],[78.0162,31.1715],[78.0153,31.1662],[78.0165,31.1585],[78.0142,31.1549],[78.0077,31.1571],[77.9926,31.167],[77.9852,31.168],[77.979,31.1664],[77.9694,31.1652],[77.9548,31.1788],[77.946,31.1762],[77.9412,31.1712],[77.9392,31.1673],[77.9344,31.1673],[77.9147,31.1566],[77.9094,31.1555],[77.9022,31.1588],[77.8928,31.1573],[77.8875,31.1547],[77.8897,31.149],[77.8858,31.1431],[77.8804,31.1374],[77.8791,31.1316],[77.8787,31.1247],[77.8728,31.1232],[77.8579,31.1162],[77.8515,31.111],[77.8501,31.1042],[77.8504,31.0952],[77.8428,31.0813],[77.8375,31.0775],[77.831,31.077],[77.8247,31.0744],[77.8195,31.0649],[77.8147,31.0609],[77.8095,31.0597],[77.8096,31.0614],[77.8069,31.0623],[77.8006,31.0621],[77.8049,31.0588],[77.805,31.0541],[77.8107,31.0436],[77.8151,31.0339],[77.8188,31.0323],[77.8216,31.0299],[77.8211,31.0211],[77.8188,31.0158],[77.8227,31.0118],[77.8253,31.0081],[77.8247,31.0052],[77.8101,31.0052],[77.8103,31.0021],[77.8136,30.9989],[77.8109,30.9954],[77.8075,30.9938],[77.8062,30.9881],[77.8065,30.985],[77.8062,30.9835],[77.8052,30.9816],[77.8032,30.9797],[77.7987,30.9761],[77.7973,30.973],[77.7964,30.9698],[77.7974,30.9678],[77.8016,30.9636],[77.8046,30.961],[77.8132,30.9624],[77.8164,30.962],[77.8189,30.9601],[77.8193,30.9568],[77.8171,30.9536],[77.8126,30.9528],[77.8075,30.9537],[77.8023,30.9551],[77.7966,30.9584],[77.7876,30.9657],[77.7784,30.9723],[77.7709,30.9757],[77.7639,30.977],[77.7539,30.9768],[77.742,30.9676],[77.7363,30.9636],[77.7346,30.9596],[77.7333,30.9495],[77.7349,30.944],[77.7357,30.942],[77.7367,30.9396],[77.7392,30.9367],[77.7436,30.9352],[77.7465,30.934],[77.7474,30.9287],[77.7456,30.9223],[77.7522,30.921],[77.7582,30.9204],[77.7632,30.9202],[77.7673,30.9205],[77.7716,30.9242],[77.7745,30.9253],[77.7819,30.9262],[77.7887,30.9263],[77.791,30.9261],[77.7934,30.926],[77.7956,30.9238],[77.795,30.9204],[77.7974,30.9167],[77.8008,30.9127],[77.799,30.9088],[77.7946,30.9035],[77.7909,30.9007],[77.7864,30.896],[77.7854,30.8934],[77.7844,30.8884],[77.7841,30.8822],[77.7836,30.8787],[77.7835,30.8721],[77.7871,30.8681],[77.7889,30.865],[77.7894,30.8585],[77.7785,30.86],[77.7736,30.861],[77.769,30.863],[77.7652,30.8652],[77.7628,30.8682],[77.7618,30.8751],[77.7603,30.8778],[77.7582,30.8805],[77.7545,30.8824],[77.7511,30.8827],[77.7477,30.8823],[77.7445,30.8812],[77.7418,30.8783],[77.7409,30.8743],[77.741,30.8699],[77.7417,30.8642],[77.7396,30.8602],[77.7357,30.857],[77.7334,30.8542],[77.7315,30.8508],[77.7334,30.8475],[77.7409,30.8402],[77.7441,30.8362],[77.7444,30.8299],[77.7404,30.8277],[77.7374,30.8263],[77.734,30.8241],[77.7309,30.8194],[77.7266,30.8144],[77.7241,30.811],[77.7194,30.8083],[77.7181,30.8051],[77.7171,30.7995],[77.7154,30.7942],[77.7086,30.7845],[77.7045,30.779],[77.6984,30.7734],[77.6927,30.7714],[77.6883,30.7687],[77.6915,30.7603],[77.693,30.7579],[77.6918,30.7551],[77.6904,30.7513],[77.6916,30.7483],[77.6939,30.7462],[77.6977,30.745],[77.7007,30.745],[77.7044,30.7457],[77.7072,30.7455],[77.7093,30.7442],[77.7116,30.7421],[77.7129,30.7395],[77.7153,30.7383],[77.7177,30.7389],[77.7203,30.7382],[77.7217,30.7364],[77.7225,30.7334],[77.7222,30.7306],[77.7252,30.7273],[77.7307,30.7245],[77.7323,30.7207],[77.7343,30.7167],[77.7373,30.7135],[77.7411,30.7107],[77.7404,30.7071],[77.7369,30.705],[77.7357,30.7016],[77.7336,30.6975],[77.7334,30.6935],[77.7334,30.6858],[77.7366,30.6828],[77.7428,30.6806],[77.7479,30.6781],[77.7542,30.6761],[77.7588,30.6724],[77.7629,30.6684],[77.7659,30.6653],[77.7695,30.6642],[77.7722,30.6654],[77.7742,30.6657],[77.7771,30.6656],[77.7791,30.6638],[77.7749,30.6585],[77.7703,30.6551],[77.7683,30.6515],[77.7722,30.645],[77.775,30.6411],[77.7755,30.6375],[77.7723,30.6324],[77.7713,30.6285],[77.7765,30.6261],[77.7796,30.6227],[77.782,30.6194],[77.7786,30.6179],[77.7722,30.6178],[77.7671,30.6182],[77.7613,30.6194],[77.7566,30.6203],[77.7556,30.6162],[77.7572,30.6048],[77.7544,30.6007],[77.7497,30.6014],[77.7425,30.6072],[77.7383,30.6081],[77.7348,30.6082],[77.7321,30.6071],[77.7316,30.6048],[77.7313,30.6015],[77.7295,30.5984],[77.7319,30.5962],[77.7386,30.5929],[77.7436,30.5898],[77.7462,30.5844],[77.7495,30.58],[77.7519,30.5746],[77.7535,30.5702],[77.7573,30.5656],[77.7618,30.563],[77.7665,30.5635],[77.7709,30.5624],[77.7746,30.5589],[77.7783,30.5574],[77.7864,30.5614],[77.7906,30.5603],[77.7952,30.5611],[77.7983,30.5641],[77.8032,30.5638],[77.8059,30.5607],[77.8069,30.5543],[77.8068,30.5493],[77.81,30.544],[77.8122,30.538],[77.8106,30.5332],[77.805,30.5248],[77.8041,30.5204],[77.802,30.5154],[77.8006,30.5132],[77.7992,30.5114],[77.7939,30.5086],[77.7882,30.5061],[77.7676,30.5044],[77.7634,30.5002],[77.755,30.4983],[77.7475,30.494],[77.7366,30.4873],[77.7293,30.4823],[77.7214,30.4778],[77.7112,30.4773],[77.7047,30.4734],[77.6992,30.4687],[77.6901,30.4629],[77.6822,30.4577],[77.6791,30.4517],[77.6616,30.4488],[77.6532,30.4495],[77.6467,30.4525],[77.6402,30.4524],[77.6378,30.4495],[77.6357,30.4443],[77.6333,30.4398],[77.6305,30.4362],[77.6167,30.4362],[77.612,30.4384],[77.6038,30.4374],[77.5904,30.4338],[77.5811,30.4303],[77.5746,30.4265],[77.5679,30.4217],[77.5629,30.4171],[77.5622,30.4101],[77.5631,30.4045],[77.5679,30.3988],[77.5729,30.3931],[77.5762,30.3899],[77.5749,30.3845],[77.5653,30.3849],[77.5579,30.3904],[77.5525,30.3934],[77.5429,30.3972],[77.5387,30.4019],[77.5356,30.4091],[77.5293,30.4135],[77.5258,30.4171],[77.518,30.4309],[77.5144,30.4394],[77.5098,30.4488],[77.5053,30.4484],[77.5012,30.4437],[77.4929,30.433],[77.4912,30.425],[77.4913,30.4174],[77.4868,30.4126],[77.4826,30.4152],[77.4775,30.4133],[77.468,30.4118],[77.461,30.4054],[77.4531,30.4048],[77.443,30.4046],[77.435,30.4037],[77.4304,30.4075],[77.4164,30.4084],[77.4159,30.4128],[77.4209,30.4168],[77.4257,30.42],[77.4397,30.4244],[77.442,30.4299],[77.4533,30.4404],[77.4543,30.4461],[77.4568,30.4516],[77.4563,30.4582],[77.4505,30.4652],[77.4457,30.4657],[77.4356,30.451],[77.4262,30.4411],[77.4172,30.4338],[77.4076,30.4279],[77.4006,30.4188],[77.3955,30.4209],[77.3968,30.4305],[77.3941,30.4343],[77.3819,30.4393],[77.3804,30.4461],[77.3762,30.4463],[77.3697,30.4458],[77.3568,30.4421],[77.3535,30.4486],[77.3497,30.4573],[77.3461,30.4619],[77.3394,30.4636],[77.3327,30.4642],[77.3263,30.4632],[77.3224,30.4621],[77.3168,30.4576],[77.3107,30.4536],[77.3007,30.4566],[77.2937,30.4591],[77.2824,30.4619],[77.2746,30.464],[77.2636,30.4667],[77.2619,30.471],[77.2608,30.4761],[77.2566,30.4814],[77.2518,30.4844],[77.2419,30.4854],[77.2335,30.4875],[77.2268,30.4886],[77.2189,30.486],[77.2119,30.4819],[77.2026,30.4803],[77.199,30.4845],[77.2003,30.489],[77.1996,30.4991],[77.1997,30.5066],[77.1959,30.5118],[77.1908,30.5193],[77.1853,30.5259],[77.1746,30.5305],[77.1695,30.5329],[77.1637,30.5341],[77.152,30.5369],[77.1455,30.5378],[77.1376,30.5386],[77.1311,30.5415],[77.1223,30.5482],[77.1165,30.5574],[77.1137,30.5624],[77.1115,30.5673],[77.1129,30.5682],[77.1151,30.5698],[77.1206,30.5712],[77.1238,30.5727],[77.1259,30.5737],[77.1327,30.5785],[77.1398,30.5832],[77.1469,30.589],[77.1512,30.5928],[77.1541,30.5963],[77.1575,30.5996],[77.1586,30.6031],[77.1585,30.6075],[77.1586,30.6138],[77.1599,30.6315],[77.1624,30.6387],[77.1604,30.6424],[77.1562,30.6479],[77.1527,30.6542],[77.1526,30.6588],[77.1552,30.6681],[77.1539,30.6769],[77.1507,30.6812],[77.1502,30.6846],[77.1535,30.6887],[77.1518,30.6905],[77.1474,30.6935],[77.1404,30.6976],[77.1338,30.7022],[77.1251,30.7071],[77.1222,30.7122],[77.1174,30.7179],[77.1096,30.7227],[77.1032,30.7204],[77.0999,30.7223],[77.1002,30.7264],[77.1023,30.7308],[77.1006,30.7324],[77.0961,30.7346],[77.0911,30.7362],[77.0863,30.7399],[77.0768,30.7448],[77.0697,30.747],[77.0617,30.7461],[77.055,30.7467],[77.0471,30.7487],[77.038,30.7531],[77.0337,30.7554],[77.0303,30.7518],[77.0304,30.7463],[77.0283,30.7434],[77.024,30.7416],[77.0181,30.7404],[77.0131,30.7422],[77.0094,30.7457],[77.0064,30.7495],[77.0047,30.7525],[77.0047,30.7574],[77.0058,30.7618],[77.0045,30.7663],[77.0024,30.768],[76.9988,30.7692],[76.9952,30.771],[76.9912,30.7735],[76.9886,30.7771],[76.991,30.7807],[76.9949,30.7851],[77,30.789],[76.9997,30.794],[77.0004,30.7976],[76.9997,30.8049],[76.9985,30.8097],[76.998,30.8143],[76.9958,30.8167],[76.9927,30.8183],[76.9885,30.815],[76.9865,30.8132],[76.9848,30.8105],[76.9826,30.8043],[76.9791,30.7988],[76.9686,30.808],[76.9618,30.809],[76.9538,30.8112],[76.9476,30.8232],[76.9428,30.8292],[76.9337,30.832],[76.9275,30.8374],[76.9278,30.8481],[76.9266,30.8544],[76.9158,30.8693],[76.9071,30.891],[76.9022,30.8972],[76.8866,30.8883],[76.8786,30.886],[76.8696,30.8782],[76.8618,30.8736],[76.8524,30.8707],[76.8372,30.8789],[76.8227,30.8881],[76.8158,30.896],[76.8098,30.9068],[76.8144,30.9213],[76.8134,30.9273],[76.8102,30.9304],[76.7988,30.9246],[76.7699,30.9064],[76.7538,30.9178],[76.7541,30.923],[76.7487,30.9238],[76.7486,30.9292],[76.7438,30.929],[76.7384,30.9301],[76.726,30.9393],[76.7255,30.9425],[76.7241,30.9506],[76.7126,30.9634],[76.7051,30.9633],[76.6984,30.9689],[76.6962,30.9718],[76.6942,30.9725],[76.6682,30.9699],[76.6626,30.9711],[76.6531,30.9818],[76.6333,30.9907],[76.6259,30.9925],[76.6209,30.9983],[76.6124,31.0021],[76.6101,31.0042],[76.6136,31.022],[76.6052,31.0335],[76.6015,31.0436],[76.599,31.0536],[76.6095,31.0607],[76.6049,31.0784],[76.6078,31.0835],[76.6118,31.0964],[76.6257,31.1102],[76.6237,31.118],[76.6156,31.1216],[76.6073,31.1196],[76.5974,31.1262],[76.5893,31.1277],[76.594,31.1365],[76.5987,31.1512],[76.5947,31.1513],[76.5901,31.1573],[76.5915,31.1603],[76.5894,31.1648],[76.5925,31.1723],[76.5904,31.1829],[76.5983,31.1865],[76.6007,31.191],[76.6058,31.1971],[76.6122,31.2026],[76.6187,31.2039],[76.6201,31.2067],[76.6354,31.213],[76.6341,31.2153],[76.6245,31.221],[76.6259,31.2271],[76.6163,31.2294],[76.5868,31.2161],[76.5806,31.2164],[76.5794,31.2205],[76.576,31.2258],[76.5825,31.2309],[76.5847,31.2396],[76.5927,31.2462],[76.6016,31.2509],[76.5705,31.2801],[76.5522,31.2649],[76.5459,31.2559],[76.535,31.2554],[76.5326,31.2665],[76.5348,31.2723],[76.5372,31.284],[76.5312,31.2835],[76.5279,31.27],[76.5181,31.2623],[76.5143,31.2645],[76.5166,31.2774],[76.5143,31.2831],[76.5109,31.2826],[76.5034,31.2779],[76.4982,31.2733],[76.4886,31.2734],[76.4832,31.2843],[76.4797,31.2891],[76.4756,31.2922],[76.4751,31.299],[76.4725,31.3067],[76.4667,31.3102],[76.4621,31.3068],[76.451,31.2962],[76.4458,31.2897],[76.4311,31.2828],[76.4285,31.2892],[76.4358,31.2946],[76.4456,31.3004],[76.4483,31.306],[76.4374,31.3174],[76.428,31.3252],[76.4182,31.3373],[76.4128,31.3477],[76.4088,31.3537],[76.3992,31.3655],[76.3911,31.3786],[76.3792,31.3912],[76.3904,31.3973],[76.3816,31.4106],[76.373,31.4136],[76.3753,31.4222],[76.3692,31.4281],[76.3631,31.4414],[76.3568,31.4296],[76.3591,31.4156],[76.3531,31.4125],[76.3469,31.4057],[76.3346,31.4037],[76.3295,31.4011],[76.3158,31.4024],[76.3188,31.3882],[76.3182,31.3811],[76.3296,31.3795],[76.33,31.3677],[76.3313,31.3591],[76.3367,31.353],[76.3301,31.3453],[76.3245,31.3471],[76.3178,31.3522],[76.3158,31.3475],[76.2999,31.3438],[76.296,31.3422],[76.3023,31.3264],[76.2961,31.3192],[76.2904,31.3156],[76.2844,31.3136],[76.2774,31.3099],[76.2684,31.3066],[76.2612,31.3058],[76.2556,31.315],[76.2441,31.3137],[76.2232,31.3131],[76.215,31.3076],[76.2064,31.3053],[76.1857,31.3047],[76.1728,31.3067],[76.1685,31.3141],[76.1661,31.3262],[76.1663,31.3415],[76.1581,31.3469],[76.1477,31.3481],[76.1396,31.3531],[76.135,31.3618],[76.1341,31.3826],[76.1386,31.3869],[76.1471,31.3919],[76.153,31.3973],[76.1567,31.4045],[76.1535,31.414],[76.1471,31.4188],[76.1471,31.4256],[76.1435,31.4323],[76.1351,31.4375],[76.1282,31.4438],[76.1226,31.4537],[76.1213,31.461],[76.1155,31.4654],[76.1147,31.4735],[76.108,31.4822],[76.1082,31.4951],[76.1041,31.5023],[76.0946,31.5142],[76.0906,31.519],[76.089,31.5276],[76.084,31.5372],[76.0768,31.546],[76.0716,31.5541],[76.066,31.5605],[76.0649,31.5618],[76.0515,31.5818],[76.0432,31.592],[76.0427,31.5959],[76.044,31.603],[76.04,31.6085],[76.0367,31.6068],[76.0314,31.6095],[76.0232,31.6155],[76.0176,31.6217],[76.0027,31.6466],[76.0062,31.6514],[76.0039,31.6569],[76.0047,31.663],[75.9974,31.6689],[75.9974,31.676],[75.9947,31.6815],[75.9921,31.6845],[75.991,31.6858],[75.9907,31.6847],[75.9856,31.6854],[75.9758,31.6953],[75.9774,31.705],[75.9726,31.7152],[75.9694,31.7197],[75.966,31.7335],[75.961,31.7368],[75.9576,31.7405],[75.9597,31.7443],[75.9595,31.7495],[75.9519,31.763],[75.9451,31.7813],[75.9364,31.7843],[75.9358,31.7897],[75.933,31.7971],[75.9272,31.8051],[75.9218,31.8172],[75.9268,31.8164],[75.9293,31.8152],[75.9333,31.815],[75.9361,31.8183],[75.9488,31.8231],[75.9529,31.824],[75.9603,31.8185],[75.967,31.8149],[75.9715,31.8145],[75.9709,31.8192],[75.9676,31.8235],[75.9558,31.8324],[75.9536,31.84],[75.9497,31.8481],[75.9443,31.8575],[75.9384,31.8679],[75.9314,31.8838],[75.9262,31.8898],[75.9127,31.9166],[75.9028,31.9279],[75.896,31.9403],[75.8945,31.9498],[75.8777,31.962],[75.8697,31.966],[75.8685,31.9669],[75.8662,31.9688],[75.8568,31.9695],[75.8513,31.9725],[75.8416,31.9736],[75.8364,31.9816],[75.814,31.9834],[75.8056,31.985],[75.7951,31.9886],[75.7843,31.9943],[75.7743,32.0008],[75.7664,32.0076],[75.7615,32.0139],[75.7538,32.0199],[75.7484,32.0272],[75.74,32.0345],[75.738,32.0358],[75.734,32.0373],[75.7232,32.0362],[75.7105,32.036],[75.7004,32.0436],[75.6923,32.0595],[75.6898,32.0615],[75.6731,32.0669],[75.6494,32.0772],[75.6401,32.0767],[75.6253,32.0727],[75.6096,32.0695],[75.5985,32.066],[75.5788,32.0817],[75.6106,32.0996],[75.6312,32.1195],[75.6479,32.1377],[75.6555,32.1461],[75.6618,32.1647],[75.6562,32.1766],[75.6496,32.1797],[75.6202,32.1852],[75.6194,32.1898],[75.6183,32.197],[75.6201,32.2202],[75.6218,32.23],[75.6225,32.2347],[75.6341,32.2447],[75.6409,32.2474],[75.6524,32.2554],[75.6549,32.2559],[75.6758,32.264],[75.6849,32.265],[75.7049,32.2672],[75.7364,32.2738],[75.7518,32.2842],[75.7547,32.2861],[75.7619,32.2961],[75.7634,32.3022],[75.7831,32.3222],[75.7855,32.3238],[75.7937,32.3324],[75.7993,32.3374],[75.8139,32.3506],[75.8189,32.355],[75.8374,32.373],[75.8439,32.3793],[75.8663,32.3946],[75.8719,32.3984],[75.9111,32.4092],[75.9154,32.4103],[75.9259,32.4118],[75.9322,32.4168],[75.9346,32.4248],[75.9314,32.4308],[75.9244,32.439],[75.9155,32.4487],[75.8954,32.4619],[75.8871,32.472],[75.8688,32.4887],[75.8553,32.4996],[75.851,32.5079],[75.8514,32.5213],[75.8564,32.5377],[75.8703,32.5588],[75.8755,32.5709],[75.8725,32.5762],[75.8863,32.5919],[75.9046,32.6152],[75.9078,32.6191],[75.9236,32.6437],[75.9254,32.6543],[75.9241,32.6582],[75.9148,32.6659],[75.9054,32.6722],[75.8989,32.6806],[75.8966,32.6911],[75.8991,32.7002],[75.9049,32.7094],[75.9098,32.7209],[75.914,32.742],[75.9125,32.7571],[75.9001,32.7699],[75.8857,32.7955],[75.8738,32.8137],[75.8552,32.8261],[75.8374,32.8368],[75.8275,32.8404],[75.8211,32.8428],[75.8158,32.8471],[75.8083,32.8532],[75.8055,32.8561],[75.7954,32.8693],[75.7946,32.8702],[75.7898,32.8814],[75.7892,32.8846],[75.7874,32.8933],[75.7899,32.894],[75.7938,32.8973],[75.7984,32.9022],[75.8,32.9039],[75.8018,32.9103],[75.7983,32.9194],[75.8033,32.9235],[75.808,32.9298],[75.8214,32.9335],[75.8281,32.9341],[75.8339,32.9346],[75.8501,32.9312],[75.8671,32.9302],[75.8809,32.9248],[75.9001,32.9157],[75.9136,32.9062],[75.9232,32.8981],[75.9338,32.8843],[75.9396,32.8842],[75.9458,32.8851],[75.9832,32.9004],[75.9874,32.9006],[75.9975,32.9094],[76.0046,32.914],[76.0135,32.9159],[76.0172,32.9176],[76.0212,32.9244],[76.0237,32.9316],[76.0281,32.9374],[76.0426,32.9402],[76.0504,32.9443],[76.0545,32.951],[76.0659,32.958],[76.07,32.9622],[76.0783,32.9661],[76.0822,32.9688],[76.0857,32.975],[76.0912,32.9928],[76.0946,33.0003],[76.0937,33.0048],[76.1073,33.0079],[76.116,33.0086],[76.1205,33.0104],[76.1282,33.0101],[76.1439,33.0165],[76.1522,33.0229],[76.1883,33.0276],[76.2162,33.0286],[76.2295,33.0303],[76.2298,33.0308],[76.2373,33.0326],[76.2552,33.0523],[76.2675,33.0861],[76.2712,33.0964],[76.2758,33.098],[76.2769,33.1006],[76.275,33.104],[76.288,33.1132],[76.2919,33.1202],[76.3069,33.1272],[76.3155,33.1302],[76.3356,33.1463],[76.3521,33.1548],[76.3558,33.1546],[76.3589,33.1575],[76.3608,33.1628],[76.3662,33.168],[76.3735,33.1735],[76.3799,33.1765],[76.3846,33.1829],[76.3917,33.1867],[76.4007,33.1866],[76.4077,33.1884],[76.4218,33.1818],[76.4298,33.1828],[76.4418,33.1805],[76.4502,33.1829],[76.4556,33.1833],[76.4661,33.1799],[76.4691,33.1799],[76.4888,33.1902],[76.496,33.196],[76.4988,33.1967],[76.5058,33.1958],[76.5202,33.2004],[76.5342,33.1993],[76.542,33.2068],[76.5475,33.2095],[76.5559,33.2069],[76.563,33.2062],[76.5676,33.2071],[76.5767,33.2058],[76.5819,33.2069],[76.5862,33.2042],[76.5847,33.1996],[76.584,33.1931],[76.588,33.19],[76.5925,33.1906],[76.5973,33.188],[76.5989,33.1839],[76.5985,33.1765],[76.5996,33.1738],[76.6126,33.166],[76.627,33.1625],[76.6407,33.1647],[76.6511,33.1718],[76.6587,33.1712],[76.6594,33.1711],[76.6606,33.1713],[76.6695,33.1733],[76.6853,33.174],[76.6937,33.1776],[76.6967,33.1815],[76.7085,33.1813],[76.7142,33.1774],[76.7299,33.1794],[76.7306,33.1853],[76.7344,33.1931],[76.7421,33.1975],[76.7456,33.2043],[76.7506,33.2101],[76.7561,33.2198],[76.7599,33.2247],[76.7624,33.2395],[76.7576,33.2431],[76.7552,33.2474],[76.7553,33.2495],[76.7569,33.2505],[76.76,33.253],[76.7636,33.2543],[76.7783,33.2557],[76.7854,33.2536],[76.7969,33.2412],[76.8028,33.2367]]]}}]}