{"type":"FeatureCollection","name":"Jammu_and_Kashmir","crs":{"type":"name","properties":{"name":"urn:ogc:def:crs:OGC:1.3:CRS84"}},"features":[{"type":"Feature","properties":{"ID_0":105,"ISO":"IND","NAME_0":"India","ID_1":15,"NAME_1":"Jammu and Kashmir","TYPE_1":"State","ENGTYPE_1":"State","NL_NAME_1":null,"VARNAME_1":null},"geometry":{"type":"Polygon","coordinates":[[[77.8996,35.4279],[77.903,35.4276],[77.9102,35.4294],[77.9199,35.4343],[77.9209,35.4349],[77.928,35.4405],[77.9438,35.463],[77.9446,35.4641],[77.9513,35.4736],[77.9617,35.4801],[77.9669,35.4813],[77.9906,35.4871],[78.01,35.4892],[78.02,35.4903],[78.0454,35.4911],[78.0638,35.4917],[78.0648,35.4917],[78.0794,35.4922],[78.0819,35.4917],[78.0877,35.4906],[78.0943,35.4893],[78.104,35.4845],[78.107,35.4804],[78.1098,35.4768],[78.1108,35.4727],[78.1077,35.4646],[78.1045,35.4618],[78.0973,35.4556],[78.0796,35.4482],[78.0718,35.4468],[78.0702,35.4446],[78.0689,35.4429],[78.0317,35.4231],[78.0301,35.4205],[78.0298,35.42],[78.0285,35.4193],[78.0246,35.4172],[78.0212,35.4169],[78.0208,35.4165],[78.0195,35.4153],[77.9971,35.3941],[77.9903,35.379],[77.99,35.3636],[77.9919,35.3485],[77.9943,35.3449],[78.0015,35.298],[78.002,35.2946],[78.0064,35.2904],[78.0137,35.2642],[78.0177,35.2498],[78.0318,35.2202],[78.0428,35.2023],[78.0436,35.2013],[78.0522,35.1911],[78.0576,35.1847],[78.0597,35.1831],[78.069,35.176],[78.0774,35.1727],[78.0783,35.1723],[78.1161,35.1454],[78.1184,35.1424],[78.1242,35.1354],[78.1261,35.129],[78.1253,35.126],[78.1243,35.1219],[78.1171,35.1116],[78.111,35.1073],[78.0977,35.0979],[78.0889,35.0958],[78.0883,35.0957],[78.0843,35.0908],[78.0829,35.0825],[78.0949,35.0569],[78.1148,35.0148],[78.1183,35.0066],[78.1211,35],[78.1303,34.9783],[78.1335,34.9709],[78.1673,34.9121],[78.1736,34.9063],[78.1752,34.9028],[78.1846,34.8815],[78.1883,34.8628],[78.2073,34.7661],[78.2104,34.7589],[78.2187,34.7396],[78.221,34.734],[78.2316,34.7168],[78.2318,34.7165],[78.248,34.6951],[78.2657,34.6794],[78.2726,34.6749],[78.274,34.674],[78.2844,34.6674],[78.3003,34.6619],[78.3068,34.6609],[78.3173,34.6593],[78.3235,34.6566],[78.3249,34.656],[78.3872,34.6516],[78.3955,34.6494],[78.3984,34.6486],[78.3987,34.6484],[78.4046,34.6439],[78.407,34.6366],[78.4069,34.621],[78.4093,34.6135],[78.4181,34.6054],[78.4251,34.6035],[78.4355,34.6029],[78.4432,34.6024],[78.4592,34.6028],[78.4822,34.6033],[78.5115,34.6091],[78.5371,34.6142],[78.5582,34.6147],[78.5693,34.6119],[78.5821,34.6031],[78.6111,34.5831],[78.621,34.5743],[78.6376,34.5523],[78.6438,34.5478],[78.6525,34.5382],[78.6601,34.5297],[78.6806,34.5156],[78.6862,34.5128],[78.6963,34.5076],[78.7166,34.501],[78.7301,34.4967],[78.7361,34.4917],[78.7383,34.4899],[78.7494,34.477],[78.7504,34.4751],[78.7528,34.4702],[78.7541,34.469],[78.763,34.4605],[78.7885,34.4414],[78.7994,34.4333],[78.825,34.4141],[78.8373,34.407],[78.8381,34.4065],[78.8757,34.3947],[78.8916,34.3896],[78.915,34.3788],[78.9225,34.3754],[78.9274,34.3716],[78.9292,34.3703],[78.9399,34.3621],[78.9607,34.3461],[78.9688,34.3416],[78.9767,34.3339],[78.9815,34.3329],[78.9892,34.3193],[78.9901,34.3178],[78.9942,34.3025],[78.9934,34.2887],[78.985,34.2678],[78.975,34.2429],[78.9562,34.2178],[78.9421,34.2048],[78.9353,34.1996],[78.9104,34.1805],[78.8944,34.17],[78.8889,34.1664],[78.879,34.1613],[78.8711,34.1572],[78.8588,34.1518],[78.8153,34.1326],[78.7743,34.1145],[78.7709,34.1137],[78.7639,34.1121],[78.7607,34.1114],[78.7595,34.1111],[78.7292,34.0957],[78.7244,34.0914],[78.7133,34.0815],[78.7064,34.0722],[78.7061,34.0586],[78.7121,34.0505],[78.7318,34.0425],[78.7595,34.0363],[78.7599,34.0363],[78.7606,34.0361],[78.766,34.0325],[78.7683,34.0257],[78.7704,34.0197],[78.7684,34.0145],[78.7636,34.0015],[78.7429,33.9873],[78.7284,33.9773],[78.7158,33.9645],[78.7143,33.9595],[78.7162,33.9489],[78.7172,33.949],[78.7167,33.9391],[78.7149,33.9334],[78.7116,33.9225],[78.7172,33.8905],[78.7257,33.8711],[78.7418,33.8402],[78.7613,33.8173],[78.762,33.8165],[78.7751,33.8013],[78.7805,33.7892],[78.784,33.7704],[78.7753,33.7464],[78.7752,33.7462],[78.7624,33.7307],[78.7576,33.7265],[78.7373,33.7089],[78.7372,33.7088],[78.7318,33.704],[78.7093,33.6796],[78.7084,33.6761],[78.7068,33.6695],[78.7094,33.6605],[78.711,33.6549],[78.7273,33.6228],[78.7299,33.6176],[78.7422,33.5974],[78.7435,33.5954],[78.7581,33.5714],[78.7632,33.563],[78.7707,33.552],[78.7839,33.5326],[78.7912,33.5252],[78.8039,33.5068],[78.8186,33.4891],[78.8207,33.4865],[78.8233,33.4835],[78.8704,33.4397],[78.8715,33.4391],[78.8757,33.4368],[78.8954,33.4203],[78.9213,33.3987],[78.9411,33.3901],[78.9548,33.3742],[78.9727,33.3673],[78.9795,33.3588],[78.9887,33.3474],[78.9987,33.3402],[79.0042,33.3363],[79.0195,33.3308],[79.0338,33.3136],[79.0366,33.3121],[79.0477,33.3061],[79.0666,33.2959],[79.0708,33.2909],[79.0731,33.2836],[79.0693,33.2731],[79.0661,33.2645],[79.0668,33.2546],[79.0672,33.2498],[79.0715,33.2382],[79.075,33.2286],[79.093,33.2205],[79.1133,33.2113],[79.1277,33.2047],[79.1414,33.2001],[79.157,33.1979],[79.1648,33.1968],[79.1805,33.1946],[79.183,33.1929],[79.1855,33.1912],[79.2062,33.194],[79.2124,33.1948],[79.3152,33.1888],[79.3558,33.1895],[79.3773,33.1899],[79.3936,33.1889],[79.3991,33.1871],[79.402,33.1849],[79.4098,33.1788],[79.4168,33.1667],[79.4175,33.1552],[79.4155,33.1477],[79.4132,33.1419],[79.4108,33.1357],[79.3985,33.1147],[79.3973,33.1094],[79.395,33.1072],[79.3933,33.1054],[79.3906,33.1027],[79.3736,33.0734],[79.3733,33.072],[79.3723,33.0675],[79.3676,33.0616],[79.3662,33.0598],[79.3549,33.0306],[79.353,33.0226],[79.3519,33.0177],[79.35,32.9962],[79.3507,32.9913],[79.351,32.9894],[79.3512,32.9878],[79.3525,32.979],[79.3621,32.9621],[79.365,32.9569],[79.3811,32.9396],[79.3831,32.9374],[79.3871,32.9331],[79.391,32.9304],[79.3991,32.9249],[79.4187,32.9114],[79.4321,32.9051],[79.4349,32.9003],[79.4419,32.8947],[79.4462,32.8911],[79.4486,32.8892],[79.4544,32.8804],[79.4551,32.8781],[79.457,32.8714],[79.4645,32.8167],[79.4712,32.8028],[79.4778,32.7962],[79.4844,32.7897],[79.4963,32.7841],[79.5152,32.7753],[79.5267,32.7676],[79.5333,32.7599],[79.5405,32.7487],[79.544,32.7395],[79.5454,32.7359],[79.5474,32.7307],[79.5554,32.7096],[79.5612,32.684],[79.5626,32.6782],[79.5643,32.6708],[79.5578,32.6306],[79.5536,32.6203],[79.5498,32.6144],[79.5454,32.6074],[79.524,32.5959],[79.522,32.5948],[79.5144,32.5929],[79.5088,32.5915],[79.4885,32.5928],[79.485,32.5931],[79.4781,32.5929],[79.4641,32.5927],[79.448,32.5861],[79.4363,32.5799],[79.4303,32.5767],[79.4038,32.5577],[79.3622,32.5376],[79.3615,32.537],[79.36,32.5359],[79.3532,32.5311],[79.347,32.5266],[79.3203,32.4913],[79.3137,32.4879],[79.3122,32.4871],[79.3049,32.4865],[79.2973,32.4885],[79.2701,32.5178],[79.2607,32.5223],[79.2584,32.5234],[79.2579,32.5233],[79.2532,32.5229],[79.2482,32.5224],[79.235,32.519],[79.2331,32.5185],[79.2231,32.516],[79.2209,32.5154],[79.2138,32.5136],[79.2069,32.5118],[79.203,32.5108],[79.1833,32.501],[79.1651,32.4919],[79.1489,32.4838],[79.1289,32.4664],[79.1265,32.4643],[79.1217,32.4561],[79.1202,32.4536],[79.1201,32.4533],[79.1181,32.45],[79.1198,32.4383],[79.1219,32.4232],[79.1213,32.4176],[79.1212,32.4161],[79.1118,32.3993],[79.1091,32.3832],[79.1045,32.3717],[79.0956,32.3679],[79.0919,32.369],[79.0766,32.379],[79.0675,32.385],[79.0642,32.3852],[79.0597,32.3856],[79.0492,32.3834],[79.049,32.3833],[79.0465,32.3816],[79.025,32.367],[78.9938,32.3643],[78.9825,32.3458],[78.9772,32.3428],[78.9737,32.3436],[78.971,32.3443],[78.924,32.3633],[78.9189,32.3654],[78.9147,32.3671],[78.9141,32.3677],[78.9023,32.3814],[78.9,32.3841],[78.888,32.3924],[78.8858,32.396],[78.8746,32.4146],[78.8674,32.4191],[78.8569,32.4189],[78.836,32.4253],[78.8212,32.4363],[78.8198,32.4373],[78.8179,32.4387],[78.8164,32.4406],[78.7979,32.4632],[78.7964,32.4643],[78.7812,32.4753],[78.7767,32.4839],[78.7754,32.4906],[78.7756,32.5164],[78.7756,32.5197],[78.7726,32.5443],[78.7679,32.5533],[78.7668,32.5555],[78.7656,32.5578],[78.7643,32.5648],[78.7637,32.5678],[78.7652,32.5749],[78.7765,32.5882],[78.7803,32.5983],[78.7793,32.6022],[78.7758,32.6156],[78.7706,32.6355],[78.7681,32.663],[78.7652,32.6737],[78.7646,32.6761],[78.7639,32.6785],[78.7603,32.6842],[78.7459,32.6961],[78.7421,32.696],[78.7365,32.6959],[78.717,32.6807],[78.6643,32.6565],[78.6544,32.6492],[78.6516,32.6444],[78.6323,32.6111],[78.6257,32.6071],[78.6033,32.6044],[78.5998,32.6053],[78.5947,32.6065],[78.587,32.6085],[78.5593,32.6123],[78.5499,32.6123],[78.5495,32.6123],[78.5452,32.6123],[78.5449,32.6123],[78.5389,32.6104],[78.537,32.6098],[78.5368,32.6097],[78.5311,32.608],[78.5264,32.6065],[78.5089,32.5947],[78.5033,32.5896],[78.4959,32.5827],[78.4856,32.5732],[78.4797,32.5731],[78.4727,32.5779],[78.4725,32.578],[78.4715,32.5782],[78.4703,32.5785],[78.4616,32.5803],[78.4527,32.5795],[78.4433,32.5721],[78.4379,32.5678],[78.4122,32.5561],[78.4115,32.5543],[78.4043,32.5387],[78.4052,32.5252],[78.4113,32.5198],[78.412,32.5191],[78.4165,32.5151],[78.4133,32.5132],[78.4108,32.5117],[78.4092,32.512],[78.4089,32.5127],[78.4052,32.5142],[78.4053,32.5151],[78.4014,32.5182],[78.4003,32.5237],[78.3991,32.5264],[78.3979,32.5271],[78.3944,32.5285],[78.3824,32.5297],[78.3767,32.5261],[78.3564,32.5127],[78.3104,32.4759],[78.3062,32.4777],[78.2785,32.5079],[78.295,32.5225],[78.2992,32.5293],[78.2966,32.5775],[78.3024,32.5787],[78.318,32.5802],[78.3318,32.5849],[78.3406,32.5931],[78.3771,32.6149],[78.3888,32.6232],[78.3759,32.6296],[78.3709,32.6382],[78.3632,32.672],[78.3637,32.6855],[78.3676,32.6995],[78.3778,32.7193],[78.3749,32.7226],[78.3712,32.7337],[78.3707,32.7458],[78.3728,32.7602],[78.3714,32.7618],[78.3643,32.763],[78.3447,32.7634],[78.3139,32.749],[78.2877,32.7378],[78.2946,32.7316],[78.2981,32.7248],[78.2986,32.7197],[78.2957,32.7128],[78.2849,32.7068],[78.2727,32.7029],[78.2591,32.7029],[78.2366,32.6947],[78.2333,32.6837],[78.225,32.6756],[78.2129,32.6692],[78.2016,32.6652],[78.195,32.6673],[78.184,32.6639],[78.1795,32.6704],[78.1705,32.6772],[78.1584,32.6791],[78.1525,32.679],[78.1444,32.6766],[78.136,32.6703],[78.1307,32.6601],[78.1267,32.6491],[78.1215,32.6423],[78.1162,32.6424],[78.107,32.6497],[78.0993,32.66],[78.0934,32.6622],[78.0885,32.6598],[78.079,32.6528],[78.0729,32.6444],[78.0675,32.6256],[78.0653,32.6243],[78.059,32.6246],[78.0441,32.6288],[78.0339,32.6356],[78.0327,32.6338],[78.0324,32.6284],[78.0344,32.6157],[78.0368,32.6109],[78.0415,32.6053],[78.0416,32.5992],[78.0358,32.5919],[78.0274,32.5886],[78.0174,32.587],[77.9871,32.5882],[77.9826,32.5865],[77.9767,32.5919],[77.975,32.5964],[77.9678,32.608],[77.9622,32.6138],[77.9595,32.6207],[77.9542,32.626],[77.9551,32.6348],[77.9527,32.6404],[77.9465,32.6427],[77.9389,32.648],[77.9323,32.6562],[77.9272,32.6626],[77.9262,32.6668],[77.9202,32.6795],[77.911,32.6882],[77.9033,32.6931],[77.9024,32.6984],[77.9057,32.7036],[77.9063,32.7123],[77.9085,32.7164],[77.9094,32.7214],[77.912,32.7258],[77.9185,32.7308],[77.9156,32.7337],[77.9118,32.7365],[77.9143,32.7418],[77.9144,32.7445],[77.9172,32.7519],[77.9179,32.7569],[77.9169,32.7627],[77.9151,32.7661],[77.9123,32.7672],[77.9089,32.7721],[77.9035,32.7729],[77.8995,32.7753],[77.8909,32.7745],[77.8875,32.7753],[77.8809,32.7754],[77.8763,32.78],[77.8722,32.7863],[77.867,32.7903],[77.869,32.8004],[77.8645,32.8065],[77.8638,32.8115],[77.8613,32.8162],[77.855,32.8212],[77.8525,32.8252],[77.8476,32.8284],[77.8314,32.835],[77.8251,32.8399],[77.8188,32.8385],[77.8143,32.8362],[77.8082,32.836],[77.799,32.8458],[77.7919,32.8493],[77.7877,32.8498],[77.7809,32.8541],[77.7758,32.8547],[77.7677,32.8585],[77.7614,32.8648],[77.766,32.8803],[77.7727,32.8909],[77.787,32.8917],[77.7925,32.8981],[77.7902,32.9054],[77.7817,32.91],[77.778,32.9158],[77.7596,32.9274],[77.751,32.936],[77.7476,32.9394],[77.7475,32.9405],[77.7472,32.9422],[77.7448,32.9459],[77.739,32.9473],[77.7364,32.9479],[77.7341,32.9503],[77.7273,32.9576],[77.7231,32.9644],[77.7125,32.9718],[77.7083,32.9673],[77.7037,32.9661],[77.6999,32.969],[77.6967,32.9734],[77.695,32.9778],[77.6909,32.9794],[77.6795,32.9778],[77.678,32.9807],[77.6709,32.9863],[77.6652,32.986],[77.6631,32.9759],[77.66,32.969],[77.6564,32.966],[77.6533,32.9594],[77.6499,32.9583],[77.6433,32.9579],[77.6385,32.9561],[77.6234,32.9445],[77.6173,32.944],[77.613,32.9414],[77.6107,32.9423],[77.6061,32.9424],[77.5934,32.9415],[77.5864,32.9399],[77.5839,32.9438],[77.5815,32.9392],[77.581,32.9345],[77.5797,32.9317],[77.5696,32.9217],[77.5538,32.9131],[77.5495,32.9134],[77.5447,32.9117],[77.5353,32.9023],[77.527,32.8923],[77.5232,32.8898],[77.5196,32.8874],[77.5113,32.8854],[77.5062,32.8831],[77.4943,32.8815],[77.4846,32.8865],[77.4732,32.8788],[77.4552,32.8617],[77.4483,32.8617],[77.4362,32.8659],[77.4322,32.8704],[77.4312,32.8758],[77.4257,32.8837],[77.4177,32.8792],[77.4101,32.8782],[77.4031,32.8815],[77.3992,32.8839],[77.3973,32.887],[77.3954,32.8873],[77.3875,32.8855],[77.3794,32.8808],[77.3712,32.8674],[77.3631,32.8635],[77.3597,32.8596],[77.3587,32.8564],[77.3598,32.8516],[77.3627,32.8466],[77.3618,32.8426],[77.3596,32.8382],[77.3565,32.8253],[77.3484,32.8212],[77.3405,32.8205],[77.336,32.8189],[77.3279,32.8199],[77.3216,32.8224],[77.3207,32.8281],[77.3165,32.8298],[77.3109,32.8377],[77.3125,32.8463],[77.3052,32.854],[77.298,32.854],[77.2887,32.8526],[77.2813,32.8557],[77.2743,32.8598],[77.2701,32.8664],[77.2583,32.8764],[77.2476,32.8649],[77.2389,32.8652],[77.238,32.869],[77.2363,32.8723],[77.2278,32.877],[77.2248,32.88],[77.2241,32.8827],[77.2275,32.8839],[77.2293,32.8868],[77.2283,32.8956],[77.218,32.8973],[77.2045,32.9064],[77.189,32.9101],[77.1818,32.9155],[77.1739,32.9311],[77.1666,32.9281],[77.1637,32.9251],[77.1616,32.9211],[77.1604,32.9161],[77.1574,32.9132],[77.1462,32.914],[77.1507,32.9202],[77.1469,32.9344],[77.1486,32.9379],[77.1488,32.9414],[77.1461,32.9428],[77.1461,32.9564],[77.1364,32.9578],[77.1353,32.9609],[77.1355,32.9647],[77.1343,32.9695],[77.1359,32.9744],[77.1364,32.9805],[77.1275,32.9838],[77.1201,32.9827],[77.1124,32.9841],[77.1032,32.9872],[77.0971,32.9776],[77.0842,32.9737],[77.0749,32.9734],[77.0717,32.9762],[77.0659,32.9855],[77.0585,32.9861],[77.0524,32.9909],[77.0353,32.9997],[77.0244,32.997],[77.0199,32.9917],[77.0112,32.9932],[76.9985,32.9896],[76.994,32.9923],[76.9915,32.9929],[76.9869,32.9959],[76.9808,33.0015],[76.9665,33.0072],[76.9637,33.01],[76.9621,33.0139],[76.9568,33.0167],[76.9483,33.0185],[76.9327,33.0285],[76.9241,33.029],[76.9175,33.0337],[76.9146,33.0388],[76.9133,33.0442],[76.9102,33.0502],[76.9001,33.0641],[76.8969,33.071],[76.8964,33.0758],[76.8907,33.0808],[76.8909,33.0846],[76.895,33.0914],[76.8943,33.0951],[76.8848,33.0974],[76.8774,33.1072],[76.8772,33.1142],[76.8687,33.1202],[76.8604,33.1164],[76.8526,33.1115],[76.8444,33.1123],[76.8392,33.1153],[76.8341,33.1206],[76.8374,33.1264],[76.8281,33.1317],[76.8292,33.1377],[76.823,33.1413],[76.8173,33.142],[76.815,33.1462],[76.8095,33.1486],[76.8035,33.1557],[76.8014,33.1615],[76.802,33.166],[76.7993,33.1695],[76.7981,33.1733],[76.8004,33.1778],[76.8052,33.1823],[76.8066,33.1847],[76.8033,33.1939],[76.8186,33.2056],[76.8172,33.2122],[76.8111,33.2155],[76.813,33.2227],[76.8179,33.2311],[76.8232,33.2374],[76.8289,33.2425],[76.8283,33.2464],[76.8272,33.2467],[76.8235,33.2479],[76.8219,33.2484],[76.8173,33.2485],[76.8139,33.2474],[76.8092,33.2443],[76.8085,33.2423],[76.8063,33.2362],[76.8028,33.2367],[76.7969,33.2412],[76.7854,33.2536],[76.7783,33.2557],[76.7636,33.2543],[76.76,33.253],[76.7569,33.2505],[76.7553,33.2495],[76.7552,33.2474],[76.7576,33.2431],[76.7624,33.2395],[76.7599,33.2247],[76.7561,33.2198],[76.7506,33.2101],[76.7456,33.2043],[76.7421,33.1975],[76.7344,33.1931],[76.7306,33.1853],[76.7299,33.1794],[76.7142,33.1774],[76.7085,33.1813],[76.6967,33.1815],[76.6937,33.1776],[76.6853,33.174],[76.6695,33.1733],[76.6606,33.1713],[76.6594,33.1711],[76.6587,33.1712],[76.6511,33.1718],[76.6407,33.1647],[76.627,33.1625],[76.6126,33.166],[76.5996,33.1738],[76.5985,33.1765],[76.5989,33.1839],[76.5973,33.188],[76.5925,33.1906],[76.588,33.19],[76.584,33.1931],[76.5847,33.1996],[76.5862,33.2042],[76.5819,33.2069],[76.5767,33.2058],[76.5676,33.2071],[76.563,33.2062],[76.5559,33.2069],[76.5475,33.2095],[76.542,33.2068],[76.5342,33.1993],[76.5202,33.2004],[76.5058,33.1958],[76.4988,33.1967],[76.496,33.196],[76.4888,33.1902],[76.4691,33.1799],[76.4661,33.1799],[76.4556,33.1833],[76.4502,33.1829],[76.4418,33.1805],[76.4298,33.1828],[76.4218,33.1818],[76.4077,33.1884],[76.4007,33.1866],[76.3917,33.1867],[76.3846,33.1829],[76.3799,33.1765],[76.3735,33.1735],[76.3662,33.168],[76.3608,33.1628],[76.3589,33.1575],[76.3558,33.1546],[76.3521,33.1548],[76.3356,33.1463],[76.3155,33.1302],[76.3069,33.1272],[76.2919,33.1202],[76.288,33.1132],[76.275,33.104],[76.2769,33.1006],[76.2758,33.098],[76.2712,33.0964],[76.2675,33.0861],[76.2552,33.0523],[76.2373,33.0326],[76.2298,33.0308],[76.2295,33.0303],[76.2162,33.0286],[76.1883,33.0276],[76.1522,33.0229],[76.1439,33.0165],[76.1282,33.0101],[76.1205,33.0104],[76.116,33.0086],[76.1073,33.0079],[76.0937,33.0048],[76.0946,33.0003],[76.0912,32.9928],[76.0857,32.975],[76.0822,32.9688],[76.0783,32.9661],[76.07,32.9622],[76.0659,32.958],[76.0545,32.951],[76.0504,32.9443],[76.0426,32.9402],[76.0281,32.9374],[76.0237,32.9316],[76.0212,32.9244],[76.0172,32.9176],[76.0135,32.9159],[76.0046,32.914],[75.9975,32.9094],[75.9874,32.9006],[75.9832,32.9004],[75.9458,32.8851],[75.9396,32.8842],[75.9338,32.8843],[75.9232,32.8981],[75.9136,32.9062],[75.9001,32.9157],[75.8809,32.9248],[75.8671,32.9302],[75.8501,32.9312],[75.8339,32.9346],[75.8281,32.9341],[75.8214,32.9335],[75.808,32.9298],[75.8033,32.9235],[75.7983,32.9194],[75.8018,32.9103],[75.8,32.9039],[75.7984,32.9022],[75.7938,32.8973],[75.7899,32.894],[75.7874,32.8933],[75.7892,32.8846],[75.7898,32.8814],[75.7946,32.8702],[75.7954,32.8693],[75.8055,32.8561],[75.8083,32.8532],[75.8158,32.8471],[75.8211,32.8428],[75.8275,32.8404],[75.8374,32.8368],[75.8552,32.8261],[75.8738,32.8137],[75.8857,32.7955],[75.9001,32.7699],[75.9125,32.7571],[75.914,32.742],[75.9098,32.7209],[75.9049,32.7094],[75.8991,32.7002],[75.8966,32.6911],[75.8989,32.6806],[75.9054,32.6722],[75.9148,32.6659],[75.9241,32.6582],[75.9254,32.6543],[75.9236,32.6437],[75.9078,32.6191],[75.9046,32.6152],[75.8863,32.5919],[75.8725,32.5762],[75.8718,32.5753],[75.8565,32.5584],[75.8378,32.5376],[75.8306,32.5245],[75.8289,32.52],[75.825,32.5092],[75.8236,32.5076],[75.8157,32.4992],[75.8043,32.4871],[75.7901,32.4788],[75.7789,32.475],[75.7725,32.4751],[75.753,32.4752],[75.7459,32.4763],[75.7451,32.4743],[75.7437,32.4691],[75.7353,32.4547],[75.7297,32.4451],[75.7252,32.4383],[75.7197,32.4303],[75.7153,32.4238],[75.7115,32.4182],[75.6982,32.4095],[75.685,32.4006],[75.6627,32.3935],[75.6481,32.3888],[75.637,32.3874],[75.5926,32.3817],[75.567,32.3718],[75.5573,32.367],[75.5452,32.3608],[75.5292,32.3489],[75.5243,32.34],[75.5158,32.298],[75.5056,32.2813],[75.5045,32.2795],[75.5012,32.2761],[75.4989,32.2753],[75.4947,32.2769],[75.49,32.288],[75.4921,32.3028],[75.4911,32.3067],[75.4902,32.3102],[75.4848,32.3103],[75.4799,32.3103],[75.4714,32.3147],[75.4678,32.3176],[75.4735,32.3392],[75.4722,32.34],[75.4666,32.3389],[75.4564,32.3335],[75.4518,32.3318],[75.4486,32.3313],[75.4326,32.3267],[75.4311,32.3265],[75.415,32.3243],[75.3975,32.3263],[75.386,32.3277],[75.3785,32.3288],[75.3735,32.3306],[75.3592,32.3349],[75.3453,32.3392],[75.344,32.3402],[75.3318,32.3447],[75.3253,32.3428],[75.3244,32.3417],[75.3223,32.3373],[75.3115,32.3448],[75.2891,32.3576],[75.2803,32.3673],[75.2782,32.3683],[75.2668,32.3737],[75.2533,32.38],[75.2372,32.3958],[75.2315,32.3992],[75.2305,32.3993],[75.2238,32.4],[75.2002,32.4023],[75.1974,32.4041],[75.1955,32.4053],[75.1927,32.4181],[75.1923,32.4198],[75.1885,32.4245],[75.1795,32.4254],[75.172,32.4219],[75.1604,32.4165],[75.1476,32.4134],[75.1395,32.4146],[75.1279,32.4212],[75.1209,32.4415],[75.1189,32.4438],[75.1144,32.4488],[75.1098,32.454],[75.1068,32.455],[75.0982,32.4659],[75.0826,32.48],[75.0716,32.483],[75.0627,32.4821],[75.0614,32.482],[75.0366,32.4921],[75.0302,32.4918],[75.0214,32.4854],[75.0117,32.4762],[75.0061,32.469],[75.0015,32.4633],[75,32.4591],[74.9879,32.4496],[74.9793,32.4478],[74.9731,32.4479],[74.9639,32.4525],[74.9489,32.4541],[74.9436,32.4607],[74.9336,32.4676],[74.9241,32.4683],[74.8997,32.4661],[74.8968,32.4674],[74.891,32.4701],[74.8852,32.4784],[74.8829,32.4818],[74.8829,32.4818],[74.8827,32.4819],[74.8792,32.4841],[74.8767,32.4856],[74.8615,32.4895],[74.8564,32.4927],[74.8462,32.4944],[74.8353,32.4962],[74.8186,32.4961],[74.7989,32.4841],[74.7614,32.4822],[74.758,32.4799],[74.7482,32.4792],[74.747,32.4792],[74.7436,32.4815],[74.7211,32.4817],[74.6984,32.4849],[74.6867,32.4931],[74.6823,32.502],[74.6814,32.5038],[74.6792,32.5154],[74.683,32.5296],[74.6805,32.5382],[74.662,32.5515],[74.66,32.5532],[74.6524,32.5602],[74.648,32.5719],[74.6433,32.596],[74.6422,32.611],[74.6492,32.6259],[74.6584,32.6374],[74.6692,32.6459],[74.6762,32.658],[74.6756,32.6658],[74.675,32.6667],[74.6693,32.6751],[74.6621,32.6805],[74.6542,32.6925],[74.6501,32.7184],[74.6619,32.7548],[74.6681,32.7634],[74.6675,32.7666],[74.6778,32.7816],[74.6877,32.7961],[74.6946,32.8095],[74.7004,32.827],[74.697,32.8397],[74.6808,32.8382],[74.6615,32.828],[74.642,32.8229],[74.638,32.8181],[74.6372,32.8108],[74.6415,32.7919],[74.6328,32.7777],[74.6142,32.7577],[74.6083,32.7575],[74.5941,32.7568],[74.5792,32.7533],[74.5736,32.7556],[74.5671,32.7552],[74.5431,32.7454],[74.5412,32.7447],[74.5315,32.7407],[74.5027,32.7599],[74.4797,32.7727],[74.4779,32.7753],[74.472,32.7784],[74.4661,32.7814],[74.462,32.7909],[74.4617,32.7917],[74.4575,32.8016],[74.4542,32.8051],[74.4506,32.8168],[74.4452,32.8256],[74.4432,32.8288],[74.4301,32.8447],[74.4264,32.8578],[74.4293,32.8795],[74.4285,32.8836],[74.4251,32.8931],[74.4139,32.9039],[74.4061,32.907],[74.3887,32.9084],[74.3858,32.9086],[74.3683,32.9085],[74.3647,32.9084],[74.3477,32.9082],[74.3272,32.9133],[74.318,32.9197],[74.3161,32.9302],[74.3207,32.9414],[74.3349,32.9548],[74.3464,32.9655],[74.3532,32.9831],[74.3528,32.9903],[74.3517,33.0131],[74.3498,33.0163],[74.3379,33.0259],[74.3265,33.0295],[74.3079,33.0305],[74.2832,33.0432],[74.255,33.0488],[74.242,33.0473],[74.2204,33.0448],[74.2164,33.043],[74.2052,33.0433],[74.1993,33.0469],[74.1906,33.0767],[74.1762,33.1072],[74.157,33.1259],[74.1488,33.1339],[74.1449,33.1353],[74.1117,33.1644],[74.0999,33.1725],[74.0828,33.1807],[74.0564,33.1866],[74.0337,33.1881],[74.0263,33.1886],[74.0182,33.1932],[74.0143,33.1982],[74.0113,33.2188],[74.011,33.2385],[74.0131,33.2499],[74.014,33.2509],[74.0203,33.2588],[74.0244,33.2625],[74.0365,33.2647],[74.048,33.2645],[74.065,33.2599],[74.0683,33.26],[74.0789,33.2602],[74.0881,33.2629],[74.0907,33.2636],[74.103,33.2705],[74.1158,33.2811],[74.1176,33.2856],[74.1669,33.3441],[74.1694,33.3458],[74.1707,33.3466],[74.1851,33.3835],[74.1842,33.391],[74.1801,33.4021],[74.1793,33.4257],[74.1817,33.4304],[74.1829,33.442],[74.1871,33.4555],[74.1856,33.4665],[74.185,33.4677],[74.1781,33.4817],[74.1646,33.4956],[74.1581,33.5024],[74.1426,33.5183],[74.1234,33.5432],[74.097,33.5692],[74.0957,33.5704],[74.0884,33.5732],[74.0745,33.5685],[74.0744,33.5694],[74.0539,33.5651],[74.0454,33.5658],[74.0284,33.5747],[74.0147,33.5984],[74.0107,33.6053],[74,33.6237],[73.9996,33.6248],[73.9757,33.6936],[73.9563,33.7203],[73.9665,33.7403],[74,33.7526],[74.024,33.772],[74.0283,33.776],[74.0383,33.7951],[74.0413,33.799],[74.049,33.8088],[74.0528,33.8113],[74.0657,33.8201],[74.09,33.8263],[74.1298,33.8276],[74.1433,33.8301],[74.1701,33.8399],[74.1923,33.8514],[74.2076,33.8594],[74.2197,33.8672],[74.2456,33.895],[74.2611,33.9248],[74.2636,33.9426],[74.2633,33.9552],[74.2627,33.9743],[74.2487,34.0138],[74.2465,34.016],[74.2372,34.0255],[74.2256,34.0334],[74.2147,34.0386],[74.1964,34.0401],[74.1814,34.0396],[74.1614,34.0389],[74.1492,34.043],[74.1324,34.0527],[74.1269,34.0543],[74.1237,34.0552],[74.115,34.0538],[74.1005,34.0456],[74.0959,34.0403],[74.087,34.0378],[74.0611,34.0347],[74.0567,34.0312],[74.0441,34.0297],[74.0389,34.0291],[74.0061,34.0224],[74,34.0302],[73.909,34.0325],[73.8982,34.0328],[73.8898,34.0424],[73.8832,34.0499],[73.8843,34.0614],[73.8857,34.0751],[73.9044,34.0969],[73.9041,34.1222],[73.9171,34.1421],[73.9448,34.1702],[73.9766,34.2118],[73.982,34.2391],[73.9762,34.2648],[73.941,34.3017],[73.9199,34.3423],[73.9133,34.3479],[73.8994,34.3598],[73.8894,34.357],[73.8794,34.3542],[73.8418,34.3383],[73.8074,34.3567],[73.7734,34.3498],[73.7632,34.3596],[73.7643,34.3711],[73.777,34.4163],[73.7897,34.427],[73.8073,34.4419],[73.8548,34.4734],[73.8987,34.4958],[73.8867,34.515],[73.8953,34.5467],[73.9481,34.5731],[73.9416,34.592],[73.9273,34.6459],[73.9416,34.6772],[73.9602,34.6967],[73.9861,34.7042],[74,34.7082],[74.0129,34.7099],[74.0336,34.6936],[74.0417,34.6873],[74.0491,34.685],[74.0597,34.6851],[74.0813,34.692],[74.0865,34.6937],[74.0931,34.6945],[74.0972,34.6929],[74.1168,34.6912],[74.1327,34.6902],[74.1418,34.6912],[74.149,34.6953],[74.1747,34.7174],[74.203,34.7366],[74.2105,34.7402],[74.2257,34.7475],[74.2275,34.7501],[74.239,34.7521],[74.2699,34.7627],[74.2797,34.7683],[74.2868,34.7742],[74.3028,34.7975],[74.3073,34.8003],[74.3151,34.8003],[74.3309,34.7925],[74.3316,34.7922],[74.3413,34.7897],[74.3462,34.7904],[74.3675,34.8026],[74.3755,34.8034],[74.474,34.7906],[74.4771,34.7896],[74.4854,34.7871],[74.5066,34.7755],[74.5147,34.7748],[74.5381,34.7762],[74.5441,34.7765],[74.5615,34.7744],[74.5653,34.7719],[74.5772,34.7695],[74.5802,34.7701],[74.6124,34.7464],[74.6182,34.7421],[74.6315,34.738],[74.6388,34.7335],[74.648,34.7226],[74.6581,34.7106],[74.6713,34.7007],[74.703,34.6931],[74.7281,34.6886],[74.7393,34.6872],[74.7631,34.6843],[74.7664,34.6852],[74.7721,34.6827],[74.7866,34.6827],[74.8356,34.6776],[74.8539,34.6782],[74.8898,34.6839],[74.8938,34.6845],[74.9105,34.6832],[74.9278,34.6783],[74.9467,34.6664],[74.9978,34.6511],[75,34.6495],[75.0036,34.6468],[75.0187,34.6415],[75.0299,34.6415],[75.0418,34.6414],[75.0508,34.6439],[75.0545,34.6466],[75.0847,34.6554],[75.1056,34.6557],[75.1112,34.658],[75.1423,34.6624],[75.1647,34.6604],[75.1773,34.6575],[75.1785,34.6572],[75.2067,34.6463],[75.2358,34.6483],[75.2497,34.6473],[75.2596,34.6441],[75.2661,34.6395],[75.2669,34.6345],[75.2581,34.6176],[75.2619,34.6109],[75.2792,34.6017],[75.3352,34.5721],[75.3505,34.5622],[75.3778,34.5524],[75.395,34.5488],[75.414,34.5473],[75.4646,34.5434],[75.4785,34.5393],[75.5061,34.5373],[75.5169,34.5378],[75.5212,34.5396],[75.5518,34.5381],[75.5646,34.5387],[75.5789,34.5394],[75.5919,34.5401],[75.6156,34.5385],[75.6441,34.5335],[75.6923,34.5215],[75.7138,34.5184],[75.7292,34.5162],[75.7492,34.5158],[75.7688,34.5221],[75.793,34.5339],[75.8105,34.5482],[75.8206,34.5589],[75.8411,34.5731],[75.8433,34.5746],[75.8815,34.5907],[75.9119,34.6011],[75.9186,34.6048],[75.9322,34.6244],[75.9463,34.6312],[75.9672,34.6336],[75.9682,34.6333],[75.9833,34.6294],[75.9919,34.63],[76.0004,34.6358],[76.0144,34.6536],[76.0254,34.6641],[76.0365,34.6703],[76.055,34.676],[76.0744,34.6763],[76.0858,34.6715],[76.093,34.6666],[76.1219,34.6467],[76.1308,34.6435],[76.1391,34.6425],[76.1579,34.6434],[76.1928,34.6553],[76.1979,34.6591],[76.2274,34.6721],[76.2343,34.6731],[76.26,34.6844],[76.2751,34.6936],[76.2833,34.7015],[76.2899,34.7123],[76.3015,34.7244],[76.3161,34.7316],[76.3287,34.7331],[76.3399,34.7343],[76.3507,34.7347],[76.3859,34.736],[76.4095,34.7522],[76.4276,34.7624],[76.437,34.7644],[76.4692,34.7917],[76.4718,34.793],[76.4743,34.7944],[76.4773,34.794],[76.4897,34.7924],[76.5141,34.7838],[76.5453,34.7656],[76.5618,34.7583],[76.571,34.7584],[76.58,34.7555],[76.618,34.7561],[76.6525,34.7566],[76.6716,34.7574],[76.6818,34.7596],[76.6872,34.7632],[76.6967,34.7791],[76.7062,34.8013],[76.7273,34.8209],[76.7378,34.8307],[76.7432,34.8401],[76.7447,34.8447],[76.7434,34.8649],[76.7389,34.9019],[76.7434,34.9181],[76.7494,34.9266],[76.7624,34.933],[76.7642,34.9331],[76.7993,34.9358],[76.8044,34.9343],[76.8111,34.9355],[76.8255,34.9417],[76.8482,34.958],[76.8532,34.9639],[76.8632,34.9708],[76.87,34.9724],[76.8835,34.9703],[76.8985,34.9643],[76.9014,34.9631],[76.9084,34.9617],[76.9503,34.9409],[76.9704,34.9356],[76.9887,34.9352],[76.9975,34.9392],[77.0101,34.9563],[77.0115,34.9667],[77.0113,34.9727],[77.0107,35],[77.0103,35.0162],[77.0109,35.0276],[77.0138,35.0351],[77.0181,35.0385],[77.0269,35.0408],[77.0368,35.0324],[77.0684,35.0241],[77.0814,35.0263],[77.1098,35.0393],[77.1568,35.0547],[77.1756,35.0668],[77.1948,35.0792],[77.2808,35.1383],[77.2952,35.1456],[77.3008,35.1485],[77.3794,35.1979],[77.3844,35.1992],[77.4188,35.2201],[77.4425,35.2344],[77.4854,35.2665],[77.5396,35.2978],[77.585,35.3239],[77.6506,35.3671],[77.6609,35.3752],[77.7355,35.4338],[77.7604,35.4512],[77.7747,35.4602],[77.8147,35.4852],[77.8193,35.4933],[77.8239,35.5013],[77.8408,35.5011],[77.8431,35.501],[77.8468,35.5008],[77.8502,35.4917],[77.8513,35.4887],[77.8627,35.4586],[77.8687,35.4505],[77.8794,35.4362],[77.8848,35.432],[77.8886,35.4289],[77.8996,35.4279]]]}}]}