{"type":"FeatureCollection","name":"Lakshadweep","crs":{"type":"name","properties":{"name":"urn:ogc:def:crs:OGC:1.3:CRS84"}},"features":[{"type":"Feature","properties":{"ID_0":105,"ISO":"IND","NAME_0":"India","ID_1":19,"NAME_1":"Lakshadweep","TYPE_1":"Union Territor","ENGTYPE_1":"Union Territory","NL_NAME_1":null,"VARNAME_1":"Íles Laquedives|Laccadive|Minicoy and Amindivi Islands|Laccadives|Lackadiverna|Lakkadiven|Lakkadi"},"geometry":{"type":"MultiPolygon","coordinates":[[[[73.0101,8.2804],[73.0101,8.2801],[73.0104,8.2801],[73.0104,8.2799],[73.0107,8.2799],[73.0107,8.2796],[73.011,8.2796],[73.011,8.2793],[73.0115,8.2793],[73.0115,8.279],[73.0121,8.279],[73.0121,8.2788],[73.0129,8.2788],[73.0129,8.2774],[73.0126,8.2774],[73.0126,8.2771],[73.0124,8.2771],[73.0124,8.2768],[73.0118,8.2768],[73.0118,8.2765],[73.0113,8.2765],[73.0113,8.2768],[73.011,8.2768],[73.011,8.2771],[73.0107,8.2771],[73.0107,8.2774],[73.0104,8.2774],[73.0104,8.2779],[73.0101,8.2779],[73.0101,8.2793],[73.0099,8.2793],[73.0099,8.2804],[73.0101,8.2804]]],[[[73.081,8.3276],[73.081,8.3271],[73.0807,8.3271],[73.0807,8.3262],[73.0804,8.3263],[73.0804,8.3257],[73.0799,8.3257],[73.0799,8.3254],[73.0796,8.3254],[73.0796,8.3251],[73.0793,8.3251],[73.0793,8.3246],[73.079,8.3246],[73.079,8.324],[73.0788,8.324],[73.0788,8.3238],[73.0785,8.3238],[73.0785,8.3235],[73.0782,8.3235],[73.0782,8.3232],[73.0779,8.3232],[73.0779,8.3229],[73.0777,8.3229],[73.0777,8.3226],[73.0774,8.3226],[73.0774,8.3224],[73.0768,8.3224],[73.0768,8.3221],[73.0765,8.3221],[73.0765,8.3215],[73.0762,8.3215],[73.0762,8.321],[73.076,8.321],[73.076,8.3201],[73.0757,8.3201],[73.0757,8.3196],[73.0754,8.3196],[73.0754,8.3188],[73.0751,8.3188],[73.0751,8.3182],[73.0749,8.3182],[73.0749,8.3174],[73.0746,8.3174],[73.0746,8.3171],[73.0743,8.3171],[73.0743,8.3165],[73.074,8.3165],[73.074,8.316],[73.0738,8.316],[73.0738,8.3154],[73.0735,8.3154],[73.0735,8.3151],[73.0732,8.3151],[73.0732,8.3149],[73.0729,8.3149],[73.0729,8.3143],[73.0726,8.3143],[73.0726,8.3138],[73.0724,8.3138],[73.0724,8.3135],[73.0721,8.3135],[73.0721,8.3129],[73.0718,8.3129],[73.0718,8.3124],[73.0715,8.3124],[73.0715,8.3118],[73.0713,8.3118],[73.0713,8.3115],[73.071,8.3115],[73.071,8.311],[73.0707,8.311],[73.0707,8.3104],[73.0704,8.3104],[73.0704,8.3096],[73.0701,8.3096],[73.0701,8.309],[73.0699,8.309],[73.0699,8.3088],[73.0696,8.3088],[73.0696,8.3082],[73.0693,8.3082],[73.0693,8.3079],[73.069,8.3079],[73.069,8.3062],[73.0687,8.3062],[73.0687,8.3057],[73.0685,8.3057],[73.0685,8.3049],[73.0682,8.3049],[73.0682,8.3043],[73.0679,8.3043],[73.0679,8.3035],[73.0676,8.3035],[73.0676,8.3026],[73.0674,8.3027],[73.0674,8.3015],[73.0671,8.3015],[73.0671,8.3007],[73.0674,8.3007],[73.0674,8.3001],[73.0671,8.3001],[73.0671,8.2979],[73.0674,8.2979],[73.0674,8.2976],[73.0671,8.2976],[73.0671,8.2971],[73.0668,8.2971],[73.0668,8.2963],[73.0665,8.2963],[73.0665,8.2929],[73.0668,8.2929],[73.0668,8.2918],[73.0668,8.2899],[73.0671,8.2899],[73.0671,8.2863],[73.0671,8.2857],[73.0668,8.2857],[73.0668,8.2854],[73.0665,8.2854],[73.0665,8.2851],[73.0662,8.2851],[73.0662,8.2849],[73.066,8.2849],[73.066,8.2846],[73.0657,8.2846],[73.0657,8.284],[73.0654,8.284],[73.0654,8.2837],[73.0651,8.2837],[73.0651,8.2835],[73.0649,8.2835],[73.0649,8.2832],[73.0646,8.2832],[73.0646,8.2826],[73.0643,8.2826],[73.0643,8.2824],[73.064,8.2824],[73.064,8.2821],[73.0638,8.2821],[73.0635,8.2821],[73.0635,8.2815],[73.0634,8.2815],[73.0629,8.2815],[73.0629,8.2813],[73.0624,8.2813],[73.0624,8.281],[73.0615,8.281],[73.0615,8.2807],[73.0612,8.2807],[73.0612,8.2804],[73.061,8.2804],[73.061,8.2801],[73.0607,8.2801],[73.0607,8.2799],[73.0604,8.2799],[73.0604,8.2796],[73.0601,8.2796],[73.0601,8.2793],[73.0596,8.2793],[73.0596,8.279],[73.0593,8.279],[73.0593,8.2788],[73.059,8.2788],[73.059,8.2785],[73.0587,8.2785],[73.0587,8.2782],[73.0585,8.2782],[73.0585,8.2779],[73.0582,8.2779],[73.0582,8.2776],[73.0579,8.2776],[73.0579,8.2771],[73.0576,8.2771],[73.0576,8.2768],[73.0574,8.2768],[73.0574,8.2765],[73.0571,8.2765],[73.0571,8.2763],[73.0568,8.2763],[73.0568,8.276],[73.0565,8.276],[73.0565,8.2757],[73.0564,8.2757],[73.056,8.2757],[73.056,8.2754],[73.056,8.2751],[73.0557,8.2751],[73.0557,8.2749],[73.0554,8.2749],[73.0554,8.2746],[73.0551,8.2746],[73.0551,8.2743],[73.0549,8.2743],[73.0549,8.274],[73.0547,8.274],[73.0546,8.274],[73.0546,8.2739],[73.0546,8.2737],[73.0545,8.2737],[73.0543,8.2737],[73.0543,8.2736],[73.0543,8.2732],[73.054,8.2732],[73.054,8.2729],[73.0537,8.2729],[73.0537,8.2724],[73.0535,8.2724],[73.0535,8.2718],[73.0532,8.2718],[73.0532,8.2713],[73.0529,8.2713],[73.0529,8.271],[73.0526,8.271],[73.0526,8.2707],[73.0524,8.2707],[73.0524,8.2704],[73.0521,8.2704],[73.0521,8.2699],[73.0518,8.2699],[73.0518,8.2696],[73.0515,8.2696],[73.0515,8.2693],[73.0512,8.2693],[73.0512,8.269],[73.051,8.269],[73.051,8.2688],[73.0507,8.2688],[73.0507,8.2682],[73.0504,8.2682],[73.0504,8.2679],[73.0501,8.2679],[73.0501,8.2676],[73.0496,8.2676],[73.0496,8.2674],[73.0493,8.2674],[73.0493,8.2668],[73.0488,8.2668],[73.0488,8.2665],[73.0468,8.2665],[73.0468,8.2663],[73.0435,8.2663],[73.0435,8.266],[73.0374,8.266],[73.0374,8.2663],[73.0346,8.2663],[73.0346,8.2665],[73.0315,8.2665],[73.0315,8.2668],[73.0307,8.2668],[73.0307,8.2671],[73.0299,8.2671],[73.0299,8.2674],[73.029,8.2674],[73.029,8.2676],[73.0282,8.2676],[73.0282,8.2679],[73.0274,8.2679],[73.0274,8.2682],[73.0265,8.2682],[73.0265,8.2685],[73.024,8.2685],[73.024,8.2688],[73.0229,8.2688],[73.0229,8.2688],[73.0229,8.269],[73.0226,8.269],[73.0226,8.2693],[73.0224,8.2693],[73.0224,8.2696],[73.0218,8.2696],[73.0218,8.2699],[73.0212,8.2699],[73.0212,8.2701],[73.021,8.2701],[73.021,8.2704],[73.0204,8.2704],[73.0204,8.2707],[73.0201,8.2707],[73.0201,8.271],[73.0196,8.271],[73.0196,8.2713],[73.0193,8.2713],[73.0193,8.2715],[73.0188,8.2715],[73.0188,8.2724],[73.019,8.2724],[73.019,8.2732],[73.0188,8.2732],[73.0188,8.274],[73.0185,8.274],[73.0185,8.2746],[73.0182,8.2746],[73.0182,8.2754],[73.0179,8.2754],[73.0179,8.2763],[73.0176,8.2762],[73.0176,8.2771],[73.0179,8.2771],[73.0179,8.2774],[73.0182,8.2774],[73.0182,8.2776],[73.0193,8.2776],[73.0193,8.2774],[73.0196,8.2774],[73.0196,8.2771],[73.0201,8.2771],[73.0201,8.2768],[73.0204,8.2768],[73.0204,8.2765],[73.021,8.2765],[73.021,8.2763],[73.0215,8.2763],[73.0215,8.276],[73.0221,8.276],[73.0221,8.2757],[73.0224,8.2757],[73.0224,8.2754],[73.0226,8.2754],[73.0226,8.2751],[73.0229,8.2751],[73.0229,8.2749],[73.0232,8.2749],[73.0232,8.2746],[73.0235,8.2746],[73.0235,8.2729],[73.0238,8.2729],[73.0238,8.2726],[73.026,8.2726],[73.026,8.2724],[73.0279,8.2724],[73.0279,8.2726],[73.0293,8.2726],[73.0293,8.2729],[73.0313,8.2729],[73.0313,8.2732],[73.0318,8.2732],[73.0318,8.2735],[73.0329,8.2735],[73.0329,8.2737],[73.034,8.2737],[73.034,8.274],[73.0346,8.274],[73.0346,8.2743],[73.0407,8.2743],[73.0407,8.274],[73.041,8.274],[73.041,8.2743],[73.0421,8.2743],[73.0421,8.2746],[73.0429,8.2746],[73.0429,8.2749],[73.0437,8.2749],[73.0437,8.2751],[73.0446,8.2751],[73.0446,8.2754],[73.0451,8.2754],[73.0451,8.2757],[73.0457,8.2757],[73.0457,8.276],[73.046,8.276],[73.046,8.2763],[73.0471,8.2763],[73.0471,8.2765],[73.0474,8.2765],[73.0474,8.2768],[73.0476,8.2768],[73.0476,8.2771],[73.0479,8.2771],[73.0479,8.2774],[73.0482,8.2774],[73.0482,8.2776],[73.0485,8.2776],[73.0485,8.2779],[73.049,8.2779],[73.049,8.2782],[73.0493,8.2782],[73.0493,8.2785],[73.0499,8.2785],[73.0499,8.2788],[73.0501,8.2788],[73.0501,8.2793],[73.0507,8.2793],[73.0507,8.2796],[73.0512,8.2796],[73.0512,8.2799],[73.0515,8.2799],[73.0515,8.2801],[73.0521,8.2801],[73.0521,8.2804],[73.0524,8.2804],[73.0524,8.2807],[73.0526,8.2807],[73.0526,8.281],[73.0529,8.281],[73.0529,8.2813],[73.0532,8.2813],[73.0532,8.2815],[73.0535,8.2815],[73.0535,8.2818],[73.054,8.2818],[73.054,8.2821],[73.0546,8.2821],[73.0546,8.2824],[73.0549,8.2824],[73.0549,8.2826],[73.0557,8.2826],[73.0557,8.2837],[73.056,8.2837],[73.056,8.284],[73.0563,8.284],[73.0563,8.2851],[73.0565,8.2851],[73.0565,8.2857],[73.0568,8.2857],[73.0568,8.286],[73.0571,8.286],[73.0571,8.2865],[73.0574,8.2865],[73.0574,8.2871],[73.0576,8.2871],[73.0576,8.2874],[73.0582,8.2874],[73.0582,8.2876],[73.0585,8.2876],[73.0585,8.2879],[73.0587,8.2879],[73.0587,8.289],[73.0593,8.289],[73.0593,8.2896],[73.0596,8.2896],[73.0596,8.2904],[73.0599,8.2904],[73.0599,8.2907],[73.0601,8.2907],[73.0601,8.291],[73.0604,8.291],[73.0604,8.2913],[73.0607,8.2913],[73.0607,8.2915],[73.061,8.2915],[73.061,8.2918],[73.0612,8.2918],[73.0612,8.2924],[73.0615,8.2924],[73.0615,8.2926],[73.0618,8.2926],[73.0618,8.2929],[73.0621,8.2929],[73.0621,8.2935],[73.0624,8.2935],[73.0624,8.2938],[73.0627,8.2937],[73.0627,8.2943],[73.0629,8.2943],[73.0629,8.2949],[73.0632,8.2949],[73.0632,8.2951],[73.0638,8.2951],[73.0638,8.2957],[73.064,8.2957],[73.064,8.2963],[73.0643,8.2963],[73.0643,8.2968],[73.0646,8.2968],[73.0646,8.2971],[73.0649,8.2971],[73.0649,8.2979],[73.0651,8.2979],[73.0651,8.299],[73.0654,8.299],[73.0654,8.3013],[73.0657,8.3013],[73.0657,8.3027],[73.066,8.3026],[73.066,8.3032],[73.0662,8.3032],[73.0662,8.304],[73.0665,8.304],[73.0665,8.3049],[73.0668,8.3049],[73.0668,8.306],[73.0671,8.306],[73.0671,8.3062],[73.0674,8.3062],[73.0674,8.3068],[73.0676,8.3068],[73.0676,8.3074],[73.0679,8.3074],[73.0679,8.3079],[73.0682,8.3079],[73.0682,8.3085],[73.0685,8.3085],[73.0685,8.3093],[73.0687,8.3093],[73.0687,8.3096],[73.069,8.3096],[73.069,8.3104],[73.0693,8.3104],[73.0693,8.3112],[73.0696,8.3112],[73.0696,8.3118],[73.0699,8.3118],[73.0699,8.3121],[73.0701,8.3121],[73.0701,8.3126],[73.0704,8.3126],[73.0704,8.3132],[73.0707,8.3132],[73.0707,8.314],[73.071,8.314],[73.071,8.3146],[73.0713,8.3146],[73.0713,8.3151],[73.0715,8.3151],[73.0715,8.3157],[73.0718,8.3157],[73.0718,8.3163],[73.0721,8.3163],[73.0721,8.3168],[73.0724,8.3168],[73.0724,8.3174],[73.0726,8.3174],[73.0726,8.3176],[73.0729,8.3176],[73.0729,8.3185],[73.0732,8.3185],[73.0732,8.319],[73.0735,8.319],[73.0735,8.3193],[73.0738,8.3193],[73.0738,8.3199],[73.074,8.3199],[73.074,8.3204],[73.0743,8.3204],[73.0743,8.3207],[73.0746,8.3207],[73.0746,8.3213],[73.0749,8.3213],[73.0749,8.3218],[73.0751,8.3218],[73.0751,8.3224],[73.0754,8.3224],[73.0754,8.3226],[73.0757,8.3226],[73.0757,8.3232],[73.076,8.3232],[73.076,8.3238],[73.0762,8.3238],[73.0762,8.324],[73.0765,8.324],[73.0765,8.3243],[73.0768,8.3243],[73.0768,8.3251],[73.0771,8.3251],[73.0771,8.3254],[73.0782,8.3254],[73.0782,8.3257],[73.079,8.3257],[73.079,8.326],[73.0793,8.326],[73.0793,8.3263],[73.0796,8.3263],[73.0796,8.3265],[73.0799,8.3265],[73.0799,8.3271],[73.0801,8.3271],[73.0801,8.3274],[73.0804,8.3274],[73.0804,8.3279],[73.0807,8.3279],[73.0807,8.3277],[73.081,8.3276]]],[[[72.2901,10.0496],[72.2901,10.049],[72.2899,10.049],[72.2899,10.0485],[72.2896,10.0485],[72.2896,10.0482],[72.2893,10.0482],[72.2893,10.0476],[72.2887,10.0476],[72.2887,10.0471],[72.2885,10.0471],[72.2885,10.0463],[72.2882,10.0463],[72.2882,10.0457],[72.2879,10.0457],[72.2879,10.0437],[72.2876,10.0437],[72.2876,10.0426],[72.2874,10.0426],[72.2874,10.0421],[72.2871,10.0421],[72.2871,10.0413],[72.2868,10.0413],[72.2868,10.0407],[72.2865,10.0407],[72.2865,10.0404],[72.2862,10.0404],[72.2862,10.0401],[72.286,10.0401],[72.286,10.0399],[72.2857,10.0399],[72.2857,10.0396],[72.2854,10.0396],[72.2854,10.0393],[72.2851,10.0393],[72.2851,10.039],[72.2846,10.039],[72.2846,10.0388],[72.2843,10.0388],[72.2843,10.0385],[72.284,10.0385],[72.284,10.0382],[72.2835,10.0382],[72.2835,10.0379],[72.2818,10.0379],[72.2818,10.0382],[72.2815,10.0382],[72.2815,10.0385],[72.2813,10.0385],[72.2813,10.0393],[72.2815,10.0393],[72.2815,10.0401],[72.2818,10.0401],[72.2818,10.0407],[72.2821,10.0407],[72.2821,10.041],[72.2824,10.041],[72.2824,10.0413],[72.2826,10.0413],[72.2826,10.0415],[72.2829,10.0415],[72.2829,10.0418],[72.2832,10.0418],[72.2832,10.0424],[72.2835,10.0424],[72.2835,10.0429],[72.2838,10.0429],[72.2838,10.0435],[72.284,10.0435],[72.284,10.0437],[72.2843,10.0437],[72.2843,10.044],[72.2846,10.044],[72.2846,10.0443],[72.2849,10.0443],[72.2849,10.0446],[72.2851,10.0446],[72.2851,10.0451],[72.2854,10.0451],[72.2854,10.0454],[72.2857,10.0454],[72.2857,10.0457],[72.286,10.0457],[72.286,10.0463],[72.2862,10.0463],[72.2862,10.0465],[72.2865,10.0465],[72.2865,10.0471],[72.2868,10.0471],[72.2868,10.0474],[72.2871,10.0474],[72.2871,10.0476],[72.2874,10.0476],[72.2874,10.0479],[72.2876,10.0479],[72.2876,10.0482],[72.2882,10.0482],[72.2882,10.049],[72.2887,10.049],[72.2887,10.0493],[72.2893,10.0493],[72.2893,10.0496],[72.2901,10.0496]]],[[[73.6335,10.0704],[73.6335,10.0701],[73.6338,10.0701],[73.6338,10.0688],[73.6329,10.0688],[73.6329,10.0682],[73.6324,10.0682],[73.6324,10.0685],[73.6318,10.0685],[73.6318,10.0682],[73.6315,10.0682],[73.6315,10.0676],[73.6312,10.0676],[73.6312,10.0674],[73.6304,10.0674],[73.6304,10.0676],[73.6301,10.0676],[73.6301,10.0682],[73.6299,10.0682],[73.6299,10.0688],[73.6304,10.0688],[73.6304,10.069],[73.631,10.069],[73.631,10.0693],[73.6318,10.0693],[73.6318,10.0696],[73.6321,10.0696],[73.6321,10.0699],[73.6324,10.0699],[73.6324,10.0701],[73.6326,10.0701],[73.6326,10.0704],[73.6335,10.0704]]],[[[73.629,10.0751],[73.629,10.0749],[73.6293,10.0749],[73.6293,10.0746],[73.6296,10.0746],[73.6296,10.074],[73.6293,10.074],[73.6293,10.0735],[73.629,10.0735],[73.629,10.0729],[73.6287,10.0729],[73.6287,10.0726],[73.6285,10.0726],[73.6285,10.0724],[73.6282,10.0724],[73.6282,10.0721],[73.6279,10.0721],[73.6279,10.0718],[73.6265,10.0718],[73.6265,10.0721],[73.6263,10.0721],[73.6263,10.0724],[73.6261,10.0724],[73.626,10.0724],[73.626,10.0726],[73.6257,10.0726],[73.6257,10.0729],[73.6254,10.0729],[73.6254,10.0732],[73.6257,10.0732],[73.6257,10.0735],[73.6259,10.0735],[73.6263,10.0735],[73.6263,10.0738],[73.6268,10.0738],[73.6268,10.074],[73.6274,10.074],[73.6274,10.0743],[73.6279,10.0743],[73.6279,10.0746],[73.6282,10.0746],[73.6282,10.0751],[73.629,10.0751]]],[[[73.6515,10.1043],[73.6515,10.1026],[73.6518,10.1026],[73.6518,10.1015],[73.6521,10.1015],[73.6521,10.1004],[73.6518,10.1004],[73.6518,10.0985],[73.6521,10.0985],[73.6521,10.0979],[73.6518,10.0979],[73.6518,10.0976],[73.6521,10.0976],[73.6521,10.096],[73.6518,10.096],[73.6518,10.0946],[73.6515,10.0946],[73.6515,10.0943],[73.6513,10.0943],[73.6513,10.0935],[73.651,10.0935],[73.651,10.0926],[73.6507,10.0926],[73.6507,10.091],[73.6504,10.091],[73.6504,10.0893],[73.6501,10.0893],[73.6501,10.0879],[73.6499,10.0879],[73.6499,10.0874],[73.6496,10.0874],[73.6496,10.0857],[73.6493,10.0857],[73.6493,10.084],[73.649,10.084],[73.649,10.0837],[73.6488,10.0837],[73.6488,10.0824],[73.6485,10.0824],[73.6485,10.0815],[73.6488,10.0815],[73.6488,10.0812],[73.6485,10.0813],[73.6485,10.0807],[73.6482,10.0807],[73.6482,10.079],[73.6479,10.079],[73.6479,10.0782],[73.6482,10.0782],[73.6482,10.0771],[73.6479,10.0771],[73.6479,10.0765],[73.6482,10.0765],[73.6482,10.0757],[73.6479,10.0757],[73.6479,10.0746],[73.6482,10.0746],[73.6482,10.0735],[73.6479,10.0735],[73.6479,10.0729],[73.6482,10.0729],[73.6482,10.0713],[73.6488,10.0713],[73.6488,10.071],[73.649,10.071],[73.649,10.0707],[73.6485,10.0707],[73.6485,10.0704],[73.6479,10.0704],[73.6479,10.0701],[73.6482,10.0701],[73.6482,10.0693],[73.6485,10.0693],[73.6485,10.0688],[73.6482,10.0688],[73.6482,10.0685],[73.6485,10.0685],[73.6485,10.0663],[73.6482,10.0663],[73.6482,10.0632],[73.6479,10.0632],[73.6479,10.0612],[73.6476,10.0612],[73.6476,10.0601],[73.6474,10.0601],[73.6474,10.0588],[73.6471,10.0588],[73.6471,10.0585],[73.6468,10.0585],[73.6468,10.0576],[73.6462,10.0576],[73.6462,10.0574],[73.6457,10.0574],[73.6457,10.0571],[73.6418,10.0571],[73.6418,10.0574],[73.6413,10.0574],[73.6413,10.0576],[73.641,10.0576],[73.641,10.0579],[73.6404,10.0579],[73.6404,10.0582],[73.6401,10.0582],[73.6401,10.0585],[73.6399,10.0585],[73.6399,10.059],[73.6396,10.059],[73.6396,10.0599],[73.6393,10.0599],[73.6393,10.0604],[73.6399,10.0604],[73.6399,10.0607],[73.6401,10.0607],[73.6401,10.061],[73.6404,10.061],[73.6404,10.0612],[73.6401,10.0612],[73.6401,10.0618],[73.6396,10.0618],[73.6396,10.0626],[73.6393,10.0626],[73.6393,10.0632],[73.639,10.0632],[73.639,10.0638],[73.6387,10.0638],[73.6387,10.064],[73.6385,10.064],[73.6385,10.0643],[73.6387,10.0643],[73.6387,10.0646],[73.6385,10.0646],[73.6385,10.0651],[73.6382,10.0651],[73.6382,10.0663],[73.6379,10.0663],[73.6379,10.0665],[73.6376,10.0665],[73.6376,10.0679],[73.6374,10.0679],[73.6374,10.0682],[73.6371,10.0682],[73.6371,10.0685],[73.6368,10.0685],[73.6368,10.069],[73.6365,10.069],[73.6365,10.0696],[73.6363,10.0696],[73.6363,10.0701],[73.636,10.0701],[73.636,10.0704],[73.6357,10.0704],[73.6357,10.0707],[73.6354,10.0707],[73.6354,10.0721],[73.636,10.0721],[73.636,10.0724],[73.6363,10.0724],[73.6363,10.0721],[73.6365,10.0721],[73.6365,10.0718],[73.6371,10.0718],[73.6371,10.0715],[73.6374,10.0715],[73.6374,10.0713],[73.6379,10.0713],[73.6379,10.071],[73.6404,10.071],[73.6404,10.0713],[73.641,10.0713],[73.641,10.0715],[73.6413,10.0715],[73.6413,10.0721],[73.6415,10.0721],[73.6415,10.0726],[73.6418,10.0726],[73.6418,10.0735],[73.6421,10.0735],[73.6421,10.0738],[73.6424,10.0738],[73.6424,10.074],[73.6426,10.074],[73.6426,10.0743],[73.6429,10.0743],[73.6429,10.0749],[73.6435,10.0749],[73.6435,10.0754],[73.6438,10.0754],[73.6438,10.076],[73.644,10.076],[73.644,10.0763],[73.6443,10.0763],[73.6443,10.0765],[73.6446,10.0765],[73.6446,10.0771],[73.6449,10.0771],[73.6449,10.0776],[73.6451,10.0776],[73.6451,10.079],[73.6454,10.079],[73.6454,10.0801],[73.6457,10.0801],[73.6457,10.0813],[73.646,10.0813],[73.646,10.0824],[73.6462,10.0824],[73.6462,10.0829],[73.6465,10.0829],[73.6465,10.0835],[73.6468,10.0835],[73.6468,10.0837],[73.6465,10.0837],[73.6465,10.0843],[73.6468,10.0843],[73.6468,10.0846],[73.6471,10.0846],[73.6471,10.086],[73.6474,10.086],[73.6474,10.0863],[73.6476,10.0863],[73.6476,10.0879],[73.6479,10.0879],[73.6479,10.0885],[73.6482,10.0885],[73.6482,10.089],[73.6479,10.089],[73.6479,10.0893],[73.6485,10.0893],[73.6485,10.0896],[73.6482,10.0896],[73.6482,10.091],[73.6485,10.091],[73.6485,10.0921],[73.6488,10.0921],[73.6488,10.0926],[73.6493,10.0926],[73.6493,10.0938],[73.6496,10.0938],[73.6496,10.0943],[73.6499,10.0943],[73.6499,10.0946],[73.6501,10.0946],[73.6501,10.0957],[73.6504,10.0957],[73.6504,10.096],[73.6507,10.096],[73.6507,10.0979],[73.651,10.0979],[73.651,10.0993],[73.6513,10.0993],[73.6513,10.1043],[73.6515,10.1043]]],[[[72.3279,10.1365],[72.3279,10.1362],[72.3282,10.1362],[72.3282,10.1357],[72.3285,10.1357],[72.3285,10.1351],[72.3288,10.1351],[72.3288,10.1335],[72.329,10.1335],[72.329,10.1326],[72.3293,10.1326],[72.3293,10.1321],[72.3296,10.1321],[72.3296,10.1315],[72.3299,10.1315],[72.3299,10.1312],[72.3301,10.1312],[72.3301,10.131],[72.3304,10.131],[72.3304,10.1307],[72.3307,10.1307],[72.3307,10.1296],[72.331,10.1296],[72.331,10.1287],[72.3313,10.1287],[72.3313,10.1282],[72.3315,10.1282],[72.3315,10.1271],[72.3318,10.1271],[72.3318,10.1269],[72.3318,10.1249],[72.331,10.1249],[72.331,10.1254],[72.3307,10.1254],[72.3307,10.126],[72.3304,10.126],[72.3304,10.1263],[72.3301,10.1263],[72.3301,10.1265],[72.3285,10.1265],[72.3285,10.1263],[72.3274,10.1263],[72.3274,10.1265],[72.3262,10.1265],[72.3262,10.1268],[72.326,10.1268],[72.326,10.1282],[72.3262,10.1282],[72.3262,10.1293],[72.3265,10.1293],[72.3265,10.1304],[72.3268,10.1304],[72.3268,10.1318],[72.3265,10.1318],[72.3265,10.1332],[72.3262,10.1332],[72.3262,10.1354],[72.3265,10.1354],[72.3265,10.1357],[72.3268,10.1357],[72.3268,10.136],[72.3271,10.136],[72.3271,10.1362],[72.3274,10.1362],[72.3274,10.1365],[72.3279,10.1365]]],[[[73.661,10.156],[73.661,10.1557],[73.6612,10.1557],[73.6612,10.1551],[73.6615,10.1551],[73.6615,10.1543],[73.6615,10.1529],[73.6618,10.1529],[73.6618,10.1507],[73.6621,10.1507],[73.6621,10.1496],[73.6624,10.1496],[73.6624,10.1488],[73.6626,10.1488],[73.6626,10.1479],[73.6629,10.1479],[73.6629,10.1474],[73.6632,10.1474],[73.6632,10.1465],[73.6635,10.1465],[73.6635,10.1457],[73.6637,10.1457],[73.6637,10.1451],[73.664,10.1451],[73.664,10.1446],[73.6643,10.1446],[73.6643,10.144],[73.6646,10.144],[73.6646,10.1432],[73.6649,10.1432],[73.6649,10.1418],[73.6651,10.1418],[73.6651,10.1399],[73.6649,10.1399],[73.6649,10.1385],[73.6646,10.1385],[73.6646,10.1376],[73.6643,10.1376],[73.6643,10.1365],[73.664,10.1365],[73.664,10.1357],[73.6637,10.1357],[73.6637,10.1349],[73.6635,10.1349],[73.6635,10.1337],[73.6632,10.1338],[73.6632,10.1326],[73.6629,10.1326],[73.6629,10.1321],[73.6626,10.1321],[73.6626,10.1312],[73.6624,10.1312],[73.6624,10.1304],[73.6621,10.1304],[73.6621,10.1299],[73.6612,10.1299],[73.6612,10.1301],[73.661,10.1301],[73.661,10.131],[73.6612,10.131],[73.6612,10.1324],[73.6615,10.1324],[73.6615,10.1335],[73.6618,10.1335],[73.6618,10.1343],[73.6621,10.1343],[73.6621,10.1354],[73.6624,10.1354],[73.6624,10.136],[73.6626,10.136],[73.6626,10.1382],[73.6629,10.1382],[73.6629,10.141],[73.6632,10.141],[73.6632,10.1426],[73.6629,10.1426],[73.6629,10.1438],[73.6626,10.1438],[73.6626,10.1451],[73.6624,10.1451],[73.6624,10.1457],[73.6621,10.1457],[73.6621,10.1463],[73.6618,10.1463],[73.6618,10.1471],[73.6615,10.1471],[73.6615,10.1482],[73.6612,10.1482],[73.6612,10.1493],[73.661,10.1493],[73.661,10.1501],[73.6607,10.1501],[73.6607,10.1507],[73.6604,10.1507],[73.6604,10.1521],[73.6601,10.1521],[73.6601,10.1526],[73.6596,10.1526],[73.6596,10.1529],[73.6593,10.1529],[73.6593,10.1526],[73.6588,10.1526],[73.6588,10.1526],[73.6588,10.1529],[73.6585,10.1529],[73.6585,10.1543],[73.6588,10.1543],[73.6588,10.1549],[73.659,10.1549],[73.659,10.1551],[73.6593,10.1551],[73.6593,10.1554],[73.6596,10.1554],[73.6596,10.1557],[73.6599,10.1557],[73.6599,10.156],[73.661,10.156]]],[[[72.6421,10.5774],[72.6421,10.5771],[72.6451,10.5771],[72.6451,10.5768],[72.6457,10.5768],[72.6457,10.5765],[72.6462,10.5765],[72.6462,10.5763],[72.6465,10.5763],[72.6465,10.576],[72.6468,10.576],[72.6468,10.5757],[72.6471,10.5757],[72.6471,10.5751],[72.6474,10.5751],[72.6474,10.5749],[72.6476,10.5749],[72.6476,10.5746],[72.6479,10.5746],[72.6479,10.574],[72.6482,10.574],[72.6482,10.5735],[72.6485,10.5735],[72.6485,10.5729],[72.6488,10.5729],[72.6488,10.5726],[72.649,10.5726],[72.649,10.5721],[72.6493,10.5721],[72.6493,10.5712],[72.6496,10.5712],[72.6496,10.5707],[72.6496,10.5701],[72.6499,10.5701],[72.6499,10.5696],[72.6501,10.5696],[72.6501,10.5682],[72.6499,10.5682],[72.6499,10.5665],[72.6496,10.5665],[72.6496,10.5646],[72.6493,10.5646],[72.6493,10.5638],[72.649,10.5638],[72.649,10.5618],[72.6488,10.5618],[72.6488,10.5615],[72.6485,10.5615],[72.6485,10.5613],[72.6482,10.5613],[72.6482,10.561],[72.6476,10.561],[72.6476,10.5607],[72.6474,10.5607],[72.6474,10.5604],[72.6471,10.5604],[72.6471,10.5599],[72.6465,10.5599],[72.6465,10.5596],[72.6454,10.5596],[72.6454,10.5593],[72.6446,10.5593],[72.6446,10.5596],[72.6443,10.5596],[72.6443,10.5593],[72.6441,10.5593],[72.644,10.5591],[72.6439,10.5591],[72.6435,10.559],[72.6435,10.5587],[72.6435,10.5585],[72.6433,10.5585],[72.6424,10.5585],[72.6424,10.5582],[72.6413,10.5582],[72.6413,10.5579],[72.641,10.5579],[72.641,10.5576],[72.6399,10.5576],[72.6399,10.5574],[72.6393,10.5574],[72.6393,10.5571],[72.6396,10.5571],[72.6396,10.5568],[72.639,10.5568],[72.639,10.5565],[72.6382,10.5565],[72.6382,10.5563],[72.6363,10.5563],[72.6363,10.556],[72.6357,10.556],[72.6357,10.5557],[72.6354,10.5557],[72.6354,10.5554],[72.6349,10.5554],[72.6349,10.5551],[72.634,10.5551],[72.634,10.5549],[72.6338,10.5549],[72.6338,10.5546],[72.6335,10.5546],[72.6335,10.5543],[72.6332,10.5543],[72.6332,10.5537],[72.6329,10.5538],[72.6329,10.5532],[72.6326,10.5532],[72.6326,10.5529],[72.6321,10.5529],[72.6321,10.5526],[72.6312,10.5526],[72.6312,10.5524],[72.6307,10.5524],[72.6307,10.5521],[72.6304,10.5521],[72.6304,10.5518],[72.6301,10.5518],[72.6301,10.5515],[72.6296,10.5515],[72.6296,10.5513],[72.629,10.5513],[72.629,10.551],[72.6288,10.551],[72.6288,10.5507],[72.6285,10.5507],[72.6285,10.5504],[72.6279,10.5504],[72.6279,10.5501],[72.6276,10.5501],[72.6276,10.5499],[72.6271,10.5499],[72.6271,10.5496],[72.6268,10.5496],[72.6268,10.5493],[72.6265,10.5493],[72.6265,10.549],[72.6263,10.549],[72.6263,10.5488],[72.6254,10.5488],[72.6254,10.5485],[72.6251,10.5485],[72.6251,10.5482],[72.6249,10.5482],[72.6249,10.5479],[72.6246,10.5479],[72.6246,10.5476],[72.6243,10.5476],[72.6243,10.5471],[72.624,10.5471],[72.624,10.5468],[72.6237,10.5468],[72.6237,10.5465],[72.6235,10.5465],[72.6235,10.5463],[72.6232,10.5463],[72.6232,10.546],[72.6229,10.546],[72.6229,10.5457],[72.6226,10.5457],[72.6226,10.5454],[72.6224,10.5454],[72.6224,10.5451],[72.6221,10.5451],[72.6221,10.5446],[72.6218,10.5446],[72.6218,10.544],[72.6215,10.544],[72.6215,10.5438],[72.6212,10.5438],[72.6212,10.5435],[72.621,10.5435],[72.621,10.5432],[72.6207,10.5432],[72.6207,10.5429],[72.6204,10.5429],[72.6204,10.5426],[72.6201,10.5426],[72.6201,10.5424],[72.6199,10.5424],[72.6199,10.5421],[72.6196,10.5421],[72.6196,10.5418],[72.619,10.5418],[72.619,10.5415],[72.6188,10.5415],[72.6188,10.5413],[72.6182,10.5413],[72.6182,10.541],[72.6179,10.541],[72.6179,10.5407],[72.6171,10.5407],[72.6171,10.5404],[72.6162,10.5404],[72.6162,10.5407],[72.6154,10.5407],[72.6154,10.541],[72.6151,10.541],[72.6151,10.5424],[72.6154,10.5424],[72.6154,10.5429],[72.6157,10.5429],[72.6157,10.5432],[72.616,10.5432],[72.616,10.5435],[72.6162,10.5435],[72.6162,10.544],[72.6165,10.544],[72.6165,10.5446],[72.6168,10.5446],[72.6168,10.5449],[72.6174,10.5449],[72.6174,10.5451],[72.6179,10.5451],[72.6179,10.5454],[72.6185,10.5454],[72.6185,10.5457],[72.6193,10.5457],[72.6193,10.546],[72.6199,10.546],[72.6199,10.5463],[72.6204,10.5463],[72.6204,10.5465],[72.6208,10.5465],[72.6224,10.5465],[72.6224,10.5468],[72.6229,10.5468],[72.6229,10.5471],[72.6232,10.5471],[72.6232,10.5476],[72.6235,10.5476],[72.6235,10.5479],[72.6237,10.5479],[72.6237,10.5485],[72.624,10.5485],[72.624,10.549],[72.6243,10.549],[72.6243,10.5496],[72.6246,10.5496],[72.6246,10.5504],[72.6249,10.5504],[72.6249,10.5507],[72.6251,10.5507],[72.6251,10.5513],[72.6254,10.5513],[72.6254,10.5515],[72.6257,10.5515],[72.6257,10.5521],[72.626,10.5521],[72.626,10.5524],[72.6263,10.5524],[72.6263,10.5526],[72.6265,10.5526],[72.6265,10.5532],[72.6268,10.5532],[72.6268,10.554],[72.6271,10.554],[72.6271,10.5546],[72.6274,10.5546],[72.6274,10.5549],[72.6276,10.5549],[72.6276,10.5554],[72.6279,10.5554],[72.6279,10.556],[72.6282,10.556],[72.6282,10.5563],[72.6285,10.5563],[72.6285,10.5565],[72.629,10.5565],[72.629,10.5571],[72.6293,10.5571],[72.6293,10.5574],[72.6296,10.5574],[72.6296,10.5579],[72.6299,10.5579],[72.6299,10.5582],[72.6301,10.5582],[72.6301,10.5587],[72.6304,10.5587],[72.6304,10.559],[72.6307,10.559],[72.6307,10.5596],[72.631,10.5596],[72.631,10.5601],[72.6312,10.5601],[72.6312,10.5607],[72.6315,10.5607],[72.6315,10.561],[72.6318,10.561],[72.6318,10.5615],[72.6321,10.5615],[72.6321,10.5621],[72.6324,10.5621],[72.6324,10.5624],[72.6326,10.5624],[72.6326,10.5626],[72.6329,10.5626],[72.6329,10.5632],[72.6332,10.5632],[72.6332,10.5635],[72.6335,10.5635],[72.6335,10.564],[72.6338,10.564],[72.6338,10.5646],[72.634,10.5646],[72.634,10.5651],[72.6343,10.5651],[72.6343,10.5657],[72.6346,10.5657],[72.6346,10.5665],[72.6349,10.5665],[72.6349,10.5671],[72.6351,10.5671],[72.6351,10.5674],[72.6354,10.5674],[72.6354,10.5679],[72.6357,10.5679],[72.6357,10.5682],[72.636,10.5682],[72.636,10.569],[72.6363,10.569],[72.6363,10.5696],[72.6365,10.5696],[72.6365,10.5704],[72.6368,10.5704],[72.6368,10.5712],[72.6371,10.5712],[72.6371,10.5718],[72.6374,10.5718],[72.6374,10.5724],[72.6376,10.5724],[72.6376,10.5729],[72.6379,10.5729],[72.6379,10.5735],[72.6382,10.5735],[72.6382,10.574],[72.6385,10.574],[72.6385,10.5743],[72.6385,10.5763],[72.6387,10.5763],[72.6387,10.5765],[72.6393,10.5765],[72.6393,10.5768],[72.6396,10.5768],[72.6396,10.5771],[72.6401,10.5771],[72.6401,10.5774],[72.6411,10.5774],[72.6421,10.5774]]],[[[72.1687,10.8149],[72.1687,10.8135],[72.169,10.8135],[72.169,10.8132],[72.1693,10.8132],[72.1693,10.8124],[72.1688,10.8124],[72.1688,10.8121],[72.1679,10.8121],[72.1679,10.8124],[72.1674,10.8124],[72.1674,10.8121],[72.1671,10.8121],[72.1671,10.8124],[72.1668,10.8124],[72.1668,10.8121],[72.1651,10.8121],[72.1651,10.8129],[72.1654,10.8129],[72.1654,10.8132],[72.1657,10.8132],[72.1657,10.8135],[72.166,10.8135],[72.166,10.8138],[72.1665,10.8138],[72.1665,10.814],[72.1671,10.814],[72.1671,10.8143],[72.1676,10.8143],[72.1676,10.8146],[72.1682,10.8146],[72.1682,10.8149],[72.1687,10.8149]]],[[[72.1726,10.8199],[72.1726,10.819],[72.1724,10.819],[72.1724,10.8179],[72.1721,10.8179],[72.1721,10.8176],[72.1718,10.8176],[72.1718,10.8174],[72.171,10.8174],[72.171,10.8182],[72.1712,10.8182],[72.1712,10.8185],[72.1715,10.8185],[72.1715,10.819],[72.1718,10.819],[72.1718,10.8193],[72.1721,10.8193],[72.1721,10.8196],[72.1724,10.8196],[72.1724,10.8199],[72.1726,10.8199]]],[[[73.6785,10.8215],[73.6785,10.8207],[73.6774,10.8207],[73.6774,10.8204],[73.6771,10.8204],[73.6771,10.8199],[73.6774,10.8199],[73.6774,10.819],[73.6771,10.819],[73.6771,10.8185],[73.6768,10.8185],[73.6768,10.8179],[73.6771,10.8179],[73.6771,10.8176],[73.6774,10.8176],[73.6774,10.8179],[73.6779,10.8179],[73.6779,10.8182],[73.6785,10.8182],[73.6785,10.8185],[73.6799,10.8185],[73.6799,10.8182],[73.681,10.8182],[73.681,10.8179],[73.6815,10.8179],[73.6815,10.8176],[73.6829,10.8176],[73.6829,10.8179],[73.6865,10.8179],[73.6865,10.8176],[73.6871,10.8176],[73.6871,10.8174],[73.6882,10.8174],[73.6882,10.8176],[73.6888,10.8176],[73.6888,10.8179],[73.6896,10.8179],[73.6896,10.8182],[73.6915,10.8182],[73.6915,10.8185],[73.6918,10.8185],[73.6918,10.8182],[73.6946,10.8182],[73.6946,10.8179],[73.6951,10.8179],[73.6951,10.8182],[73.696,10.8182],[73.696,10.8179],[73.6985,10.8179],[73.6985,10.8176],[73.7001,10.8176],[73.7001,10.8174],[73.7007,10.8174],[73.7007,10.8171],[73.7018,10.8171],[73.7018,10.8168],[73.7024,10.8168],[73.7024,10.8162],[73.7026,10.8162],[73.7026,10.8149],[73.7024,10.8149],[73.7024,10.8146],[73.7021,10.8146],[73.7021,10.8143],[73.7018,10.8143],[73.7018,10.8138],[73.7015,10.8138],[73.7015,10.8135],[73.7012,10.8135],[73.7012,10.8132],[73.7007,10.8132],[73.7007,10.8129],[73.6999,10.8129],[73.6999,10.8126],[73.6988,10.8126],[73.6988,10.8124],[73.6982,10.8124],[73.6982,10.8121],[73.6974,10.8121],[73.6974,10.8118],[73.6965,10.8118],[73.6965,10.8115],[73.6949,10.8115],[73.6949,10.8112],[73.6943,10.8112],[73.6943,10.811],[73.6937,10.811],[73.6937,10.8107],[73.6935,10.8107],[73.6935,10.8104],[73.6924,10.8104],[73.6924,10.8101],[73.6915,10.8101],[73.6915,10.8099],[73.6907,10.8099],[73.6907,10.8096],[73.6899,10.8096],[73.6899,10.8093],[73.6893,10.8093],[73.6893,10.809],[73.6879,10.809],[73.6879,10.8088],[73.6874,10.8088],[73.6874,10.8085],[73.6871,10.8085],[73.6871,10.8082],[73.6868,10.8082],[73.6868,10.8079],[73.6865,10.8079],[73.6865,10.8076],[73.686,10.8076],[73.686,10.8074],[73.6846,10.8074],[73.6846,10.8071],[73.6835,10.8071],[73.6835,10.8068],[73.6824,10.8068],[73.6824,10.8065],[73.6815,10.8065],[73.6815,10.8062],[73.6807,10.8062],[73.6807,10.806],[73.6793,10.806],[73.6793,10.8057],[73.6776,10.8057],[73.6776,10.8054],[73.676,10.8054],[73.676,10.8051],[73.6746,10.8051],[73.6746,10.8049],[73.6729,10.8049],[73.6729,10.8046],[73.6726,10.8046],[73.6726,10.8049],[73.6721,10.8049],[73.6721,10.8046],[73.6715,10.8046],[73.6715,10.8049],[73.6712,10.8049],[73.6712,10.8046],[73.671,10.8046],[73.671,10.8049],[73.6699,10.8049],[73.6699,10.8051],[73.6682,10.8051],[73.6682,10.8054],[73.6674,10.8054],[73.6674,10.8057],[73.6671,10.8057],[73.6671,10.806],[73.6663,10.806],[73.6663,10.8062],[73.6651,10.8062],[73.6651,10.8065],[73.6646,10.8065],[73.6646,10.8068],[73.6643,10.8068],[73.6643,10.8071],[73.6642,10.8071],[73.6637,10.8071],[73.6637,10.8074],[73.6632,10.8074],[73.6632,10.8076],[73.6629,10.8076],[73.6629,10.8079],[73.6626,10.8079],[73.6626,10.8082],[73.6624,10.8082],[73.6624,10.8085],[73.6621,10.8085],[73.6621,10.809],[73.6618,10.809],[73.6618,10.8096],[73.6615,10.8096],[73.6615,10.8104],[73.6612,10.8104],[73.6612,10.8112],[73.661,10.8112],[73.661,10.8118],[73.6607,10.8118],[73.6607,10.8126],[73.6604,10.8126],[73.6604,10.8135],[73.6601,10.8135],[73.6601,10.8162],[73.6604,10.8162],[73.6604,10.8165],[73.6607,10.8165],[73.6607,10.8168],[73.661,10.8168],[73.661,10.8171],[73.6612,10.8171],[73.6612,10.8174],[73.6615,10.8174],[73.6615,10.8176],[73.6621,10.8176],[73.6621,10.8179],[73.6626,10.8179],[73.6626,10.8182],[73.6635,10.8182],[73.6635,10.8185],[73.6643,10.8185],[73.6643,10.8188],[73.6676,10.8188],[73.6676,10.819],[73.6679,10.819],[73.6679,10.8188],[73.6687,10.8188],[73.6687,10.8185],[73.6704,10.8185],[73.6704,10.8182],[73.6718,10.8182],[73.6718,10.8185],[73.6721,10.8185],[73.6721,10.8182],[73.6746,10.8182],[73.6746,10.8185],[73.6749,10.8185],[73.6749,10.8182],[73.6751,10.8182],[73.6751,10.8185],[73.6754,10.8185],[73.6754,10.8188],[73.6757,10.8188],[73.6757,10.8193],[73.676,10.8193],[73.676,10.8207],[73.6762,10.8207],[73.6762,10.8213],[73.6768,10.8213],[73.6768,10.8215],[73.6785,10.8215]]],[[[72.1726,10.8199],[72.1726,10.8201],[72.1729,10.8201],[72.1729,10.821],[72.1732,10.821],[72.1732,10.8213],[72.1735,10.8213],[72.1735,10.8215],[72.1738,10.8215],[72.1738,10.8218],[72.174,10.8218],[72.174,10.8224],[72.1743,10.8224],[72.1743,10.8229],[72.1746,10.8229],[72.1746,10.8235],[72.1751,10.8235],[72.1751,10.824],[72.1754,10.824],[72.1754,10.8246],[72.1757,10.8246],[72.1757,10.8251],[72.176,10.8251],[72.176,10.8257],[72.1762,10.8257],[72.1762,10.8263],[72.1765,10.8263],[72.1765,10.8265],[72.1768,10.8265],[72.1768,10.8271],[72.1771,10.8271],[72.1771,10.8274],[72.1774,10.8274],[72.1774,10.8279],[72.1776,10.8279],[72.1776,10.8282],[72.1779,10.8282],[72.1779,10.8288],[72.1782,10.8288],[72.1782,10.8293],[72.1785,10.8293],[72.1785,10.8299],[72.1787,10.8299],[72.1787,10.8301],[72.179,10.8301],[72.179,10.8307],[72.1793,10.8307],[72.1793,10.8312],[72.1796,10.8312],[72.1796,10.8318],[72.1799,10.8318],[72.1799,10.8321],[72.1801,10.8321],[72.1801,10.8326],[72.1804,10.8326],[72.1804,10.8332],[72.1807,10.8332],[72.1807,10.8335],[72.181,10.8335],[72.181,10.834],[72.1813,10.834],[72.1813,10.8346],[72.1815,10.8346],[72.1815,10.8349],[72.1818,10.8349],[72.1818,10.8354],[72.1821,10.8354],[72.1821,10.8363],[72.1824,10.8363],[72.1824,10.8365],[72.1826,10.8365],[72.1826,10.8376],[72.1829,10.8376],[72.1829,10.8385],[72.1832,10.8385],[72.1832,10.8388],[72.1835,10.8388],[72.1835,10.8393],[72.1837,10.8393],[72.1837,10.8399],[72.184,10.8399],[72.184,10.8407],[72.1843,10.8407],[72.1843,10.841],[72.1846,10.841],[72.1846,10.8415],[72.1849,10.8415],[72.1849,10.8418],[72.1851,10.8418],[72.1851,10.8421],[72.1854,10.8421],[72.1854,10.8426],[72.1857,10.8426],[72.1857,10.8432],[72.186,10.8432],[72.186,10.8438],[72.1862,10.8438],[72.1862,10.8446],[72.1865,10.8446],[72.1865,10.8449],[72.1868,10.8449],[72.1868,10.8454],[72.1871,10.8454],[72.1871,10.8457],[72.1874,10.8457],[72.1874,10.8465],[72.1876,10.8465],[72.1876,10.8471],[72.1879,10.8471],[72.1879,10.8476],[72.1882,10.8476],[72.1882,10.8482],[72.1885,10.8482],[72.1885,10.8488],[72.1888,10.8487],[72.1888,10.8493],[72.189,10.8493],[72.189,10.8504],[72.1893,10.8504],[72.1893,10.8518],[72.1896,10.8518],[72.1896,10.8529],[72.1899,10.8529],[72.1899,10.8535],[72.1896,10.8535],[72.1896,10.8543],[72.1899,10.8543],[72.1899,10.8549],[72.1901,10.8549],[72.1901,10.8565],[72.1904,10.8565],[72.1904,10.8574],[72.1907,10.8574],[72.1907,10.8585],[72.191,10.8585],[72.191,10.8615],[72.1913,10.8615],[72.1913,10.8621],[72.1915,10.8621],[72.1915,10.8626],[72.1918,10.8626],[72.1918,10.8638],[72.1921,10.8637],[72.1921,10.8643],[72.1924,10.8643],[72.1924,10.866],[72.1926,10.866],[72.1926,10.8674],[72.1929,10.8674],[72.1929,10.8676],[72.1932,10.8676],[72.1932,10.8679],[72.1935,10.8679],[72.1935,10.8682],[72.1937,10.8682],[72.1937,10.8687],[72.194,10.8687],[72.194,10.8701],[72.1943,10.8701],[72.1943,10.8707],[72.1946,10.8707],[72.1946,10.871],[72.1949,10.871],[72.1949,10.8713],[72.1951,10.8713],[72.1951,10.8718],[72.1954,10.8718],[72.1954,10.8721],[72.1957,10.8721],[72.1957,10.8724],[72.196,10.8724],[72.196,10.8729],[72.1963,10.8729],[72.1963,10.8738],[72.1965,10.8738],[72.1965,10.874],[72.1968,10.874],[72.1968,10.8743],[72.1974,10.8743],[72.1974,10.8746],[72.1979,10.8746],[72.1979,10.8749],[72.1982,10.8749],[72.1982,10.8751],[72.1985,10.8751],[72.1985,10.8754],[72.1988,10.8754],[72.1988,10.8757],[72.199,10.8757],[72.199,10.876],[72.1993,10.876],[72.1993,10.8765],[72.1996,10.8765],[72.1996,10.8768],[72.1999,10.8768],[72.1999,10.8771],[72.2004,10.8771],[72.2004,10.8774],[72.2007,10.8774],[72.2007,10.8776],[72.2015,10.8776],[72.2015,10.8779],[72.204,10.8779],[72.204,10.8776],[72.206,10.8776],[72.206,10.8774],[72.2065,10.8774],[72.2065,10.8751],[72.2063,10.8751],[72.2063,10.8746],[72.206,10.8746],[72.206,10.8738],[72.2057,10.8738],[72.2057,10.8732],[72.2054,10.8732],[72.2054,10.8726],[72.2051,10.8726],[72.2051,10.8721],[72.2049,10.8721],[72.2049,10.8718],[72.2046,10.8718],[72.2046,10.8713],[72.2043,10.8713],[72.2043,10.8704],[72.204,10.8704],[72.204,10.8699],[72.2038,10.8699],[72.2038,10.8687],[72.2035,10.8687],[72.2035,10.8685],[72.2032,10.8685],[72.2032,10.8682],[72.2029,10.8682],[72.2029,10.8674],[72.2026,10.8674],[72.2026,10.8671],[72.2024,10.8671],[72.2024,10.8668],[72.2018,10.8668],[72.2018,10.8663],[72.2015,10.8663],[72.2015,10.8657],[72.2012,10.8657],[72.2012,10.8654],[72.201,10.8654],[72.201,10.8649],[72.2007,10.8649],[72.2007,10.8643],[72.2004,10.8643],[72.2004,10.8637],[72.2001,10.8638],[72.2001,10.8629],[72.1999,10.8629],[72.1999,10.8626],[72.1996,10.8626],[72.1996,10.8624],[72.1993,10.8624],[72.1993,10.8618],[72.199,10.8618],[72.199,10.8615],[72.1987,10.8615],[72.1987,10.861],[72.1985,10.861],[72.1985,10.8607],[72.1982,10.8607],[72.1982,10.8601],[72.1979,10.8601],[72.1979,10.8596],[72.1976,10.8596],[72.1976,10.859],[72.1974,10.859],[72.1974,10.8587],[72.1971,10.8587],[72.1971,10.8585],[72.1968,10.8585],[72.1968,10.8582],[72.1965,10.8582],[72.1965,10.8579],[72.1963,10.8579],[72.1963,10.8574],[72.196,10.8574],[72.196,10.8568],[72.1957,10.8568],[72.1957,10.8563],[72.1954,10.8563],[72.1954,10.856],[72.1951,10.856],[72.1951,10.8557],[72.1949,10.8557],[72.1949,10.8554],[72.1946,10.8554],[72.1946,10.8549],[72.1943,10.8549],[72.1943,10.8543],[72.194,10.8543],[72.194,10.8538],[72.1937,10.8538],[72.1937,10.8535],[72.1935,10.8535],[72.1935,10.8532],[72.1932,10.8532],[72.1932,10.8526],[72.1929,10.8526],[72.1929,10.8524],[72.1926,10.8524],[72.1926,10.8521],[72.1924,10.8521],[72.1924,10.8515],[72.1921,10.8515],[72.1921,10.8513],[72.1918,10.8513],[72.1918,10.8507],[72.1915,10.8507],[72.1915,10.8504],[72.1912,10.8504],[72.1912,10.8499],[72.191,10.8499],[72.191,10.8496],[72.1907,10.8496],[72.1907,10.8493],[72.1904,10.8493],[72.1904,10.8487],[72.1901,10.8488],[72.1901,10.8485],[72.1899,10.8485],[72.1899,10.8479],[72.1896,10.8479],[72.1896,10.8471],[72.1893,10.8471],[72.1893,10.8465],[72.189,10.8465],[72.189,10.8463],[72.1888,10.8463],[72.1888,10.846],[72.1885,10.846],[72.1885,10.8454],[72.1882,10.8454],[72.1882,10.8451],[72.1879,10.8451],[72.1879,10.8443],[72.1876,10.8443],[72.1876,10.8438],[72.1874,10.8438],[72.1874,10.8435],[72.1871,10.8435],[72.1871,10.8429],[72.1868,10.8429],[72.1868,10.8424],[72.1865,10.8424],[72.1865,10.8421],[72.1862,10.8421],[72.1862,10.8415],[72.186,10.8415],[72.186,10.8407],[72.1857,10.8407],[72.1857,10.8401],[72.1854,10.8401],[72.1854,10.8396],[72.1851,10.8396],[72.1851,10.8393],[72.1849,10.8393],[72.1849,10.8388],[72.1846,10.8388],[72.1846,10.8382],[72.1843,10.8382],[72.1843,10.8379],[72.184,10.8379],[72.184,10.8374],[72.1837,10.8374],[72.1837,10.8368],[72.1835,10.8368],[72.1835,10.8363],[72.1832,10.8363],[72.1832,10.8357],[72.1829,10.8357],[72.1829,10.8351],[72.1826,10.8351],[72.1826,10.8349],[72.1824,10.8349],[72.1824,10.834],[72.1821,10.834],[72.1821,10.8332],[72.1818,10.8332],[72.1818,10.8321],[72.1815,10.8321],[72.1815,10.8315],[72.1813,10.8315],[72.1813,10.831],[72.181,10.831],[72.181,10.8304],[72.1807,10.8304],[72.1807,10.8301],[72.1804,10.8301],[72.1804,10.8296],[72.1801,10.8296],[72.1801,10.829],[72.1799,10.829],[72.1799,10.8285],[72.1796,10.8285],[72.1796,10.8279],[72.1793,10.8279],[72.1793,10.8276],[72.1787,10.8276],[72.1787,10.8271],[72.1785,10.8271],[72.1785,10.8265],[72.1782,10.8265],[72.1782,10.826],[72.1779,10.826],[72.1779,10.8257],[72.1776,10.8257],[72.1776,10.8249],[72.1774,10.8249],[72.1774,10.8246],[72.1771,10.8246],[72.1771,10.8243],[72.1768,10.8243],[72.1768,10.824],[72.1765,10.824],[72.1765,10.8238],[72.1762,10.8238],[72.1762,10.8235],[72.176,10.8235],[72.176,10.8232],[72.1757,10.8232],[72.1757,10.8229],[72.1754,10.8229],[72.1754,10.8226],[72.1751,10.8226],[72.1751,10.8224],[72.1749,10.8224],[72.1749,10.8221],[72.1746,10.8221],[72.1746,10.8218],[72.1743,10.8218],[72.1743,10.8215],[72.174,10.8215],[72.174,10.8207],[72.1738,10.8207],[72.1738,10.8204],[72.1735,10.8204],[72.1735,10.8201],[72.1732,10.8201],[72.1732,10.8199],[72.1726,10.8199]]],[[[72.2913,10.946],[72.2913,10.9451],[72.2904,10.9452],[72.2904,10.9449],[72.2893,10.9449],[72.2893,10.9446],[72.2887,10.9446],[72.2887,10.9443],[72.2885,10.9443],[72.2885,10.9438],[72.2882,10.9438],[72.2882,10.9426],[72.2885,10.9426],[72.2885,10.9421],[72.2887,10.9421],[72.2887,10.9412],[72.289,10.9412],[72.289,10.941],[72.2893,10.941],[72.2893,10.9396],[72.2896,10.9396],[72.2896,10.9393],[72.2899,10.9393],[72.2899,10.9387],[72.2901,10.9387],[72.2901,10.9382],[72.2904,10.9382],[72.2904,10.9376],[72.2907,10.9376],[72.2907,10.9368],[72.291,10.9368],[72.291,10.9363],[72.2907,10.9363],[72.2907,10.936],[72.2904,10.936],[72.2904,10.9357],[72.2901,10.9357],[72.2901,10.9354],[72.2896,10.9354],[72.2896,10.9351],[72.2882,10.9351],[72.2882,10.9349],[72.2857,10.9349],[72.2857,10.9351],[72.2849,10.9351],[72.2849,10.9354],[72.2843,10.9354],[72.2843,10.936],[72.284,10.936],[72.284,10.9376],[72.2843,10.9376],[72.2843,10.9401],[72.2846,10.9401],[72.2846,10.9412],[72.2849,10.9412],[72.2849,10.9424],[72.2851,10.9424],[72.2851,10.9435],[72.2854,10.9435],[72.2854,10.9443],[72.2857,10.9443],[72.2857,10.9449],[72.286,10.9449],[72.286,10.9452],[72.2862,10.9452],[72.2862,10.9454],[72.2865,10.9454],[72.2865,10.9457],[72.2868,10.9457],[72.2868,10.946],[72.2913,10.946]]],[[[72.3265,10.9532],[72.3265,10.9524],[72.3262,10.9524],[72.3262,10.9518],[72.326,10.9518],[72.326,10.9515],[72.3257,10.9515],[72.3257,10.9513],[72.3251,10.9513],[72.3251,10.951],[72.3246,10.951],[72.3246,10.9507],[72.3243,10.9507],[72.3243,10.9504],[72.324,10.9504],[72.324,10.9501],[72.3238,10.9501],[72.3238,10.9499],[72.3235,10.9499],[72.3235,10.9496],[72.3232,10.9496],[72.3232,10.949],[72.3229,10.949],[72.3229,10.9487],[72.3224,10.9487],[72.3224,10.9482],[72.3218,10.9482],[72.3218,10.9479],[72.3215,10.9479],[72.3215,10.9476],[72.3213,10.9476],[72.3213,10.9474],[72.321,10.9474],[72.321,10.9471],[72.3207,10.9471],[72.3207,10.9468],[72.3204,10.9468],[72.3204,10.9465],[72.3201,10.9465],[72.3201,10.946],[72.3199,10.946],[72.3199,10.9457],[72.3196,10.9457],[72.3196,10.9454],[72.319,10.9454],[72.319,10.9452],[72.3187,10.9452],[72.3187,10.9449],[72.3185,10.9449],[72.3185,10.9446],[72.3182,10.9446],[72.3182,10.9443],[72.3179,10.9443],[72.3179,10.944],[72.3176,10.944],[72.3176,10.9438],[72.3171,10.9438],[72.3171,10.9435],[72.3165,10.9435],[72.3165,10.9432],[72.316,10.9432],[72.316,10.9429],[72.3151,10.9429],[72.3151,10.9426],[72.314,10.9426],[72.314,10.9429],[72.3138,10.9429],[72.3138,10.9432],[72.3135,10.9432],[72.3135,10.9449],[72.3138,10.9449],[72.3138,10.946],[72.3135,10.946],[72.3135,10.9465],[72.3138,10.9465],[72.3138,10.9474],[72.314,10.9474],[72.314,10.9476],[72.3143,10.9476],[72.3143,10.9479],[72.3146,10.9479],[72.3146,10.9482],[72.3149,10.9482],[72.3149,10.9485],[72.3154,10.9485],[72.3154,10.9487],[72.3168,10.9487],[72.3168,10.949],[72.3187,10.949],[72.3187,10.9493],[72.3196,10.9493],[72.3196,10.9496],[72.3207,10.9496],[72.3207,10.9499],[72.3215,10.9499],[72.3215,10.9501],[72.3221,10.9501],[72.3221,10.9504],[72.3224,10.9504],[72.3224,10.9507],[72.3232,10.9507],[72.3232,10.951],[72.3235,10.951],[72.3235,10.9515],[72.3246,10.9515],[72.3246,10.9518],[72.3251,10.9518],[72.3251,10.9521],[72.3254,10.9521],[72.3254,10.9524],[72.3257,10.9524],[72.3257,10.9529],[72.326,10.9529],[72.326,10.9532],[72.3265,10.9532]]],[[[72.3337,10.9585],[72.3337,10.9582],[72.3343,10.9582],[72.3343,10.956],[72.334,10.956],[72.334,10.9557],[72.3337,10.9557],[72.3337,10.9554],[72.3335,10.9554],[72.3335,10.9551],[72.3318,10.9551],[72.3318,10.9557],[72.3321,10.9557],[72.3321,10.9568],[72.3324,10.9568],[72.3324,10.9576],[72.3321,10.9576],[72.3321,10.9585],[72.3337,10.9585]]],[[[72.7315,11.1362],[72.7315,11.136],[72.7324,11.136],[72.7324,11.1357],[72.7329,11.1357],[72.7329,11.1354],[72.7335,11.1354],[72.7335,11.1351],[72.7337,11.1351],[72.7337,11.1349],[72.734,11.1349],[72.734,11.1343],[72.7343,11.1343],[72.7343,11.1326],[72.734,11.1326],[72.734,11.131],[72.7337,11.131],[72.7337,11.1301],[72.7335,11.1301],[72.7335,11.1293],[72.7332,11.1293],[72.7332,11.1288],[72.7329,11.1288],[72.7329,11.1284],[72.7329,11.1279],[72.7326,11.1279],[72.7326,11.1274],[72.7324,11.1274],[72.7324,11.1268],[72.7321,11.1268],[72.7321,11.1262],[72.7318,11.1262],[72.7318,11.1257],[72.7315,11.1257],[72.7315,11.1251],[72.7312,11.1251],[72.7312,11.1243],[72.731,11.1243],[72.731,11.1238],[72.7307,11.1238],[72.7307,11.1232],[72.7304,11.1232],[72.7304,11.1229],[72.7301,11.1229],[72.7301,11.1226],[72.7299,11.1226],[72.7299,11.1224],[72.7296,11.1224],[72.7296,11.1218],[72.7293,11.1218],[72.7293,11.1212],[72.7293,11.121],[72.729,11.121],[72.729,11.1204],[72.7288,11.1204],[72.7288,11.1199],[72.729,11.1199],[72.729,11.1196],[72.7279,11.1196],[72.7279,11.119],[72.7276,11.119],[72.7276,11.1188],[72.7274,11.1188],[72.7274,11.1185],[72.7271,11.1185],[72.7271,11.1182],[72.7268,11.1182],[72.7268,11.1179],[72.7265,11.1179],[72.7265,11.1176],[72.726,11.1176],[72.726,11.1174],[72.7257,11.1174],[72.7257,11.1171],[72.7254,11.1171],[72.7254,11.1165],[72.7251,11.1165],[72.7251,11.1163],[72.7249,11.1163],[72.7249,11.116],[72.7243,11.116],[72.7243,11.1157],[72.7237,11.1157],[72.7237,11.1154],[72.7235,11.1154],[72.7235,11.1151],[72.7232,11.1151],[72.7232,11.1149],[72.7229,11.1149],[72.7229,11.1146],[72.7226,11.1146],[72.7226,11.1143],[72.7224,11.1143],[72.7224,11.114],[72.7218,11.114],[72.7218,11.1138],[72.7215,11.1138],[72.7215,11.1135],[72.721,11.1135],[72.721,11.1132],[72.7207,11.1132],[72.7207,11.1129],[72.7204,11.1129],[72.7204,11.1124],[72.7201,11.1124],[72.7201,11.1121],[72.7204,11.1121],[72.7204,11.1118],[72.7207,11.1118],[72.7207,11.1115],[72.721,11.1115],[72.721,11.1112],[72.7207,11.1112],[72.7207,11.1107],[72.7201,11.1107],[72.7201,11.111],[72.7199,11.111],[72.7199,11.1112],[72.719,11.1112],[72.719,11.1115],[72.7199,11.1115],[72.7199,11.1121],[72.7182,11.1121],[72.7182,11.1129],[72.7179,11.1129],[72.7179,11.1132],[72.7176,11.1132],[72.7176,11.1138],[72.7174,11.1138],[72.7174,11.114],[72.7171,11.114],[72.7171,11.1143],[72.7168,11.1143],[72.7168,11.1146],[72.7165,11.1146],[72.7165,11.1149],[72.7162,11.1149],[72.7162,11.1154],[72.716,11.1154],[72.716,11.1157],[72.7157,11.1157],[72.7157,11.1163],[72.7154,11.1163],[72.7154,11.1168],[72.7151,11.1168],[72.7151,11.1179],[72.7154,11.1179],[72.7154,11.1215],[72.7157,11.1215],[72.7157,11.1224],[72.716,11.1224],[72.716,11.1235],[72.7162,11.1235],[72.7162,11.1243],[72.716,11.1243],[72.716,11.1251],[72.7162,11.1251],[72.7162,11.1254],[72.7165,11.1254],[72.7165,11.1257],[72.7171,11.1257],[72.7171,11.126],[72.7174,11.126],[72.7174,11.1265],[72.7176,11.1265],[72.7176,11.1271],[72.7179,11.1271],[72.7179,11.1276],[72.7182,11.1276],[72.7182,11.1279],[72.7185,11.1279],[72.7185,11.1282],[72.719,11.1282],[72.719,11.1285],[72.7196,11.1285],[72.7196,11.1288],[72.7199,11.1288],[72.7199,11.1293],[72.7201,11.1293],[72.7201,11.1296],[72.7204,11.1296],[72.7204,11.1299],[72.7207,11.1299],[72.7207,11.1301],[72.721,11.1301],[72.721,11.1304],[72.7215,11.1304],[72.7215,11.1307],[72.7221,11.1307],[72.7221,11.131],[72.7224,11.131],[72.7224,11.1313],[72.7226,11.1313],[72.7226,11.1315],[72.7229,11.1315],[72.7229,11.1318],[72.7232,11.1318],[72.7232,11.1321],[72.724,11.1321],[72.724,11.1324],[72.7246,11.1324],[72.7246,11.1326],[72.7249,11.1326],[72.7249,11.1329],[72.7254,11.1329],[72.7254,11.1332],[72.7257,11.1332],[72.7257,11.1335],[72.726,11.1335],[72.726,11.1337],[72.7262,11.1337],[72.7262,11.134],[72.7268,11.134],[72.7268,11.1343],[72.7271,11.1343],[72.7271,11.1346],[72.7276,11.1346],[72.7276,11.1349],[72.7279,11.1349],[72.7279,11.1351],[72.7282,11.1351],[72.7282,11.1354],[72.7288,11.1354],[72.7288,11.1357],[72.729,11.1357],[72.729,11.136],[72.7301,11.136],[72.7301,11.1362],[72.7315,11.1362]]],[[[72.1057,11.2129],[72.1057,11.2126],[72.106,11.2126],[72.106,11.2121],[72.1062,11.2121],[72.1062,11.211],[72.106,11.211],[72.106,11.2099],[72.1057,11.2099],[72.1057,11.2093],[72.1054,11.2093],[72.1054,11.2088],[72.1051,11.2088],[72.1051,11.2085],[72.1046,11.2085],[72.1046,11.2088],[72.1043,11.2088],[72.1043,11.2082],[72.1038,11.2082],[72.1038,11.2085],[72.1035,11.2085],[72.1035,11.2088],[72.1038,11.2088],[72.1038,11.2093],[72.104,11.2093],[72.104,11.2113],[72.1043,11.2113],[72.1043,11.2115],[72.1046,11.2115],[72.1046,11.2124],[72.1051,11.2124],[72.1051,11.2129],[72.1057,11.2129]]],[[[72.1029,11.2151],[72.1029,11.2149],[72.1032,11.2149],[72.1032,11.2146],[72.1038,11.2146],[72.1038,11.2143],[72.104,11.2143],[72.104,11.214],[72.1046,11.214],[72.1046,11.2138],[72.1049,11.2138],[72.1049,11.2132],[72.1046,11.2132],[72.1046,11.2129],[72.1043,11.2129],[72.1043,11.2126],[72.104,11.2126],[72.104,11.2129],[72.1035,11.2129],[72.1035,11.2132],[72.1032,11.2132],[72.1032,11.2135],[72.1023,11.2135],[72.1023,11.2138],[72.1015,11.2138],[72.1015,11.214],[72.101,11.214],[72.101,11.2143],[72.1001,11.2143],[72.1001,11.2149],[72.1004,11.2149],[72.1004,11.2151],[72.1029,11.2151]]],[[[72.7901,11.2599],[72.7901,11.2596],[72.7904,11.2596],[72.7904,11.259],[72.7907,11.259],[72.7907,11.2582],[72.791,11.2582],[72.791,11.2579],[72.7907,11.2579],[72.7907,11.2554],[72.7904,11.2554],[72.7904,11.2543],[72.7901,11.2543],[72.7901,11.2537],[72.7899,11.2537],[72.7899,11.2532],[72.7896,11.2532],[72.7896,11.2526],[72.7893,11.2526],[72.7893,11.2518],[72.789,11.2518],[72.789,11.2515],[72.7888,11.2515],[72.7888,11.2507],[72.7885,11.2507],[72.7885,11.2496],[72.7882,11.2496],[72.7882,11.2488],[72.7879,11.2488],[72.7879,11.2482],[72.7876,11.2482],[72.7876,11.2479],[72.7874,11.2479],[72.7874,11.2471],[72.7871,11.2471],[72.7871,11.2468],[72.7868,11.2468],[72.7868,11.246],[72.7865,11.246],[72.7865,11.2457],[72.7862,11.2457],[72.7862,11.2449],[72.786,11.2449],[72.786,11.2443],[72.7857,11.2443],[72.7857,11.2435],[72.7854,11.2435],[72.7854,11.2424],[72.7851,11.2424],[72.7851,11.2413],[72.7849,11.2413],[72.7849,11.2404],[72.7846,11.2404],[72.7846,11.2402],[72.784,11.2402],[72.784,11.2393],[72.7838,11.2393],[72.7838,11.2376],[72.7835,11.2376],[72.7835,11.2374],[72.7832,11.2374],[72.7832,11.236],[72.7829,11.236],[72.7829,11.2351],[72.7826,11.2351],[72.7826,11.2343],[72.7824,11.2343],[72.7824,11.2335],[72.7821,11.2335],[72.7821,11.2321],[72.7818,11.2321],[72.7818,11.2318],[72.7815,11.2318],[72.7815,11.231],[72.7813,11.231],[72.7813,11.2304],[72.781,11.2304],[72.781,11.2293],[72.7807,11.2293],[72.7807,11.2288],[72.781,11.2288],[72.781,11.2285],[72.7807,11.2285],[72.7807,11.2271],[72.7804,11.2271],[72.7804,11.2265],[72.7801,11.2265],[72.7801,11.2257],[72.7799,11.2257],[72.7799,11.2249],[72.7796,11.2249],[72.7796,11.2238],[72.7793,11.2238],[72.7793,11.2232],[72.7796,11.2232],[72.7796,11.2229],[72.7793,11.2229],[72.7793,11.2224],[72.779,11.2224],[72.779,11.2218],[72.7787,11.2218],[72.7787,11.2204],[72.7785,11.2204],[72.7785,11.2196],[72.7782,11.2196],[72.7782,11.2174],[72.7779,11.2174],[72.7779,11.2168],[72.7776,11.2168],[72.7776,11.216],[72.7774,11.216],[72.7774,11.2154],[72.7771,11.2154],[72.7771,11.2143],[72.7765,11.2143],[72.7765,11.214],[72.7763,11.214],[72.7763,11.2135],[72.776,11.2135],[72.776,11.2126],[72.7757,11.2126],[72.7757,11.2121],[72.7754,11.2121],[72.7754,11.2118],[72.7751,11.2118],[72.7751,11.2115],[72.7749,11.2115],[72.7749,11.2113],[72.7743,11.2113],[72.7743,11.211],[72.774,11.211],[72.774,11.2107],[72.7738,11.2107],[72.7738,11.2101],[72.7735,11.2101],[72.7735,11.2099],[72.7732,11.2099],[72.7732,11.2093],[72.7729,11.2093],[72.7729,11.209],[72.7726,11.209],[72.7726,11.2082],[72.7724,11.2082],[72.7724,11.2079],[72.7721,11.2079],[72.7721,11.2076],[72.7718,11.2076],[72.7718,11.2074],[72.7715,11.2074],[72.7715,11.2071],[72.7712,11.2071],[72.7712,11.2068],[72.771,11.2068],[72.771,11.2062],[72.7707,11.2062],[72.7707,11.2057],[72.7704,11.2057],[72.7704,11.2049],[72.7701,11.2049],[72.7701,11.2046],[72.7699,11.2046],[72.7699,11.2043],[72.7696,11.2043],[72.7696,11.204],[72.7693,11.204],[72.7693,11.2032],[72.769,11.2032],[72.769,11.2018],[72.7688,11.2018],[72.7688,11.2013],[72.7685,11.2013],[72.7685,11.2007],[72.7682,11.2007],[72.7682,11.2004],[72.7679,11.2004],[72.7679,11.1993],[72.7676,11.1993],[72.7676,11.1982],[72.7674,11.1982],[72.7674,11.1976],[72.7671,11.1976],[72.7671,11.196],[72.7668,11.196],[72.7668,11.1954],[72.7665,11.1954],[72.7665,11.1951],[72.7663,11.1951],[72.7663,11.1935],[72.7657,11.1935],[72.7657,11.1926],[72.7654,11.1926],[72.7654,11.1921],[72.7651,11.1921],[72.7651,11.1918],[72.7649,11.1918],[72.7649,11.191],[72.7651,11.191],[72.7651,11.1901],[72.7649,11.1901],[72.7649,11.189],[72.7651,11.189],[72.7651,11.1888],[72.7646,11.1888],[72.7646,11.1885],[72.7643,11.1885],[72.7643,11.1882],[72.764,11.1882],[72.764,11.1865],[72.7637,11.1865],[72.7637,11.1849],[72.7635,11.1849],[72.7635,11.1838],[72.7632,11.1838],[72.7632,11.1829],[72.7629,11.1829],[72.7629,11.1821],[72.7626,11.1821],[72.7626,11.181],[72.7624,11.181],[72.7624,11.1804],[72.7621,11.1804],[72.7621,11.1801],[72.7613,11.1801],[72.7613,11.1846],[72.7615,11.1846],[72.7615,11.1857],[72.7618,11.1857],[72.7618,11.1868],[72.7621,11.1868],[72.7621,11.191],[72.7624,11.191],[72.7624,11.1918],[72.7626,11.1918],[72.7626,11.1926],[72.7629,11.1926],[72.7629,11.1935],[72.7632,11.1935],[72.7632,11.1943],[72.7635,11.1943],[72.7635,11.1946],[72.7637,11.1946],[72.7637,11.1957],[72.764,11.1957],[72.764,11.1965],[72.7643,11.1965],[72.7643,11.1985],[72.7646,11.1985],[72.7646,11.1988],[72.7649,11.1988],[72.7649,11.199],[72.7651,11.199],[72.7651,11.1993],[72.7654,11.1993],[72.7654,11.2001],[72.7657,11.2001],[72.7657,11.2007],[72.766,11.2007],[72.766,11.2021],[72.7663,11.2021],[72.7663,11.2038],[72.7665,11.2038],[72.7665,11.204],[72.7668,11.204],[72.7668,11.2046],[72.7671,11.2046],[72.7671,11.2054],[72.7674,11.2054],[72.7674,11.2062],[72.7676,11.2062],[72.7676,11.2068],[72.7679,11.2068],[72.7679,11.2076],[72.7682,11.2076],[72.7682,11.2085],[72.7685,11.2085],[72.7685,11.2096],[72.7688,11.2096],[72.7688,11.2101],[72.769,11.2101],[72.769,11.2107],[72.7693,11.2107],[72.7693,11.211],[72.7696,11.211],[72.7696,11.2118],[72.7699,11.2118],[72.7699,11.2132],[72.7701,11.2132],[72.7701,11.2138],[72.7704,11.2138],[72.7704,11.2151],[72.7707,11.2151],[72.7707,11.2157],[72.771,11.2157],[72.771,11.2163],[72.7712,11.2163],[72.7712,11.2176],[72.7715,11.2176],[72.7715,11.2182],[72.7718,11.2182],[72.7718,11.2188],[72.7721,11.2188],[72.7721,11.2196],[72.7724,11.2196],[72.7724,11.2199],[72.7726,11.2199],[72.7726,11.2204],[72.7729,11.2204],[72.7729,11.2221],[72.7732,11.2221],[72.7732,11.2229],[72.7735,11.2229],[72.7735,11.2235],[72.7738,11.2235],[72.7738,11.2243],[72.7735,11.2243],[72.7735,11.2246],[72.7732,11.2246],[72.7732,11.2263],[72.7743,11.2263],[72.7743,11.2265],[72.7746,11.2265],[72.7746,11.2271],[72.7749,11.2271],[72.7749,11.2279],[72.7751,11.2279],[72.7751,11.2296],[72.7754,11.2296],[72.7754,11.2304],[72.7757,11.2304],[72.7757,11.2313],[72.776,11.2313],[72.776,11.2329],[72.7763,11.2329],[72.7763,11.2343],[72.7765,11.2343],[72.7765,11.2351],[72.7768,11.2351],[72.7768,11.2357],[72.7771,11.2357],[72.7771,11.2365],[72.7774,11.2365],[72.7774,11.2379],[72.7776,11.2379],[72.7776,11.2385],[72.7779,11.2385],[72.7779,11.239],[72.7782,11.239],[72.7782,11.2399],[72.7779,11.2399],[72.7779,11.241],[72.7782,11.241],[72.7782,11.2413],[72.7785,11.2413],[72.7785,11.2418],[72.7787,11.2418],[72.7787,11.2421],[72.779,11.2421],[72.779,11.2426],[72.7793,11.2426],[72.7793,11.2432],[72.7796,11.2432],[72.7796,11.244],[72.7799,11.244],[72.7799,11.2446],[72.7801,11.2446],[72.7801,11.2449],[72.7804,11.2449],[72.7804,11.2457],[72.7807,11.2457],[72.7807,11.2465],[72.781,11.2465],[72.781,11.2471],[72.7813,11.2471],[72.7813,11.2474],[72.7815,11.2474],[72.7815,11.2482],[72.7818,11.2482],[72.7818,11.2485],[72.7821,11.2485],[72.7821,11.2493],[72.7824,11.2493],[72.7824,11.2499],[72.7826,11.2499],[72.7826,11.2504],[72.7829,11.2504],[72.7829,11.251],[72.7832,11.251],[72.7832,11.2518],[72.7835,11.2518],[72.7835,11.2524],[72.7838,11.2524],[72.7838,11.2529],[72.784,11.2529],[72.784,11.2537],[72.7843,11.2537],[72.7843,11.2543],[72.7846,11.2543],[72.7846,11.2549],[72.7849,11.2549],[72.7849,11.2552],[72.7851,11.2552],[72.7851,11.2554],[72.7854,11.2554],[72.7854,11.256],[72.7857,11.256],[72.7857,11.2565],[72.786,11.2565],[72.786,11.2571],[72.7862,11.2571],[72.7862,11.2574],[72.7865,11.2574],[72.7865,11.2576],[72.7868,11.2576],[72.7868,11.2579],[72.7871,11.2579],[72.7871,11.2582],[72.7879,11.2582],[72.7879,11.2585],[72.7888,11.2585],[72.7888,11.2588],[72.7893,11.2587],[72.7893,11.2596],[72.7896,11.2596],[72.7896,11.2599],[72.7901,11.2599]]],[[[73.001,11.4882],[73.001,11.4879],[73.0015,11.4879],[73.0015,11.4868],[73.0021,11.4868],[73.0021,11.4857],[73.0024,11.4857],[73.0024,11.4849],[73.0018,11.4849],[73.0018,11.4846],[73.0013,11.4846],[73.0013,11.4849],[73.001,11.4849],[73.001,11.4854],[73.0007,11.4854],[73.0007,11.4871],[73.0004,11.4871],[73.0004,11.4879],[73.0007,11.4879],[73.0007,11.4882],[73.001,11.4882]]],[[[72.9999,11.4979],[72.9999,11.4974],[73.0001,11.4974],[73.0001,11.4976],[73.0015,11.4976],[73.0015,11.4974],[73.0021,11.4974],[73.0021,11.4971],[73.0022,11.4971],[73.0024,11.4971],[73.0024,11.4968],[73.0026,11.4968],[73.0026,11.4965],[73.0029,11.4965],[73.0029,11.4963],[73.0032,11.4963],[73.0032,11.496],[73.0038,11.496],[73.0038,11.4954],[73.004,11.4954],[73.004,11.4951],[73.0043,11.4951],[73.0043,11.4946],[73.0046,11.4946],[73.0046,11.494],[73.0049,11.494],[73.0049,11.4935],[73.0051,11.4935],[73.0051,11.4932],[73.0054,11.4932],[73.0054,11.4929],[73.0057,11.4929],[73.0057,11.4926],[73.006,11.4926],[73.006,11.4924],[73.0062,11.4924],[73.0062,11.4921],[73.0065,11.4921],[73.0065,11.4915],[73.0068,11.4915],[73.0068,11.4913],[73.0071,11.4913],[73.0071,11.4907],[73.0074,11.4907],[73.0074,11.4901],[73.0076,11.4901],[73.0076,11.4899],[73.0079,11.4899],[73.0079,11.4893],[73.0082,11.4893],[73.0082,11.4888],[73.0085,11.4888],[73.0085,11.4882],[73.0088,11.4882],[73.0088,11.4874],[73.009,11.4874],[73.009,11.4862],[73.0093,11.4862],[73.0093,11.4851],[73.0096,11.4851],[73.0096,11.4837],[73.0093,11.4838],[73.0093,11.4824],[73.0096,11.4824],[73.0096,11.4818],[73.0099,11.4818],[73.0099,11.4804],[73.0101,11.4804],[73.0101,11.4799],[73.0099,11.4799],[73.0099,11.4779],[73.0101,11.4779],[73.0101,11.4774],[73.0104,11.4774],[73.0104,11.4751],[73.0107,11.4751],[73.0107,11.474],[73.011,11.474],[73.011,11.4735],[73.0113,11.4735],[73.0113,11.4724],[73.0115,11.4724],[73.0115,11.4715],[73.0113,11.4715],[73.0113,11.471],[73.011,11.471],[73.011,11.4704],[73.0107,11.4704],[73.0107,11.4699],[73.0104,11.4699],[73.0104,11.4696],[73.0101,11.4696],[73.0101,11.4693],[73.0099,11.4693],[73.0099,11.469],[73.0096,11.469],[73.0096,11.4687],[73.0093,11.4688],[73.0093,11.4685],[73.0088,11.4685],[73.0088,11.4682],[73.0082,11.4682],[73.0082,11.4679],[73.0076,11.4679],[73.0076,11.4676],[73.0071,11.4676],[73.0071,11.4679],[73.0068,11.4679],[73.0068,11.4682],[73.0065,11.4682],[73.0065,11.4701],[73.0068,11.4701],[73.0068,11.4704],[73.0071,11.4704],[73.0071,11.471],[73.0074,11.471],[73.0074,11.4718],[73.0071,11.4718],[73.0071,11.4726],[73.0068,11.4726],[73.0068,11.4735],[73.0065,11.4735],[73.0065,11.474],[73.0062,11.474],[73.0062,11.4746],[73.006,11.4746],[73.006,11.4754],[73.0057,11.4754],[73.0057,11.4763],[73.0054,11.4763],[73.0054,11.4768],[73.0051,11.4768],[73.0051,11.4779],[73.0049,11.4779],[73.0049,11.4788],[73.0046,11.4788],[73.0046,11.4793],[73.0043,11.4793],[73.0043,11.4801],[73.004,11.4801],[73.004,11.481],[73.0038,11.481],[73.0038,11.4832],[73.0035,11.4832],[73.0035,11.4846],[73.0035,11.4854],[73.0032,11.4854],[73.0032,11.4876],[73.0029,11.4876],[73.0029,11.4882],[73.0026,11.4882],[73.0026,11.4885],[73.0024,11.4885],[73.0024,11.4888],[73.0021,11.4888],[73.0021,11.4895],[73.0021,11.4907],[73.002,11.4907],[73.0018,11.4907],[73.0018,11.4915],[73.0015,11.4915],[73.0015,11.4918],[73.0013,11.4918],[73.0013,11.4921],[73.0004,11.4921],[73.0004,11.4924],[73.0001,11.4924],[72.9999,11.4924],[72.9996,11.4924],[72.9996,11.4921],[72.999,11.4921],[72.999,11.4924],[72.9987,11.4924],[72.9987,11.4926],[72.9985,11.4926],[72.9985,11.4932],[72.9982,11.4932],[72.9982,11.4938],[72.9979,11.4938],[72.9979,11.4943],[72.9976,11.4943],[72.9976,11.4946],[72.9974,11.4946],[72.9974,11.4951],[72.9971,11.4951],[72.9971,11.4954],[72.9968,11.4954],[72.9968,11.4965],[72.9971,11.4965],[72.9971,11.4968],[72.9974,11.4968],[72.9974,11.4971],[72.9976,11.4971],[72.9976,11.4974],[72.9982,11.4974],[72.9982,11.4976],[72.9987,11.4976],[72.9987,11.4979],[72.9999,11.4979]]],[[[72.1862,11.6013],[72.1862,11.601],[72.1865,11.601],[72.1865,11.6004],[72.1871,11.6004],[72.1871,11.6001],[72.1874,11.6001],[72.1874,11.5999],[72.1879,11.5999],[72.1879,11.5996],[72.1882,11.5996],[72.1882,11.5993],[72.1885,11.5993],[72.1885,11.599],[72.1888,11.599],[72.1888,11.5988],[72.189,11.5988],[72.189,11.5982],[72.1893,11.5982],[72.1893,11.5976],[72.1896,11.5976],[72.1896,11.5968],[72.1893,11.5968],[72.1893,11.5962],[72.189,11.5962],[72.189,11.596],[72.186,11.596],[72.186,11.5962],[72.1857,11.5962],[72.1857,11.5965],[72.1854,11.5965],[72.1854,11.5971],[72.1851,11.5971],[72.1851,11.5974],[72.1849,11.5974],[72.1849,11.5979],[72.1846,11.5979],[72.1846,11.5985],[72.1843,11.5985],[72.1843,11.6001],[72.1846,11.6001],[72.1846,11.6007],[72.1849,11.6007],[72.1849,11.6011],[72.1849,11.6013],[72.1851,11.6013],[72.1862,11.6013]]],[[[72.714,11.7063],[72.714,11.706],[72.7143,11.706],[72.7143,11.7054],[72.7146,11.7054],[72.7146,11.7051],[72.7149,11.7051],[72.7149,11.7049],[72.7151,11.7049],[72.7151,11.704],[72.7154,11.704],[72.7154,11.7037],[72.7157,11.7037],[72.7157,11.7035],[72.716,11.7035],[72.716,11.7032],[72.7162,11.7032],[72.7162,11.7024],[72.7165,11.7024],[72.7165,11.7021],[72.7168,11.7021],[72.7168,11.699],[72.7165,11.699],[72.7165,11.6987],[72.7168,11.6987],[72.7168,11.6982],[72.7171,11.6982],[72.7171,11.6974],[72.7174,11.6974],[72.7174,11.6969],[72.7171,11.6968],[72.7171,11.6964],[72.7171,11.6946],[72.7168,11.6946],[72.7168,11.6936],[72.7168,11.6932],[72.7165,11.6932],[72.7165,11.6921],[72.7162,11.6921],[72.7162,11.6915],[72.716,11.6915],[72.716,11.691],[72.7157,11.691],[72.7157,11.6904],[72.7154,11.6904],[72.7154,11.6901],[72.7151,11.6901],[72.7151,11.6896],[72.7149,11.6896],[72.7149,11.6893],[72.7146,11.6893],[72.7146,11.689],[72.7143,11.689],[72.7143,11.6885],[72.714,11.6885],[72.714,11.6882],[72.7138,11.6882],[72.7138,11.6879],[72.7138,11.6876],[72.7136,11.6876],[72.7135,11.6876],[72.7135,11.6874],[72.7132,11.6874],[72.7132,11.6871],[72.7129,11.6871],[72.7129,11.6868],[72.7126,11.6868],[72.7126,11.6865],[72.7124,11.6865],[72.7124,11.6863],[72.7121,11.6863],[72.7121,11.6857],[72.7118,11.6857],[72.7118,11.6854],[72.7115,11.6854],[72.7115,11.6851],[72.7113,11.6851],[72.7113,11.6846],[72.711,11.6846],[72.711,11.6843],[72.7107,11.6843],[72.7107,11.684],[72.7104,11.684],[72.7104,11.6832],[72.7101,11.6832],[72.7101,11.6826],[72.7099,11.6826],[72.7099,11.6823],[72.7096,11.6824],[72.7096,11.6821],[72.7093,11.6821],[72.7093,11.6818],[72.709,11.6818],[72.709,11.6815],[72.7087,11.6815],[72.7087,11.6813],[72.7085,11.6813],[72.7085,11.681],[72.7079,11.681],[72.7079,11.6807],[72.7071,11.6807],[72.7071,11.6804],[72.706,11.6804],[72.706,11.6807],[72.7049,11.6807],[72.7049,11.681],[72.7046,11.681],[72.7046,11.6813],[72.704,11.6813],[72.704,11.6824],[72.7043,11.6823],[72.7043,11.6838],[72.7046,11.6838],[72.7046,11.684],[72.7051,11.684],[72.7051,11.6843],[72.706,11.6843],[72.706,11.6846],[72.7065,11.6846],[72.7065,11.6849],[72.7068,11.6849],[72.7068,11.6851],[72.7071,11.6851],[72.7071,11.6854],[72.7074,11.6854],[72.7074,11.686],[72.7076,11.686],[72.7076,11.6868],[72.7079,11.6868],[72.7079,11.6876],[72.7082,11.6876],[72.7082,11.6882],[72.7085,11.6882],[72.7085,11.6904],[72.7087,11.6904],[72.7087,11.6912],[72.709,11.6912],[72.709,11.6918],[72.7093,11.6918],[72.7093,11.6921],[72.7096,11.6921],[72.7096,11.6926],[72.7099,11.6926],[72.7099,11.6938],[72.7096,11.6938],[72.7096,11.6943],[72.7093,11.6943],[72.7093,11.6951],[72.7099,11.6951],[72.7099,11.6949],[72.7101,11.6949],[72.7101,11.6946],[72.7107,11.6946],[72.7107,11.6949],[72.711,11.6949],[72.711,11.6954],[72.7113,11.6954],[72.7113,11.696],[72.7115,11.696],[72.7115,11.6963],[72.7118,11.6963],[72.7118,11.6974],[72.7121,11.6974],[72.7121,11.6979],[72.7124,11.6979],[72.7124,11.6985],[72.7126,11.6985],[72.7126,11.6996],[72.7129,11.6996],[72.7129,11.7007],[72.7132,11.7007],[72.7132,11.7013],[72.7135,11.7013],[72.7135,11.7015],[72.7138,11.7015],[72.7138,11.7018],[72.714,11.7018],[72.714,11.7021],[72.7143,11.7021],[72.7143,11.7024],[72.7146,11.7024],[72.7146,11.7026],[72.7149,11.7026],[72.7149,11.7032],[72.7146,11.7032],[72.7146,11.704],[72.7143,11.704],[72.7143,11.7046],[72.714,11.7046],[72.714,11.7051],[72.7138,11.7051],[72.7138,11.7054],[72.7135,11.7054],[72.7135,11.7063],[72.714,11.7063]]]]}}]}