{"type":"FeatureCollection","name":"Manipur","crs":{"type":"name","properties":{"name":"urn:ogc:def:crs:OGC:1.3:CRS84"}},"features":[{"type":"Feature","properties":{"ID_0":105,"ISO":"IND","NAME_0":"India","ID_1":22,"NAME_1":"Manipur","TYPE_1":"State","ENGTYPE_1":"State","NL_NAME_1":null,"VARNAME_1":null},"geometry":{"type":"Polygon","coordinates":[[[94.5772,25.6483],[94.5761,25.6447],[94.5869,25.6466],[94.5952,25.6439],[94.5946,25.6427],[94.5905,25.6403],[94.5838,25.6345],[94.5785,25.6263],[94.5769,25.6204],[94.5728,25.6113],[94.5686,25.6078],[94.5669,25.6041],[94.5651,25.6026],[94.5596,25.5941],[94.5557,25.5858],[94.5615,25.5783],[94.5604,25.568],[94.5647,25.5679],[94.5614,25.5605],[94.5629,25.5495],[94.5599,25.5457],[94.5635,25.5397],[94.5583,25.5349],[94.5613,25.5307],[94.559,25.5243],[94.5574,25.5128],[94.5682,25.5066],[94.5746,25.5052],[94.585,25.4969],[94.5872,25.4925],[94.5908,25.4897],[94.5949,25.4881],[94.5974,25.4863],[94.6075,25.4824],[94.6253,25.4691],[94.633,25.4657],[94.6482,25.4616],[94.6565,25.4586],[94.6587,25.4571],[94.666,25.4554],[94.6698,25.4554],[94.6824,25.4597],[94.6823,25.4566],[94.6821,25.4505],[94.6797,25.4424],[94.6791,25.4329],[94.6781,25.4265],[94.6762,25.4206],[94.6738,25.4162],[94.671,25.4125],[94.6588,25.4095],[94.6563,25.4089],[94.6492,25.4064],[94.6444,25.4016],[94.6438,25.4003],[94.6418,25.399],[94.6382,25.3935],[94.635,25.3924],[94.6312,25.3873],[94.6274,25.3747],[94.6276,25.3621],[94.6277,25.3554],[94.6221,25.3368],[94.6216,25.3361],[94.619,25.3319],[94.6152,25.3252],[94.6132,25.322],[94.6096,25.3135],[94.6069,25.3083],[94.6019,25.2987],[94.5987,25.2891],[94.5989,25.2811],[94.5981,25.2746],[94.5993,25.2669],[94.5972,25.257],[94.5935,25.2462],[94.5919,25.2374],[94.5887,25.2299],[94.5866,25.225],[94.5854,25.2157],[94.5921,25.2055],[94.5976,25.2],[94.6017,25.1952],[94.6089,25.191],[94.6131,25.1895],[94.6174,25.1898],[94.6227,25.1913],[94.6309,25.1904],[94.6339,25.1872],[94.6381,25.1816],[94.6435,25.1765],[94.6478,25.1744],[94.6577,25.1724],[94.667,25.1682],[94.6774,25.165],[94.6812,25.1613],[94.6872,25.1579],[94.6936,25.1595],[94.6986,25.1606],[94.7035,25.1598],[94.7082,25.1539],[94.7136,25.1499],[94.7289,25.1437],[94.7358,25.1428],[94.7419,25.1394],[94.7457,25.1366],[94.7452,25.1268],[94.7457,25.1187],[94.7453,25.1112],[94.7454,25.1069],[94.7455,25.1017],[94.7481,25.0899],[94.7498,25.08],[94.751,25.0754],[94.7506,25.0706],[94.7507,25.0635],[94.7492,25.0579],[94.7477,25.0493],[94.7457,25.0444],[94.745,25.0395],[94.743,25.0301],[94.7422,25.0252],[94.7395,25.0205],[94.7352,25.0127],[94.7345,25.0118],[94.7261,25.0013],[94.7132,24.9937],[94.7058,24.9836],[94.7031,24.9783],[94.703,24.9774],[94.7019,24.9684],[94.7038,24.9636],[94.7057,24.9596],[94.7091,24.9558],[94.7136,24.953],[94.7171,24.9465],[94.7191,24.9425],[94.7147,24.9395],[94.7059,24.9343],[94.7015,24.9276],[94.701,24.9263],[94.6938,24.9097],[94.693,24.9079],[94.6921,24.8999],[94.6889,24.895],[94.686,24.8924],[94.6797,24.8869],[94.672,24.8822],[94.6616,24.8774],[94.6568,24.8736],[94.6579,24.8672],[94.6561,24.8629],[94.6545,24.8612],[94.6482,24.8551],[94.6412,24.8487],[94.6397,24.8458],[94.6378,24.8424],[94.6348,24.8293],[94.6354,24.8231],[94.6354,24.8225],[94.6348,24.8148],[94.6324,24.8109],[94.6273,24.8043],[94.6248,24.7958],[94.6253,24.786],[94.6254,24.7848],[94.6296,24.7773],[94.633,24.7728],[94.6333,24.765],[94.625,24.754],[94.6241,24.7529],[94.6212,24.7494],[94.6177,24.7441],[94.6124,24.7336],[94.6122,24.7328],[94.6113,24.7296],[94.6108,24.7221],[94.6072,24.7199],[94.5994,24.7153],[94.591,24.7109],[94.5845,24.7149],[94.5865,24.7223],[94.5858,24.73],[94.5817,24.7313],[94.5776,24.7302],[94.5746,24.7256],[94.5734,24.722],[94.5754,24.7186],[94.5756,24.7175],[94.5766,24.7121],[94.5706,24.7116],[94.5674,24.7139],[94.5625,24.7183],[94.5567,24.7192],[94.551,24.7165],[94.5466,24.7075],[94.5494,24.7022],[94.5508,24.6996],[94.5529,24.6928],[94.5507,24.6749],[94.5471,24.6665],[94.5406,24.649],[94.5377,24.6438],[94.5315,24.6324],[94.5208,24.6168],[94.5075,24.6015],[94.5024,24.5964],[94.5,24.5943],[94.4982,24.5928],[94.4899,24.5892],[94.4853,24.5822],[94.4783,24.5791],[94.4725,24.5779],[94.4655,24.5756],[94.4595,24.5668],[94.4583,24.5629],[94.4558,24.5553],[94.4502,24.5427],[94.4455,24.5315],[94.4405,24.5204],[94.4366,24.5159],[94.4351,24.5111],[94.4324,24.5042],[94.4296,24.4933],[94.4215,24.4905],[94.4202,24.4904],[94.409,24.4896],[94.4034,24.4878],[94.4062,24.4816],[94.4115,24.4697],[94.4032,24.465],[94.4005,24.4621],[94.408,24.4538],[94.4089,24.4441],[94.4075,24.4312],[94.4039,24.4211],[94.3992,24.4131],[94.3916,24.4097],[94.3909,24.4095],[94.3834,24.4076],[94.3744,24.4048],[94.3668,24.4046],[94.3653,24.3997],[94.3675,24.3983],[94.3763,24.3928],[94.3861,24.3846],[94.3834,24.3794],[94.3775,24.3711],[94.3694,24.3619],[94.3557,24.3465],[94.3518,24.342],[94.3471,24.3394],[94.34,24.339],[94.3348,24.3386],[94.3263,24.3389],[94.3252,24.3342],[94.3269,24.3306],[94.3275,24.323],[94.3279,24.319],[94.3282,24.3061],[94.328,24.2924],[94.3218,24.2759],[94.3148,24.2598],[94.3132,24.2541],[94.3073,24.2486],[94.3038,24.2455],[94.2951,24.2399],[94.2916,24.2231],[94.2904,24.22],[94.2877,24.2133],[94.2851,24.2026],[94.2844,24.1916],[94.2837,24.1799],[94.2797,24.1759],[94.2786,24.1756],[94.2665,24.1722],[94.2627,24.1677],[94.2601,24.1558],[94.2599,24.1547],[94.258,24.1429],[94.2591,24.1317],[94.2592,24.1198],[94.2567,24.1066],[94.2583,24.1016],[94.26,24.0962],[94.2597,24.0896],[94.254,24.0777],[94.2502,24.0705],[94.2472,24.0626],[94.2465,24.0629],[94.2399,24.066],[94.2331,24.0669],[94.2352,24.0587],[94.2368,24.0567],[94.2436,24.048],[94.2453,24.0442],[94.2316,24.0215],[94.2256,24.0141],[94.2203,24.006],[94.2154,23.9975],[94.2103,23.9924],[94.2013,23.978],[94.1945,23.965],[94.1935,23.9512],[94.1968,23.944],[94.196,23.9377],[94.1904,23.9341],[94.1834,23.9371],[94.1818,23.9378],[94.1769,23.9388],[94.1708,23.9351],[94.1695,23.9287],[94.169,23.9115],[94.1682,23.8891],[94.165,23.8649],[94.1615,23.8528],[94.1577,23.8519],[94.1554,23.8515],[94.1471,23.8561],[94.1461,23.8561],[94.1393,23.8559],[94.1351,23.8461],[94.1288,23.8428],[94.1229,23.8427],[94.1226,23.8427],[94.1148,23.8525],[94.1148,23.8532],[94.1141,23.8666],[94.1116,23.8709],[94.1042,23.8772],[94.101,23.889],[94.0961,23.8936],[94.0906,23.8945],[94.0855,23.8932],[94.0757,23.8931],[94.0685,23.8956],[94.0609,23.8973],[94.0566,23.8976],[94.0511,23.9004],[94.0493,23.9074],[94.0469,23.9134],[94.0432,23.918],[94.0379,23.9206],[94.0341,23.9221],[94.0277,23.926],[94.0215,23.9315],[94.0177,23.934],[94.0134,23.9345],[94.008,23.9332],[94.0015,23.9312],[93.9954,23.9315],[93.9896,23.932],[93.9816,23.9333],[93.9764,23.9353],[93.9694,23.9339],[93.9622,23.9371],[93.9618,23.9434],[93.96,23.9469],[93.9538,23.9502],[93.9416,23.9528],[93.9358,23.9534],[93.9264,23.9554],[93.921,23.9568],[93.9139,23.9575],[93.907,23.9571],[93.9021,23.9556],[93.8961,23.9548],[93.891,23.9518],[93.8871,23.9475],[93.8816,23.9471],[93.877,23.9469],[93.8732,23.9439],[93.8662,23.9379],[93.8486,23.9381],[93.8375,23.9321],[93.8282,23.9314],[93.816,23.9298],[93.8093,23.9326],[93.8081,23.9331],[93.8057,23.9374],[93.8053,23.9472],[93.8036,23.9511],[93.8011,23.9556],[93.7972,23.9566],[93.7943,23.9628],[93.7935,23.9675],[93.7856,23.9694],[93.7793,23.9779],[93.7735,23.9824],[93.7703,23.99],[93.7666,23.997],[93.7622,24.0041],[93.7569,24.0095],[93.7466,24.0085],[93.7444,24.0012],[93.74,23.9992],[93.7328,24.0018],[93.7268,24.0038],[93.7202,24.0056],[93.7127,24.0052],[93.7061,24.0064],[93.697,24.0075],[93.6865,24.0097],[93.6775,24.0111],[93.6744,24.0081],[93.6675,24.0054],[93.6628,24.0047],[93.6588,24.0072],[93.655,24.01],[93.6524,24.0135],[93.645,24.0141],[93.6353,24.0134],[93.6277,24.0152],[93.6207,24.0142],[93.6163,24.0107],[93.6167,24.003],[93.6196,24],[93.6201,23.9995],[93.6208,23.9953],[93.6209,23.9912],[93.6159,23.9815],[93.6123,23.9771],[93.6093,23.9734],[93.6061,23.9714],[93.6035,23.9696],[93.5972,23.9673],[93.5926,23.968],[93.5839,23.9685],[93.5805,23.9701],[93.5801,23.9703],[93.5771,23.9779],[93.5724,23.9832],[93.5688,23.9887],[93.5635,23.9896],[93.5612,23.9856],[93.5573,23.9797],[93.5575,23.9701],[93.5549,23.9652],[93.5464,23.9633],[93.5395,23.9633],[93.5305,23.9608],[93.5242,23.9547],[93.5199,23.9505],[93.5194,23.9501],[93.5151,23.9472],[93.5087,23.9489],[93.5025,23.9558],[93.4959,23.9572],[93.4894,23.9615],[93.4858,23.9676],[93.478,23.9695],[93.4722,23.9707],[93.4689,23.9739],[93.4662,23.9792],[93.4667,23.9876],[93.4674,23.992],[93.4674,23.9928],[93.467,23.9993],[93.4661,24.0002],[93.4631,24.0036],[93.4588,24.0097],[93.4574,24.0151],[93.4533,24.0229],[93.444,24.0278],[93.4411,24.0347],[93.44,24.0436],[93.4329,24.0617],[93.4247,24.0717],[93.4202,24.076],[93.4154,24.0792],[93.4105,24.0817],[93.4042,24.0843],[93.3911,24.0882],[93.3834,24.0893],[93.3705,24.0922],[93.3686,24.0926],[93.3664,24.093],[93.3615,24.1002],[93.3567,24.1091],[93.3514,24.1124],[93.3469,24.113],[93.349,24.1051],[93.3509,24.1016],[93.3538,24.0977],[93.3468,24.0923],[93.3436,24.0944],[93.3393,24.0932],[93.334,24.0901],[93.3358,24.0854],[93.336,24.085],[93.3376,24.0789],[93.3389,24.0723],[93.342,24.0674],[93.3373,24.0609],[93.3363,24.0567],[93.3374,24.0534],[93.3125,24.0541],[93.2982,24.0516],[93.2882,24.0515],[93.2854,24.0465],[93.2768,24.0402],[93.2739,24.0339],[93.2553,24.0238],[93.2567,24.0288],[93.2524,24.0338],[93.2623,24.0577],[93.2637,24.0577],[93.2666,24.0603],[93.2637,24.0678],[93.2637,24.0728],[93.248,24.0853],[93.2423,24.0866],[93.2366,24.084],[93.2267,24.0865],[93.2238,24.084],[93.2224,24.0815],[93.2253,24.074],[93.2224,24.0677],[93.221,24.0614],[93.2167,24.0501],[93.1983,24.0525],[93.194,24.0563],[93.1784,24.0541],[93.1755,24.0537],[93.1698,24.055],[93.167,24.0612],[93.1699,24.0713],[93.1699,24.0751],[93.1613,24.0776],[93.1585,24.0838],[93.1479,24.0881],[93.1422,24.0868],[93.1351,24.0792],[93.1351,24.0729],[93.1294,24.0641],[93.1208,24.0603],[93.1194,24.0565],[93.1123,24.0552],[93.1109,24.0501],[93.1066,24.0489],[93.1009,24.0451],[93.0995,24.0488],[93.1038,24.0526],[93.1009,24.0564],[93.1023,24.0627],[93.1009,24.0665],[93.1023,24.074],[93.0952,24.0803],[93.0895,24.0841],[93.0852,24.0904],[93.0795,24.103],[93.0738,24.1005],[93.0652,24.0943],[93.0537,24.0907],[93.0377,24.0952],[93.0347,24.0992],[93.0303,24.1008],[93.0273,24.1036],[93.0215,24.1015],[93.0141,24.1045],[93.0097,24.11],[93.0007,24.1152],[92.9964,24.1167],[92.9893,24.1163],[92.9848,24.1148],[92.9764,24.1148],[92.9749,24.117],[92.9736,24.1239],[92.9776,24.1264],[92.9861,24.1289],[92.9894,24.1318],[92.9929,24.1404],[92.9909,24.1469],[92.9911,24.1503],[92.9931,24.1532],[93.0007,24.1567],[93.0054,24.1606],[93.0055,24.1632],[93.0033,24.174],[93.0109,24.1822],[93.0031,24.1943],[93.003,24.1975],[93.0124,24.1975],[93.0166,24.2],[93.018,24.2075],[93.0223,24.2101],[93.0237,24.2176],[93.0194,24.2251],[93.0194,24.2288],[93.0266,24.2326],[93.018,24.2364],[93.0067,24.254],[93.0067,24.2628],[93.0139,24.2717],[93.0082,24.2805],[93.0111,24.2881],[93.0182,24.2932],[93.0239,24.3007],[93.0352,24.3184],[93.0434,24.3434],[93.0318,24.3445],[93.0216,24.3468],[93.0193,24.3588],[93.0201,24.366],[93.0221,24.3742],[93.0171,24.38],[93.0244,24.3905],[93.0005,24.4033],[93.0064,24.4119],[93.0089,24.4054],[93.016,24.4025],[93.0292,24.4063],[93.0392,24.4111],[93.0393,24.4176],[93.0322,24.4289],[93.0367,24.4439],[93.0379,24.4612],[93.0483,24.464],[93.0485,24.4755],[93.0457,24.4818],[93.0358,24.4969],[93.0443,24.5058],[93.04,24.5108],[93.0414,24.5146],[93.0528,24.5196],[93.0528,24.5247],[93.0485,24.5309],[93.0513,24.5372],[93.0527,24.5447],[93.0612,24.5548],[93.0655,24.5473],[93.0727,24.5611],[93.0611,24.5748],[93.0712,24.5761],[93.0785,24.5749],[93.0871,24.5712],[93.0962,24.5802],[93.0973,24.5825],[93.1045,24.5826],[93.107,24.5836],[93.1068,24.584],[93.1044,24.5876],[93.0987,24.5913],[93.0885,24.59],[93.0798,24.5925],[93.0754,24.5962],[93.0754,24.6],[93.0768,24.6038],[93.0868,24.6113],[93.0867,24.6138],[93.0823,24.6176],[93.0794,24.6213],[93.0794,24.6263],[93.0822,24.6276],[93.0894,24.6276],[93.0893,24.6339],[93.0848,24.6477],[93.0863,24.6514],[93.0891,24.6527],[93.0963,24.6527],[93.0963,24.6565],[93.0977,24.659],[93.0976,24.6628],[93.099,24.6665],[93.1033,24.6716],[93.1047,24.6753],[93.1047,24.6791],[93.1018,24.6804],[93.0975,24.6778],[93.0932,24.6765],[93.0918,24.6778],[93.0918,24.6803],[93.0932,24.6841],[93.0932,24.6879],[93.0903,24.6929],[93.0845,24.6979],[93.0831,24.7016],[93.0802,24.7041],[93.0759,24.7104],[93.0787,24.7142],[93.0888,24.7092],[93.093,24.7155],[93.0944,24.7205],[93.093,24.7243],[93.0944,24.7243],[93.0973,24.7281],[93.0973,24.7318],[93.1044,24.7369],[93.1072,24.7419],[93.1058,24.7457],[93.1029,24.7469],[93.1029,24.7432],[93.1015,24.7419],[93.0986,24.7444],[93.1015,24.7494],[93.1,24.7507],[93.1,24.7544],[93.1043,24.7632],[93.1057,24.7695],[93.1028,24.7733],[93.1013,24.7783],[93.1071,24.7833],[93.1056,24.7846],[93.1056,24.7884],[93.1085,24.7909],[93.1127,24.8022],[93.1098,24.8097],[93.1112,24.8123],[93.1198,24.8173],[93.1227,24.8198],[93.1227,24.8148],[93.1198,24.811],[93.1213,24.8085],[93.127,24.8085],[93.1313,24.806],[93.1371,24.8111],[93.1399,24.8048],[93.1429,24.8011],[93.1443,24.7998],[93.1486,24.7986],[93.1515,24.7961],[93.1529,24.7935],[93.1529,24.7898],[93.1572,24.7923],[93.1615,24.7973],[93.1658,24.7986],[93.1687,24.8011],[93.1744,24.8037],[93.1759,24.7974],[93.1773,24.7961],[93.1788,24.7961],[93.1802,24.7987],[93.1802,24.8024],[93.1816,24.8049],[93.1859,24.805],[93.1902,24.8062],[93.1931,24.8062],[93.1945,24.8088],[93.1974,24.8113],[93.1988,24.815],[93.1959,24.8163],[93.1916,24.8226],[93.193,24.8263],[93.1973,24.8339],[93.193,24.8339],[93.193,24.8364],[93.1944,24.8376],[93.1958,24.8376],[93.1987,24.8364],[93.2016,24.8402],[93.2001,24.8414],[93.1987,24.8402],[93.1973,24.8402],[93.1944,24.8439],[93.1958,24.8464],[93.2016,24.8439],[93.2015,24.8502],[93.1986,24.8527],[93.1972,24.8565],[93.2001,24.8578],[93.2058,24.8553],[93.2087,24.8565],[93.2101,24.859],[93.2143,24.8619],[93.2162,24.8647],[93.2191,24.8697],[93.2219,24.871],[93.2248,24.8748],[93.2291,24.8773],[93.2262,24.8811],[93.2291,24.8848],[93.2334,24.8848],[93.2348,24.8899],[93.2305,24.8949],[93.2334,24.8949],[93.2334,24.8987],[93.2362,24.9025],[93.242,24.9012],[93.2434,24.9037],[93.2434,24.9075],[93.2419,24.9113],[93.239,24.915],[93.2404,24.9163],[93.2419,24.915],[93.2505,24.9151],[93.2533,24.9188],[93.2502,24.9301],[93.2445,24.9301],[93.243,24.9313],[93.2472,24.9363],[93.2485,24.9401],[93.2471,24.9401],[93.2414,24.9376],[93.24,24.9376],[93.24,24.9388],[93.2413,24.9413],[93.2441,24.9438],[93.2469,24.9438],[93.2498,24.9426],[93.2541,24.9426],[93.2511,24.9463],[93.2509,24.9501],[93.2494,24.9526],[93.2492,24.9551],[93.2535,24.9551],[93.2595,24.9514],[93.2624,24.9514],[93.2608,24.9539],[93.2606,24.9589],[93.2633,24.9639],[93.2632,24.9664],[93.2587,24.9727],[93.2529,24.9726],[93.2529,24.9751],[93.2543,24.9789],[93.2515,24.9814],[93.253,24.9827],[93.2533,24.9864],[93.252,24.9888],[93.2553,24.9924],[93.257,24.996],[93.2571,24.9985],[93.2556,24.9997],[93.2557,25.0022],[93.2571,25.0009],[93.2614,25.0009],[93.2633,25.0042],[93.2625,25.006],[93.2599,25.0065],[93.258,25.0042],[93.2577,25.0035],[93.2571,25.0032],[93.2565,25.0031],[93.2558,25.0033],[93.2553,25.0036],[93.2552,25.0042],[93.2535,25.0064],[93.2518,25.0042],[93.2512,25.0035],[93.2506,25.0032],[93.25,25.003],[93.2494,25.0029],[93.2487,25.0029],[93.2481,25.003],[93.2475,25.0033],[93.2469,25.0036],[93.2467,25.0042],[93.2492,25.0132],[93.2517,25.016],[93.2488,25.0188],[93.2538,25.0214],[93.2578,25.0217],[93.2584,25.0252],[93.2556,25.0287],[93.2598,25.0321],[93.2638,25.0359],[93.2639,25.0389],[93.2629,25.0418],[93.2684,25.0441],[93.2695,25.0466],[93.2678,25.0488],[93.2682,25.0497],[93.2845,25.0515],[93.2869,25.0468],[93.2919,25.0471],[93.297,25.0477],[93.2993,25.0505],[93.3001,25.0526],[93.3024,25.0519],[93.3025,25.0482],[93.3046,25.048],[93.3043,25.056],[93.3089,25.0585],[93.3061,25.0644],[93.3088,25.0706],[93.3108,25.0726],[93.3127,25.078],[93.3223,25.0884],[93.3236,25.0917],[93.3295,25.0945],[93.3358,25.0958],[93.3392,25.1064],[93.3405,25.1144],[93.3444,25.1161],[93.3444,25.1213],[93.3464,25.1251],[93.3492,25.1254],[93.347,25.1275],[93.3461,25.1299],[93.3489,25.1348],[93.3469,25.1377],[93.351,25.1445],[93.3486,25.1535],[93.3488,25.1572],[93.3474,25.1639],[93.3492,25.1667],[93.3531,25.1818],[93.3608,25.192],[93.3622,25.1956],[93.3685,25.2001],[93.3706,25.2036],[93.3696,25.2081],[93.3781,25.2161],[93.3795,25.2208],[93.382,25.2239],[93.3848,25.2257],[93.3855,25.2286],[93.3876,25.232],[93.3871,25.2424],[93.3887,25.2459],[93.3946,25.2503],[93.4036,25.2631],[93.4063,25.2641],[93.4121,25.2635],[93.4207,25.2663],[93.4233,25.2722],[93.4233,25.2779],[93.4264,25.2811],[93.4386,25.2866],[93.4448,25.2923],[93.452,25.2947],[93.46,25.2947],[93.4656,25.2991],[93.474,25.3093],[93.4751,25.2997],[93.4746,25.2924],[93.4726,25.2854],[93.4768,25.279],[93.4834,25.2766],[93.4875,25.2759],[93.4949,25.2787],[93.5044,25.2758],[93.5108,25.2756],[93.5042,25.2534],[93.5051,25.2441],[93.5084,25.2437],[93.5164,25.2448],[93.5206,25.2488],[93.5294,25.2484],[93.5412,25.2454],[93.5472,25.2485],[93.5547,25.2505],[93.5631,25.2466],[93.5701,25.2356],[93.5708,25.2325],[93.5749,25.2276],[93.5782,25.2257],[93.5816,25.226],[93.5858,25.2223],[93.5881,25.2222],[93.5903,25.2199],[93.592,25.2139],[93.5948,25.2111],[93.5929,25.2067],[93.593,25.2039],[93.5971,25.2043],[93.601,25.2024],[93.6043,25.2043],[93.608,25.2021],[93.6126,25.2062],[93.6211,25.2249],[93.6289,25.2357],[93.6319,25.2429],[93.6381,25.2504],[93.6431,25.26],[93.6435,25.2659],[93.6499,25.2691],[93.6514,25.2737],[93.6516,25.279],[93.6656,25.2984],[93.6647,25.3042],[93.6661,25.3083],[93.6729,25.3115],[93.674,25.3173],[93.6721,25.3287],[93.6839,25.3296],[93.6871,25.3312],[93.6915,25.3474],[93.6928,25.3616],[93.7,25.3594],[93.7116,25.3581],[93.718,25.3616],[93.719,25.3704],[93.7231,25.3756],[93.731,25.3804],[93.7398,25.3844],[93.7413,25.3894],[93.7401,25.3952],[93.742,25.3999],[93.7467,25.4057],[93.7603,25.4141],[93.7644,25.4181],[93.7811,25.4247],[93.7805,25.4295],[93.7845,25.4319],[93.7881,25.4359],[93.7902,25.4434],[93.7937,25.4487],[93.7984,25.4539],[93.8024,25.4604],[93.8052,25.4634],[93.809,25.4656],[93.8139,25.4847],[93.8076,25.4956],[93.804,25.499],[93.7972,25.5044],[93.7885,25.5065],[93.7734,25.4978],[93.7693,25.4968],[93.7658,25.4999],[93.7643,25.5155],[93.7693,25.5177],[93.7682,25.5253],[93.769,25.5307],[93.771,25.536],[93.7706,25.5403],[93.7718,25.5408],[93.7795,25.538],[93.8078,25.5445],[93.8159,25.5454],[93.8197,25.5444],[93.8233,25.5482],[93.825,25.556],[93.8333,25.5564],[93.8335,25.5614],[93.8365,25.5631],[93.8442,25.5617],[93.8523,25.5586],[93.8622,25.5575],[93.8784,25.562],[93.892,25.5684],[93.9002,25.5687],[93.9048,25.5674],[93.9109,25.5675],[93.9171,25.5667],[93.9193,25.564],[93.9301,25.5654],[93.9435,25.5634],[93.9574,25.5568],[93.9652,25.5566],[93.9726,25.5612],[93.9779,25.5662],[93.9805,25.5713],[94.0006,25.5739],[94.0074,25.5699],[94.0104,25.5713],[94.0116,25.5727],[94.0123,25.5753],[94.0118,25.5791],[94.0078,25.5875],[94.0077,25.5909],[94.0104,25.5954],[94.0147,25.5961],[94.0255,25.5934],[94.0273,25.588],[94.0334,25.5847],[94.0349,25.5815],[94.0379,25.5819],[94.0392,25.583],[94.039,25.5799],[94.0436,25.5775],[94.046,25.5809],[94.0541,25.5768],[94.0647,25.5664],[94.0694,25.559],[94.08,25.5616],[94.086,25.5597],[94.095,25.5464],[94.0962,25.5417],[94.0925,25.538],[94.0921,25.5327],[94.1061,25.5289],[94.1285,25.5259],[94.1387,25.5237],[94.1452,25.5276],[94.1482,25.5317],[94.1518,25.5419],[94.1529,25.5478],[94.1601,25.5553],[94.1635,25.5499],[94.1679,25.547],[94.1795,25.5502],[94.1828,25.5533],[94.1918,25.551],[94.1949,25.5524],[94.1939,25.5422],[94.1901,25.5346],[94.1907,25.5308],[94.1992,25.5228],[94.2069,25.514],[94.2069,25.5116],[94.2129,25.5082],[94.2128,25.5028],[94.2149,25.5002],[94.2199,25.4996],[94.223,25.4968],[94.2291,25.496],[94.2317,25.4983],[94.2521,25.4991],[94.2573,25.5034],[94.2669,25.5024],[94.2741,25.503],[94.2799,25.5055],[94.2867,25.5117],[94.2907,25.5095],[94.299,25.5007],[94.3026,25.4946],[94.309,25.4938],[94.3135,25.4945],[94.3207,25.4993],[94.329,25.5084],[94.3647,25.5215],[94.3885,25.5366],[94.4045,25.5409],[94.4109,25.5435],[94.4168,25.5419],[94.4203,25.5427],[94.4256,25.5529],[94.4264,25.5615],[94.4251,25.573],[94.4224,25.576],[94.4257,25.5815],[94.43,25.5927],[94.4377,25.5959],[94.4443,25.596],[94.4478,25.598],[94.4493,25.6011],[94.474,25.6216],[94.4912,25.6198],[94.4911,25.6187],[94.4934,25.6143],[94.4993,25.6165],[94.4999,25.6188],[94.5,25.6189],[94.5018,25.62],[94.5054,25.617],[94.5078,25.6189],[94.5087,25.6269],[94.5109,25.6299],[94.5145,25.6305],[94.5242,25.6434],[94.5282,25.6443],[94.5307,25.6426],[94.5315,25.6501],[94.5395,25.6511],[94.5447,25.6575],[94.5518,25.6625],[94.5522,25.6674],[94.5651,25.6808],[94.568,25.6922],[94.573,25.6977],[94.5786,25.696],[94.583,25.6932],[94.5871,25.6919],[94.5956,25.6913],[94.5969,25.6869],[94.59,25.6812],[94.5881,25.6773],[94.5853,25.6749],[94.5874,25.6718],[94.5856,25.67],[94.5834,25.6652],[94.5852,25.6618],[94.582,25.6606],[94.5814,25.6574],[94.5768,25.6528],[94.5772,25.6483]]]}}]}