{"type":"FeatureCollection","name":"Meghalaya","crs":{"type":"name","properties":{"name":"urn:ogc:def:crs:OGC:1.3:CRS84"}},"features":[{"type":"Feature","properties":{"ID_0":105,"ISO":"IND","NAME_0":"India","ID_1":23,"NAME_1":"Meghalaya","TYPE_1":"State","ENGTYPE_1":"State","NL_NAME_1":null,"VARNAME_1":null},"geometry":{"type":"Polygon","coordinates":[[[91.8538,26.1048],[91.8647,26.1003],[91.8758,26.0977],[91.8752,26.0846],[91.8693,26.0569],[91.8702,26.0522],[91.8832,26.03],[91.892,26.0296],[91.9009,26.0263],[91.9075,26.0271],[91.9117,26.0238],[91.917,26.0215],[91.9168,26.0138],[91.9157,26.0103],[91.9187,26.0072],[91.9195,26.0016],[91.9196,26.0001],[91.9221,25.9995],[91.9258,25.9997],[91.9268,26.0016],[91.934,26.0147],[91.9413,26.014],[91.9463,26.0145],[91.9524,26.0178],[91.9578,26.0189],[91.9782,26.0259],[91.9842,26.0305],[91.9874,26.0387],[91.9911,26.041],[91.9977,26.0388],[92.0004,26.0392],[92.0034,26.038],[92.0082,26.0394],[92.0176,26.0396],[92.0222,26.0393],[92.0239,26.0384],[92.0279,26.0399],[92.0348,26.0397],[92.0361,26.0394],[92.0396,26.0362],[92.0502,26.033],[92.0529,26.0328],[92.0632,26.0347],[92.0705,26.0378],[92.0736,26.0403],[92.0788,26.0418],[92.0811,26.0436],[92.0934,26.0485],[92.1089,26.0497],[92.1162,26.0466],[92.1234,26.0449],[92.127,26.0459],[92.1331,26.0459],[92.1382,26.0528],[92.1438,26.0576],[92.1462,26.0586],[92.149,26.0616],[92.1505,26.0649],[92.1547,26.0681],[92.1691,26.0776],[92.1783,26.0795],[92.1809,26.0762],[92.1789,26.0692],[92.1804,26.0685],[92.1823,26.0703],[92.1846,26.0692],[92.1883,26.0689],[92.1894,26.0669],[92.2018,26.07],[92.2083,26.0686],[92.2093,26.0692],[92.2088,26.0707],[92.2104,26.0711],[92.212,26.071],[92.2136,26.0697],[92.2161,26.0693],[92.2184,26.0702],[92.2283,26.0676],[92.2412,26.0625],[92.2515,26.0644],[92.2657,26.0654],[92.2686,26.0679],[92.2723,26.0666],[92.2737,26.0659],[92.2737,26.065],[92.2807,26.0692],[92.2881,26.07],[92.2901,26.0728],[92.29,26.0738],[92.2939,26.0778],[92.296,26.0789],[92.2973,26.0791],[92.2997,26.0767],[92.3016,26.0765],[92.2557,26.0289],[92.2214,26.0023],[92.2217,25.9986],[92.2192,26.0008],[92.2152,25.9963],[92.211,25.9947],[92.2077,25.9917],[92.2091,25.9897],[92.2074,25.9882],[92.2009,25.9856],[92.1916,25.9852],[92.181,25.9752],[92.1769,25.9731],[92.1731,25.9722],[92.1674,25.9677],[92.1656,25.9644],[92.1673,25.9588],[92.1653,25.954],[92.1608,25.9515],[92.1563,25.9448],[92.1561,25.943],[92.1575,25.9393],[92.1614,25.9325],[92.1602,25.926],[92.1599,25.9152],[92.1637,25.9118],[92.1743,25.9092],[92.1809,25.9086],[92.1832,25.9109],[92.1836,25.9128],[92.1867,25.9158],[92.192,25.9158],[92.1972,25.918],[92.197,25.9137],[92.1977,25.9113],[92.2006,25.9082],[92.2051,25.9087],[92.2075,25.9105],[92.2175,25.9099],[92.2226,25.9113],[92.2238,25.9104],[92.2255,25.907],[92.225,25.9016],[92.2238,25.9007],[92.2182,25.9002],[92.2156,25.8938],[92.2129,25.8921],[92.2064,25.8915],[92.2033,25.8901],[92.195,25.8813],[92.1869,25.8748],[92.181,25.8716],[92.1799,25.8702],[92.1791,25.8679],[92.1808,25.8632],[92.181,25.8514],[92.1783,25.8481],[92.1752,25.8465],[92.1714,25.8377],[92.1693,25.8353],[92.1655,25.833],[92.1633,25.8258],[92.1631,25.8218],[92.1557,25.8166],[92.1531,25.8127],[92.1537,25.7955],[92.1512,25.7875],[92.151,25.7836],[92.1548,25.7798],[92.1552,25.7786],[92.1542,25.7767],[92.1541,25.7729],[92.156,25.7645],[92.1574,25.762],[92.1582,25.7572],[92.1648,25.7448],[92.1655,25.7344],[92.1642,25.7287],[92.1609,25.7263],[92.1563,25.7248],[92.1537,25.7227],[92.151,25.7194],[92.1496,25.7145],[92.1511,25.7118],[92.1559,25.7091],[92.1576,25.701],[92.161,25.6973],[92.1615,25.696],[92.1604,25.6909],[92.1644,25.6849],[92.1655,25.6784],[92.1605,25.6733],[92.1607,25.6719],[92.1645,25.6693],[92.1698,25.6664],[92.171,25.6669],[92.175,25.6702],[92.1848,25.6811],[92.1879,25.6834],[92.192,25.6863],[92.1941,25.6861],[92.1969,25.687],[92.1983,25.6864],[92.2001,25.6873],[92.2016,25.6897],[92.2106,25.6959],[92.2249,25.714],[92.229,25.7162],[92.2326,25.7151],[92.2338,25.7101],[92.2348,25.7088],[92.2368,25.7084],[92.248,25.711],[92.2536,25.7101],[92.2557,25.7107],[92.2608,25.7103],[92.2705,25.7109],[92.2846,25.7159],[92.288,25.7159],[92.2936,25.7173],[92.3061,25.7231],[92.3083,25.7262],[92.3115,25.7261],[92.3139,25.7247],[92.3177,25.7238],[92.3335,25.7252],[92.339,25.7269],[92.3481,25.7319],[92.3518,25.7349],[92.363,25.7365],[92.3683,25.7404],[92.3675,25.7424],[92.3715,25.7465],[92.3851,25.7536],[92.3869,25.7525],[92.3843,25.7503],[92.3835,25.7474],[92.385,25.7448],[92.387,25.7431],[92.3921,25.7426],[92.3948,25.7415],[92.4048,25.7437],[92.4107,25.7431],[92.4164,25.7405],[92.4125,25.7374],[92.4133,25.734],[92.4128,25.733],[92.417,25.7297],[92.4213,25.7295],[92.432,25.732],[92.4332,25.7315],[92.442,25.7209],[92.4364,25.7156],[92.4296,25.7133],[92.4272,25.7104],[92.4315,25.7043],[92.4333,25.6952],[92.4321,25.691],[92.4343,25.6875],[92.4405,25.6881],[92.44,25.6892],[92.443,25.6877],[92.4513,25.6866],[92.4552,25.6842],[92.4599,25.683],[92.4654,25.6825],[92.4715,25.6749],[92.4747,25.6733],[92.4813,25.6639],[92.4883,25.65],[92.4933,25.6361],[92.4979,25.627],[92.5017,25.6229],[92.5106,25.6172],[92.5173,25.6201],[92.5332,25.6159],[92.5404,25.6178],[92.5445,25.6143],[92.5532,25.6138],[92.5576,25.612],[92.5586,25.609],[92.5562,25.6059],[92.5572,25.5962],[92.5563,25.5928],[92.5609,25.5827],[92.561,25.5743],[92.5647,25.5683],[92.5695,25.5645],[92.5725,25.5604],[92.5761,25.5597],[92.5814,25.5598],[92.5875,25.553],[92.5935,25.5539],[92.6026,25.5574],[92.6035,25.5611],[92.6087,25.5657],[92.6125,25.5655],[92.6211,25.5683],[92.6261,25.568],[92.6289,25.5695],[92.6306,25.5707],[92.6332,25.5748],[92.6341,25.5789],[92.6406,25.5874],[92.6483,25.5924],[92.6512,25.5927],[92.6535,25.5922],[92.6576,25.5891],[92.6605,25.5851],[92.6607,25.5818],[92.6607,25.5703],[92.6574,25.5634],[92.6499,25.56],[92.645,25.5466],[92.6447,25.5374],[92.6376,25.5285],[92.6276,25.5222],[92.6216,25.5158],[92.6096,25.5126],[92.6056,25.5081],[92.5936,25.5031],[92.5895,25.4995],[92.581,25.4952],[92.5756,25.4904],[92.5678,25.4808],[92.5666,25.4751],[92.5674,25.4675],[92.5691,25.4648],[92.5715,25.4641],[92.5823,25.4729],[92.5854,25.4676],[92.5937,25.471],[92.5982,25.4717],[92.6014,25.4641],[92.5998,25.4571],[92.6002,25.4539],[92.6011,25.4524],[92.6045,25.4502],[92.6056,25.4484],[92.6053,25.4419],[92.6078,25.4304],[92.607,25.4272],[92.607,25.4185],[92.6091,25.4166],[92.6118,25.4161],[92.6148,25.4174],[92.6179,25.422],[92.6206,25.4237],[92.6286,25.425],[92.6293,25.427],[92.6285,25.4306],[92.6293,25.4346],[92.6327,25.4331],[92.6379,25.4288],[92.6379,25.4227],[92.6392,25.4204],[92.6396,25.4196],[92.6416,25.4195],[92.6505,25.4317],[92.6543,25.4353],[92.6537,25.4239],[92.6569,25.4157],[92.6601,25.4104],[92.6637,25.4094],[92.667,25.4141],[92.6709,25.4167],[92.6738,25.4171],[92.68,25.4086],[92.6882,25.4044],[92.6935,25.4],[92.7004,25.3878],[92.7029,25.3866],[92.7097,25.3861],[92.7129,25.3845],[92.7164,25.3793],[92.7181,25.375],[92.7206,25.3749],[92.7214,25.3755],[92.7254,25.3804],[92.7348,25.3825],[92.7371,25.3813],[92.7361,25.3738],[92.7406,25.3668],[92.7401,25.3646],[92.7406,25.3637],[92.7457,25.3611],[92.7482,25.3581],[92.7501,25.3544],[92.7512,25.3485],[92.7588,25.3399],[92.7606,25.3353],[92.7633,25.3356],[92.7695,25.3395],[92.7725,25.3396],[92.7825,25.3343],[92.7844,25.3325],[92.788,25.3176],[92.7847,25.3115],[92.7838,25.308],[92.7869,25.3007],[92.7888,25.2915],[92.7922,25.2868],[92.7922,25.2852],[92.7891,25.2785],[92.7821,25.2759],[92.7795,25.2738],[92.7698,25.2689],[92.7762,25.2629],[92.7767,25.2605],[92.7646,25.2493],[92.7703,25.2402],[92.7722,25.2333],[92.7863,25.2314],[92.7943,25.226],[92.8031,25.2215],[92.8044,25.2193],[92.8036,25.2172],[92.7984,25.2134],[92.7929,25.2124],[92.7878,25.2095],[92.7796,25.2031],[92.7676,25.2048],[92.7635,25.2038],[92.7589,25.204],[92.7545,25.2054],[92.7517,25.2073],[92.7471,25.2078],[92.742,25.2031],[92.7333,25.2032],[92.7242,25.1992],[92.7162,25.1942],[92.7046,25.1905],[92.6939,25.1814],[92.6876,25.1823],[92.6828,25.182],[92.6794,25.1831],[92.677,25.1822],[92.6722,25.1782],[92.6669,25.1771],[92.6643,25.1754],[92.663,25.173],[92.6608,25.1623],[92.6595,25.1591],[92.6557,25.1541],[92.6512,25.1524],[92.6483,25.1527],[92.6441,25.1512],[92.638,25.1452],[92.6324,25.1376],[92.6308,25.1318],[92.63,25.125],[92.6247,25.1187],[92.6216,25.1177],[92.61,25.1241],[92.6031,25.125],[92.5984,25.1247],[92.5944,25.1283],[92.5817,25.1319],[92.579,25.132],[92.568,25.1301],[92.5655,25.1313],[92.5578,25.13],[92.5532,25.1307],[92.5431,25.135],[92.5399,25.1373],[92.5356,25.1344],[92.5302,25.1368],[92.5275,25.1399],[92.5247,25.14],[92.5252,25.1256],[92.5302,25.1219],[92.5313,25.1199],[92.5331,25.1121],[92.5408,25.1041],[92.5429,25.0996],[92.538,25.0993],[92.532,25.104],[92.5265,25.1059],[92.5098,25.1055],[92.4991,25.1081],[92.4843,25.1081],[92.4803,25.1004],[92.4798,25.0957],[92.4802,25.0858],[92.4765,25.0783],[92.4746,25.0708],[92.4709,25.0669],[92.4675,25.0614],[92.466,25.0572],[92.4637,25.0556],[92.462,25.0558],[92.4598,25.0547],[92.4602,25.0496],[92.4629,25.0501],[92.4647,25.0472],[92.4633,25.0371],[92.4598,25.0352],[92.4568,25.035],[92.4542,25.0366],[92.451,25.041],[92.4465,25.042],[92.4418,25.0399],[92.4379,25.0338],[92.4319,25.0329],[92.4259,25.0318],[92.4239,25.0328],[92.423,25.0328],[92.4188,25.0325],[92.4164,25.0331],[92.4121,25.0349],[92.411,25.0353],[92.4071,25.035],[92.4046,25.0362],[92.4029,25.0386],[92.4011,25.0415],[92.3973,25.0424],[92.3934,25.0429],[92.3927,25.0428],[92.3893,25.0427],[92.3874,25.0425],[92.3843,25.0436],[92.3817,25.0443],[92.3777,25.0441],[92.3754,25.0444],[92.3733,25.0461],[92.3731,25.0465],[92.3721,25.0501],[92.3696,25.0512],[92.3653,25.0508],[92.3629,25.0515],[92.3603,25.0515],[92.3572,25.0513],[92.3539,25.0513],[92.3486,25.0516],[92.3472,25.0522],[92.3464,25.0538],[92.3458,25.0557],[92.3487,25.059],[92.3515,25.0623],[92.3543,25.0634],[92.356,25.0651],[92.3566,25.0678],[92.3564,25.0713],[92.356,25.0734],[92.3524,25.0753],[92.3478,25.0783],[92.3425,25.08],[92.3385,25.0813],[92.3343,25.0819],[92.33,25.0818],[92.3269,25.0804],[92.3245,25.0772],[92.3225,25.0744],[92.319,25.0747],[92.316,25.0742],[92.3149,25.0723],[92.3101,25.0732],[92.2914,25.0789],[92.2866,25.0794],[92.2816,25.0808],[92.278,25.0826],[92.2757,25.0845],[92.2711,25.0855],[92.2615,25.0877],[92.2589,25.0886],[92.2571,25.0897],[92.2534,25.093],[92.2444,25.0965],[92.2374,25.0988],[92.2356,25.0994],[92.234,25.0975],[92.2335,25.097],[92.2323,25.0981],[92.2294,25.1007],[92.2283,25.1066],[92.2248,25.108],[92.2206,25.1096],[92.2154,25.1117],[92.2135,25.1135],[92.2133,25.114],[92.2123,25.1165],[92.2144,25.1191],[92.2157,25.1205],[92.2197,25.1202],[92.2257,25.1187],[92.2262,25.1186],[92.2289,25.1183],[92.2323,25.1196],[92.227,25.1222],[92.2215,25.1233],[92.2168,25.1254],[92.212,25.1262],[92.2077,25.1274],[92.2033,25.1283],[92.2009,25.1274],[92.2007,25.1273],[92.1989,25.1258],[92.1952,25.1248],[92.1931,25.1229],[92.192,25.1209],[92.1875,25.122],[92.1866,25.1228],[92.1854,25.1238],[92.1845,25.126],[92.1841,25.1284],[92.1807,25.1292],[92.1775,25.1293],[92.1737,25.1301],[92.1681,25.1315],[92.1661,25.1336],[92.1682,25.1357],[92.1677,25.1367],[92.1626,25.1374],[92.1576,25.1375],[92.154,25.1385],[92.15,25.1404],[92.1477,25.1425],[92.1456,25.144],[92.1433,25.1447],[92.1395,25.1455],[92.1388,25.1483],[92.1396,25.1528],[92.1405,25.1551],[92.1408,25.1572],[92.1448,25.1572],[92.1453,25.159],[92.1422,25.1607],[92.1397,25.1624],[92.136,25.1645],[92.132,25.1669],[92.1279,25.1688],[92.1249,25.17],[92.1223,25.1714],[92.1188,25.1731],[92.1165,25.174],[92.1135,25.1749],[92.1107,25.1777],[92.1086,25.1793],[92.1051,25.1802],[92.1019,25.1805],[92.0984,25.1815],[92.0938,25.1831],[92.0924,25.1838],[92.09,25.1851],[92.0873,25.186],[92.0851,25.1864],[92.0839,25.1859],[92.0822,25.1857],[92.0796,25.1873],[92.0747,25.1891],[92.0718,25.1896],[92.0672,25.19],[92.0656,25.19],[92.0564,25.1878],[92.0506,25.1874],[92.0455,25.1868],[92.0406,25.1858],[92.0363,25.1848],[92.0334,25.183],[92.0306,25.1821],[92.0239,25.1862],[92.0229,25.1868],[92.018,25.1894],[92.0179,25.1895],[92.0139,25.1902],[92.0131,25.19],[92.008,25.1886],[92.0033,25.1866],[91.9997,25.1836],[91.9958,25.1796],[91.9922,25.177],[91.9889,25.1756],[91.9882,25.1756],[91.9796,25.1756],[91.9769,25.1769],[91.9754,25.1801],[91.9732,25.1822],[91.9668,25.1831],[91.9616,25.1835],[91.9547,25.1839],[91.9503,25.184],[91.9489,25.1841],[91.948,25.1841],[91.9426,25.184],[91.9381,25.1863],[91.9339,25.1855],[91.9302,25.1858],[91.927,25.1863],[91.9222,25.1871],[91.9182,25.1866],[91.9146,25.1854],[91.9116,25.1842],[91.908,25.1842],[91.9031,25.1836],[91.9005,25.1822],[91.8973,25.1814],[91.8934,25.1817],[91.8889,25.1809],[91.8862,25.1792],[91.8831,25.1797],[91.8814,25.1805],[91.8774,25.1797],[91.8733,25.1786],[91.8675,25.1779],[91.8631,25.1776],[91.8578,25.1776],[91.8535,25.1783],[91.8487,25.1803],[91.8374,25.1824],[91.8347,25.1824],[91.8304,25.1811],[91.8258,25.1781],[91.8232,25.1764],[91.819,25.1755],[91.8144,25.1755],[91.8126,25.1738],[91.8092,25.1728],[91.8053,25.173],[91.7993,25.1719],[91.7927,25.1714],[91.7875,25.1696],[91.7857,25.1691],[91.7846,25.1687],[91.7819,25.1683],[91.7809,25.1684],[91.7788,25.1686],[91.7754,25.1695],[91.7719,25.1706],[91.7693,25.1712],[91.7667,25.1716],[91.7638,25.1733],[91.7617,25.175],[91.7597,25.1775],[91.7574,25.1797],[91.7555,25.1801],[91.7529,25.1798],[91.7513,25.1779],[91.7518,25.175],[91.7509,25.1728],[91.7502,25.1718],[91.7493,25.1705],[91.7468,25.1668],[91.7462,25.1659],[91.7448,25.1638],[91.7449,25.1603],[91.7455,25.1569],[91.7453,25.1529],[91.744,25.1512],[91.7412,25.1508],[91.7381,25.1507],[91.7333,25.1521],[91.7326,25.1522],[91.7278,25.1527],[91.724,25.1536],[91.7219,25.1554],[91.7204,25.1573],[91.7202,25.1575],[91.7175,25.1583],[91.7133,25.1591],[91.7111,25.159],[91.7084,25.1587],[91.7073,25.1588],[91.7071,25.1574],[91.7067,25.155],[91.7079,25.1527],[91.7078,25.1511],[91.7042,25.1495],[91.7026,25.1472],[91.7013,25.147],[91.7002,25.1468],[91.6993,25.145],[91.6992,25.1444],[91.6988,25.1415],[91.6958,25.1391],[91.6905,25.138],[91.6858,25.1369],[91.6818,25.1376],[91.679,25.1382],[91.6752,25.1369],[91.6726,25.1353],[91.6708,25.1334],[91.67,25.1316],[91.6684,25.1303],[91.6653,25.1305],[91.6647,25.1309],[91.6635,25.1317],[91.6605,25.1318],[91.6591,25.1312],[91.655,25.1295],[91.6513,25.1273],[91.65,25.1258],[91.6482,25.1237],[91.6445,25.1227],[91.6412,25.1238],[91.637,25.1263],[91.6334,25.1266],[91.6305,25.1272],[91.6283,25.1283],[91.629,25.1336],[91.6292,25.1372],[91.6276,25.1401],[91.6267,25.1431],[91.6259,25.145],[91.6232,25.146],[91.622,25.146],[91.6202,25.146],[91.6186,25.1438],[91.6174,25.1434],[91.6158,25.1449],[91.6144,25.146],[91.6136,25.146],[91.6127,25.1458],[91.6116,25.1451],[91.61,25.144],[91.6071,25.1431],[91.6068,25.1436],[91.6056,25.1458],[91.6043,25.151],[91.6042,25.1513],[91.6041,25.1537],[91.6048,25.1547],[91.6054,25.1558],[91.6068,25.1572],[91.6045,25.1588],[91.6033,25.16],[91.6076,25.1667],[91.6097,25.1681],[91.6132,25.1697],[91.6173,25.1697],[91.6189,25.1701],[91.6197,25.1727],[91.6174,25.1759],[91.6082,25.1744],[91.6051,25.1742],[91.5981,25.1743],[91.5931,25.1736],[91.5846,25.1719],[91.582,25.1723],[91.5803,25.1728],[91.5782,25.1682],[91.5764,25.1643],[91.5792,25.1606],[91.5751,25.1607],[91.5731,25.1601],[91.5692,25.1594],[91.5669,25.1588],[91.5612,25.1512],[91.5589,25.1493],[91.5463,25.1465],[91.5378,25.1444],[91.5335,25.1442],[91.5295,25.144],[91.5219,25.1446],[91.5136,25.1453],[91.5126,25.1452],[91.5103,25.1447],[91.5083,25.1432],[91.5067,25.1407],[91.506,25.1394],[91.5046,25.1373],[91.5043,25.1367],[91.5026,25.1355],[91.4995,25.1354],[91.4969,25.1359],[91.4926,25.1367],[91.4897,25.1361],[91.4851,25.1363],[91.4824,25.1356],[91.4824,25.1353],[91.4826,25.1341],[91.4815,25.134],[91.4784,25.1339],[91.4741,25.1339],[91.4712,25.1343],[91.4702,25.1348],[91.4719,25.1372],[91.4724,25.1377],[91.4721,25.1399],[91.4715,25.1432],[91.4725,25.1478],[91.4712,25.1501],[91.4688,25.15],[91.4679,25.1498],[91.4622,25.1485],[91.4565,25.148],[91.4507,25.1482],[91.446,25.1491],[91.4423,25.151],[91.4413,25.1521],[91.4395,25.1542],[91.438,25.1547],[91.437,25.155],[91.4339,25.155],[91.4317,25.1552],[91.4301,25.156],[91.4274,25.16],[91.4266,25.1619],[91.4252,25.1658],[91.422,25.1688],[91.42,25.17],[91.4198,25.1701],[91.419,25.1677],[91.4165,25.1651],[91.4124,25.165],[91.4083,25.1653],[91.4052,25.1644],[91.4032,25.1642],[91.3998,25.1643],[91.3979,25.1654],[91.3951,25.1671],[91.3925,25.1673],[91.3888,25.1664],[91.3885,25.1663],[91.3867,25.1659],[91.3813,25.1664],[91.3776,25.1665],[91.3753,25.1671],[91.3733,25.1696],[91.3729,25.1706],[91.3719,25.1732],[91.3705,25.1752],[91.368,25.1756],[91.3667,25.1748],[91.3656,25.174],[91.3599,25.1702],[91.3585,25.1704],[91.357,25.1721],[91.3546,25.1721],[91.3503,25.1718],[91.3464,25.1717],[91.3423,25.1723],[91.3406,25.1728],[91.3401,25.1737],[91.3396,25.1747],[91.3367,25.1756],[91.3345,25.1761],[91.3317,25.1782],[91.3281,25.1809],[91.3263,25.1824],[91.3226,25.1832],[91.3187,25.1832],[91.312,25.1831],[91.3077,25.183],[91.304,25.1836],[91.3005,25.1841],[91.2949,25.1858],[91.2944,25.1863],[91.2934,25.1872],[91.2961,25.1895],[91.2976,25.1906],[91.2936,25.1935],[91.2906,25.1944],[91.2875,25.1953],[91.2826,25.1975],[91.28,25.1986],[91.2775,25.2006],[91.2756,25.2034],[91.2738,25.2043],[91.2697,25.2038],[91.2658,25.2025],[91.2638,25.2006],[91.2612,25.1995],[91.2588,25.1987],[91.258,25.1962],[91.2557,25.1951],[91.2515,25.1946],[91.2449,25.1945],[91.2422,25.1963],[91.2409,25.1969],[91.2403,25.1971],[91.2399,25.1969],[91.238,25.1958],[91.2354,25.1953],[91.2335,25.1955],[91.2314,25.197],[91.2251,25.1981],[91.2217,25.1983],[91.2155,25.1991],[91.2102,25.1995],[91.2035,25.1998],[91.199,25.1996],[91.1957,25.1988],[91.19,25.1971],[91.1835,25.1959],[91.1774,25.1948],[91.1722,25.1943],[91.1653,25.1942],[91.1606,25.1944],[91.1561,25.1961],[91.1525,25.1956],[91.1458,25.1949],[91.1442,25.1947],[91.1383,25.1936],[91.132,25.1933],[91.1275,25.1934],[91.1212,25.1939],[91.116,25.1948],[91.1088,25.1959],[91.1077,25.1961],[91.1043,25.1968],[91.0996,25.1972],[91.095,25.197],[91.0905,25.1967],[91.0865,25.1968],[91.0825,25.1975],[91.0799,25.1972],[91.0786,25.1964],[91.0767,25.1936],[91.0709,25.1914],[91.0674,25.1908],[91.0643,25.1904],[91.0598,25.1905],[91.0592,25.189],[91.0559,25.1878],[91.0522,25.1885],[91.0499,25.1875],[91.0463,25.1875],[91.0449,25.187],[91.0429,25.1852],[91.0372,25.1849],[91.0336,25.1844],[91.0295,25.1848],[91.0277,25.1853],[91.0255,25.184],[91.0231,25.1816],[91.0195,25.181],[91.0146,25.1806],[91.0107,25.1802],[91.0079,25.1801],[91.0052,25.1795],[91.0017,25.1775],[90.9978,25.1755],[90.9926,25.1741],[90.987,25.1734],[90.9821,25.1729],[90.9736,25.1719],[90.9705,25.1714],[90.9702,25.1713],[90.969,25.1697],[90.9685,25.1688],[90.9666,25.1692],[90.9629,25.1682],[90.9585,25.1677],[90.953,25.1674],[90.948,25.1654],[90.9433,25.1634],[90.9432,25.1633],[90.9366,25.1619],[90.9299,25.1606],[90.9241,25.1606],[90.9184,25.1606],[90.9118,25.1598],[90.9079,25.1597],[90.904,25.1616],[90.9021,25.1632],[90.9008,25.164],[90.8997,25.1647],[90.899,25.1644],[90.8948,25.1628],[90.8857,25.1643],[90.8793,25.1612],[90.8758,25.1583],[90.8709,25.1587],[90.867,25.1561],[90.8636,25.1579],[90.8584,25.1558],[90.8535,25.1558],[90.85,25.1567],[90.8434,25.1592],[90.8403,25.159],[90.8367,25.1597],[90.8273,25.1609],[90.8245,25.1611],[90.8236,25.1628],[90.8224,25.1653],[90.8198,25.1659],[90.8171,25.1642],[90.8144,25.1625],[90.8085,25.1652],[90.8091,25.1671],[90.8098,25.1691],[90.8105,25.1717],[90.8072,25.1712],[90.8042,25.172],[90.8011,25.1755],[90.8002,25.1783],[90.7983,25.1785],[90.7964,25.178],[90.7953,25.1777],[90.7924,25.1773],[90.7888,25.1782],[90.7867,25.1808],[90.7859,25.1826],[90.7854,25.184],[90.7839,25.1829],[90.7812,25.1812],[90.7785,25.1798],[90.7745,25.179],[90.772,25.1779],[90.7697,25.1769],[90.7672,25.1739],[90.7652,25.1719],[90.7639,25.17],[90.7654,25.1684],[90.7659,25.1678],[90.7645,25.1662],[90.7629,25.1665],[90.758,25.1671],[90.7547,25.1647],[90.7545,25.1645],[90.751,25.1641],[90.7503,25.1647],[90.7473,25.1675],[90.7447,25.1652],[90.7417,25.1648],[90.7404,25.1646],[90.7398,25.1623],[90.7404,25.1622],[90.7429,25.1618],[90.7458,25.1604],[90.7464,25.1587],[90.7453,25.1566],[90.7422,25.1568],[90.7393,25.1544],[90.7386,25.1545],[90.7365,25.1554],[90.7336,25.158],[90.7328,25.1613],[90.7299,25.163],[90.7271,25.1627],[90.726,25.1622],[90.7219,25.1655],[90.7199,25.1665],[90.7165,25.1661],[90.7148,25.1643],[90.7145,25.1639],[90.7142,25.162],[90.7118,25.1603],[90.7103,25.1621],[90.7097,25.1627],[90.7081,25.1628],[90.7074,25.1611],[90.7072,25.1606],[90.7058,25.1571],[90.7044,25.1553],[90.699,25.1595],[90.6989,25.1596],[90.6983,25.162],[90.6954,25.1635],[90.6926,25.1626],[90.6876,25.1662],[90.6892,25.1686],[90.6927,25.1707],[90.6928,25.1717],[90.6898,25.1721],[90.6861,25.1709],[90.6834,25.1713],[90.6793,25.1705],[90.6785,25.1687],[90.6778,25.1671],[90.6755,25.1653],[90.673,25.1666],[90.6726,25.169],[90.6723,25.1706],[90.672,25.1767],[90.6732,25.1809],[90.6721,25.1838],[90.6714,25.1866],[90.6712,25.1909],[90.6711,25.1943],[90.6712,25.1973],[90.6686,25.1954],[90.6679,25.191],[90.667,25.1875],[90.665,25.1856],[90.6637,25.1855],[90.6626,25.1854],[90.6606,25.1858],[90.6581,25.1836],[90.6567,25.1808],[90.6525,25.1819],[90.6509,25.1828],[90.6506,25.1827],[90.6483,25.182],[90.6477,25.1803],[90.647,25.1785],[90.6483,25.1768],[90.6488,25.1733],[90.6423,25.1746],[90.6397,25.1733],[90.6369,25.1722],[90.6339,25.1724],[90.6333,25.1725],[90.6274,25.173],[90.6259,25.1724],[90.6234,25.1758],[90.6204,25.1743],[90.6162,25.1784],[90.6134,25.1754],[90.6095,25.1753],[90.6048,25.1761],[90.6002,25.1755],[90.5964,25.1757],[90.5937,25.1738],[90.592,25.1729],[90.5911,25.1728],[90.5873,25.1734],[90.5856,25.173],[90.5849,25.1724],[90.5838,25.1713],[90.5828,25.1708],[90.5797,25.172],[90.5785,25.1725],[90.576,25.173],[90.5736,25.173],[90.5719,25.1714],[90.5715,25.171],[90.5706,25.1713],[90.5687,25.1719],[90.5638,25.1719],[90.5608,25.1718],[90.5593,25.1741],[90.5557,25.1735],[90.5531,25.1732],[90.5503,25.1737],[90.5454,25.1737],[90.5407,25.1729],[90.5362,25.1731],[90.532,25.1736],[90.5285,25.1727],[90.5248,25.172],[90.5212,25.1737],[90.5193,25.1741],[90.5167,25.1751],[90.5166,25.1706],[90.5157,25.1698],[90.5119,25.1704],[90.5081,25.1714],[90.5026,25.1664],[90.4976,25.1651],[90.4961,25.1636],[90.4957,25.1632],[90.494,25.1614],[90.4879,25.16],[90.4844,25.1591],[90.4763,25.1569],[90.4651,25.1533],[90.4596,25.1523],[90.4594,25.1518],[90.4579,25.149],[90.4566,25.146],[90.455,25.1444],[90.4524,25.1445],[90.4484,25.1455],[90.4475,25.1457],[90.4439,25.1472],[90.4406,25.1483],[90.4359,25.1491],[90.4315,25.1504],[90.4284,25.1515],[90.424,25.153],[90.4215,25.1547],[90.4186,25.1574],[90.4164,25.1593],[90.4145,25.16],[90.4098,25.1607],[90.4065,25.1606],[90.4028,25.1612],[90.3974,25.1621],[90.3925,25.1625],[90.3867,25.1626],[90.3827,25.1631],[90.3795,25.1643],[90.375,25.1674],[90.3702,25.1712],[90.3649,25.1741],[90.3603,25.1764],[90.355,25.1801],[90.3507,25.1844],[90.3475,25.188],[90.3451,25.1908],[90.3415,25.1935],[90.3374,25.1942],[90.3328,25.1941],[90.3287,25.1937],[90.3252,25.1928],[90.3214,25.191],[90.3181,25.1897],[90.313,25.1915],[90.3087,25.1927],[90.305,25.1932],[90.3019,25.1942],[90.2981,25.1954],[90.2949,25.1967],[90.2907,25.1972],[90.2865,25.1982],[90.2845,25.1987],[90.2817,25.1996],[90.2787,25.2002],[90.2776,25.2001],[90.2758,25.1998],[90.2682,25.1999],[90.2645,25.1998],[90.2612,25.2013],[90.2598,25.2029],[90.2557,25.2031],[90.253,25.2029],[90.2481,25.2038],[90.2449,25.2058],[90.2414,25.2068],[90.2374,25.2066],[90.2343,25.2056],[90.2306,25.2035],[90.2286,25.2034],[90.2268,25.2062],[90.2254,25.2076],[90.2225,25.208],[90.2191,25.2077],[90.2152,25.2089],[90.2126,25.2104],[90.2054,25.2116],[90.2023,25.2119],[90.1983,25.2131],[90.1946,25.2159],[90.1916,25.2168],[90.189,25.2181],[90.1856,25.2201],[90.1831,25.2213],[90.1749,25.224],[90.1665,25.2246],[90.1583,25.2253],[90.1528,25.2255],[90.1432,25.2251],[90.135,25.2259],[90.1288,25.2265],[90.1196,25.2255],[90.1152,25.2269],[90.1095,25.2304],[90.1023,25.2366],[90.0993,25.2387],[90.0924,25.241],[90.0857,25.2425],[90.0807,25.2449],[90.0759,25.2484],[90.0713,25.2519],[90.0674,25.2547],[90.063,25.2592],[90.0598,25.2629],[90.0569,25.2641],[90.0531,25.2642],[90.0484,25.2645],[90.043,25.2652],[90.039,25.2656],[90.0343,25.267],[90.0244,25.2728],[90.0212,25.2752],[90.0151,25.2783],[90.0083,25.2824],[90.0055,25.2831],[90.0022,25.2812],[89.9993,25.279],[89.9957,25.2793],[89.9903,25.2808],[89.9859,25.2824],[89.9835,25.2846],[89.9836,25.2871],[89.9834,25.292],[89.9822,25.2948],[89.9799,25.2982],[89.9755,25.3013],[89.9712,25.3031],[89.9672,25.3033],[89.9637,25.3029],[89.9606,25.3021],[89.9566,25.2999],[89.9562,25.2993],[89.9547,25.2972],[89.9534,25.2956],[89.9509,25.2959],[89.9486,25.2982],[89.9486,25.2994],[89.9485,25.3027],[89.9486,25.304],[89.9437,25.3022],[89.941,25.3006],[89.9367,25.3006],[89.9339,25.302],[89.9311,25.3023],[89.9269,25.3043],[89.9236,25.3053],[89.9205,25.3064],[89.9179,25.3074],[89.9147,25.3084],[89.9113,25.3087],[89.9064,25.3074],[89.9052,25.3063],[89.9016,25.3032],[89.8941,25.2954],[89.8897,25.2899],[89.8864,25.2878],[89.8815,25.287],[89.8759,25.2873],[89.8721,25.2882],[89.8676,25.2884],[89.8645,25.2878],[89.8639,25.2878],[89.8606,25.2878],[89.8569,25.2885],[89.8534,25.2901],[89.8509,25.2913],[89.8477,25.2919],[89.8436,25.2931],[89.8432,25.2932],[89.8343,25.2957],[89.8373,25.2987],[89.8389,25.3007],[89.8402,25.3036],[89.8411,25.3053],[89.8429,25.3061],[89.8448,25.3068],[89.8466,25.3083],[89.8474,25.3103],[89.846,25.3142],[89.8449,25.315],[89.8406,25.3164],[89.8391,25.317],[89.8381,25.3174],[89.8354,25.3197],[89.8347,25.323],[89.8349,25.3248],[89.8351,25.326],[89.8353,25.3286],[89.837,25.3324],[89.8369,25.3342],[89.8331,25.3413],[89.8296,25.3455],[89.8276,25.3473],[89.8255,25.3492],[89.8251,25.352],[89.8245,25.3536],[89.8225,25.3557],[89.822,25.3586],[89.8229,25.361],[89.8239,25.3641],[89.8242,25.3661],[89.8238,25.3687],[89.8231,25.3764],[89.8223,25.3789],[89.8218,25.3826],[89.8217,25.3854],[89.8228,25.3881],[89.8242,25.3901],[89.8264,25.3924],[89.828,25.3946],[89.8291,25.3979],[89.8303,25.4019],[89.8305,25.4038],[89.8299,25.4064],[89.8289,25.4089],[89.8287,25.4126],[89.8299,25.4135],[89.833,25.4152],[89.8331,25.4175],[89.8339,25.4237],[89.8355,25.4286],[89.8378,25.4338],[89.8398,25.4386],[89.8423,25.4419],[89.8451,25.445],[89.8466,25.4486],[89.8482,25.4518],[89.8524,25.4564],[89.8553,25.4597],[89.8567,25.4625],[89.857,25.4661],[89.856,25.4682],[89.8551,25.4708],[89.8548,25.4731],[89.8551,25.476],[89.8596,25.4734],[89.864,25.4729],[89.8687,25.4764],[89.8718,25.4789],[89.88,25.4886],[89.88,25.4956],[89.8756,25.5055],[89.8738,25.5136],[89.8703,25.5215],[89.8757,25.5285],[89.8712,25.537],[89.8715,25.5373],[89.8746,25.5416],[89.8739,25.5419],[89.874,25.5421],[89.8741,25.5429],[89.8701,25.5442],[89.8738,25.5493],[89.8776,25.5489],[89.8864,25.5579],[89.9044,25.5595],[89.9181,25.5626],[89.9261,25.5635],[89.9358,25.5627],[89.9416,25.5676],[89.9494,25.5683],[89.9568,25.5705],[89.9665,25.5717],[89.9728,25.5746],[89.9751,25.5835],[89.9792,25.5907],[89.9895,25.5888],[89.9954,25.5863],[90.0021,25.5842],[90.0058,25.5884],[90.0111,25.5984],[90.0173,25.6022],[90.0184,25.6084],[90.0045,25.6238],[90.0014,25.6244],[89.9993,25.6219],[89.9953,25.623],[89.9833,25.6267],[89.9823,25.6284],[89.9804,25.6376],[89.947,25.6588],[89.9418,25.6737],[89.9417,25.6781],[89.937,25.6866],[89.9324,25.69],[89.9211,25.6944],[89.9195,25.6968],[89.9185,25.7027],[89.9143,25.704],[89.9126,25.7071],[89.9049,25.7148],[89.8942,25.7272],[89.8926,25.735],[89.8954,25.7441],[89.8991,25.7441],[89.9114,25.7416],[89.9161,25.7392],[89.9219,25.7392],[89.9279,25.7414],[89.9335,25.7446],[89.9346,25.7475],[89.9337,25.7525],[89.9435,25.7605],[89.9467,25.7647],[89.9524,25.7702],[89.9552,25.7745],[89.955,25.7816],[89.9526,25.7834],[89.9508,25.792],[89.952,25.8109],[89.9494,25.8144],[89.9456,25.8161],[89.9458,25.8202],[89.9446,25.8245],[89.9506,25.8249],[89.9589,25.8266],[89.968,25.8262],[89.9735,25.8281],[89.9759,25.834],[89.9908,25.8355],[89.9947,25.8388],[89.9978,25.8397],[90.0016,25.8422],[89.9998,25.8437],[89.9974,25.8442],[89.9976,25.8467],[90.0003,25.8486],[90.0083,25.8468],[90.0115,25.8497],[90.0208,25.8616],[90.0219,25.8655],[90.0214,25.8685],[90.0187,25.8714],[90.0144,25.8718],[90.0098,25.8757],[90.0047,25.8787],[90.0153,25.8886],[90.0213,25.8932],[90.0279,25.8943],[90.0345,25.8935],[90.0421,25.8908],[90.0522,25.8987],[90.0551,25.9081],[90.0589,25.9103],[90.0633,25.9155],[90.0676,25.9162],[90.0724,25.9193],[90.078,25.9177],[90.0795,25.9193],[90.0807,25.9245],[90.0874,25.9263],[90.0919,25.9288],[90.088,25.9362],[90.0961,25.9395],[90.0991,25.9393],[90.1005,25.9421],[90.1054,25.9419],[90.1079,25.9506],[90.1109,25.9541],[90.1138,25.9574],[90.1187,25.9613],[90.12,25.9577],[90.1232,25.9572],[90.1284,25.9588],[90.1341,25.9578],[90.14,25.9581],[90.1474,25.9645],[90.1534,25.9647],[90.1545,25.9602],[90.1584,25.9583],[90.1635,25.9574],[90.1685,25.9574],[90.1727,25.9587],[90.1761,25.9571],[90.1805,25.947],[90.1825,25.9445],[90.1857,25.9456],[90.1895,25.9532],[90.194,25.957],[90.2084,25.9616],[90.2111,25.9556],[90.2128,25.9539],[90.2274,25.9551],[90.2778,25.9632],[90.2866,25.9639],[90.3243,25.9744],[90.3291,25.9827],[90.3299,25.9885],[90.3369,25.9902],[90.3393,25.9969],[90.3449,26.0012],[90.3467,26.003],[90.365,26.0103],[90.3808,26.0116],[90.3874,26.0113],[90.394,26.0141],[90.3965,26.0142],[90.3973,26.0122],[90.4002,26.0093],[90.4076,26.0076],[90.411,26.0059],[90.4139,26.0013],[90.4165,25.9969],[90.4174,25.9923],[90.4286,25.989],[90.4471,25.9965],[90.4575,25.9996],[90.4579,26.0013],[90.4591,26.0032],[90.4653,26.0072],[90.4709,26.0126],[90.4773,26.0153],[90.4812,26.014],[90.4896,26.0096],[90.4924,26.0065],[90.4979,26.0037],[90.5001,26.0014],[90.5057,25.996],[90.5136,25.9824],[90.5241,25.9699],[90.5298,25.9619],[90.5345,25.958],[90.5348,25.9456],[90.5338,25.9363],[90.5322,25.9326],[90.5262,25.9283],[90.5185,25.9094],[90.5111,25.9001],[90.5125,25.8962],[90.518,25.8965],[90.5255,25.901],[90.5336,25.9088],[90.5392,25.9155],[90.5468,25.9199],[90.5534,25.9291],[90.5632,25.9356],[90.5714,25.939],[90.5727,25.944],[90.5728,25.9482],[90.5788,25.958],[90.5825,25.9598],[90.5873,25.9539],[90.5919,25.9521],[90.6019,25.9518],[90.6054,25.947],[90.629,25.9374],[90.6076,25.9196],[90.6065,25.9123],[90.6081,25.908],[90.6107,25.9074],[90.6142,25.8995],[90.6248,25.8989],[90.6267,25.9014],[90.6289,25.9065],[90.6269,25.9113],[90.6273,25.917],[90.6378,25.9233],[90.654,25.9297],[90.6702,25.9343],[90.6757,25.9365],[90.686,25.9508],[90.7131,25.9522],[90.7177,25.9547],[90.7207,25.9492],[90.7254,25.9488],[90.7323,25.9526],[90.7403,25.9549],[90.7436,25.9567],[90.7474,25.9573],[90.746,25.9526],[90.7438,25.9494],[90.7447,25.9465],[90.7403,25.9409],[90.7441,25.9328],[90.7475,25.9323],[90.7507,25.9341],[90.7526,25.934],[90.7462,25.9219],[90.7405,25.9152],[90.7423,25.913],[90.7454,25.9123],[90.7501,25.9192],[90.7589,25.9216],[90.7576,25.9166],[90.7577,25.9111],[90.7691,25.9085],[90.7781,25.9083],[90.7785,25.9143],[90.7817,25.9212],[90.7917,25.9357],[90.7971,25.9415],[90.8087,25.9472],[90.8099,25.9522],[90.8204,25.9484],[90.8239,25.9451],[90.828,25.9474],[90.8323,25.9453],[90.8362,25.9473],[90.8368,25.9382],[90.8398,25.9384],[90.841,25.9432],[90.8432,25.9448],[90.8568,25.9443],[90.8696,25.9424],[90.8729,25.9429],[90.8724,25.9467],[90.8752,25.9491],[90.8802,25.9463],[90.8814,25.9506],[90.883,25.9517],[90.8884,25.9436],[90.8924,25.9391],[90.8965,25.9375],[90.897,25.9354],[90.8954,25.9315],[90.9012,25.9296],[90.9125,25.9203],[90.9161,25.9151],[90.9191,25.9133],[90.9163,25.9281],[90.9159,25.9432],[90.9183,25.9432],[90.9321,25.9397],[90.9347,25.9411],[90.9375,25.9448],[90.9427,25.9476],[90.9456,25.9391],[90.9538,25.9367],[90.9579,25.9339],[90.9606,25.9277],[90.9669,25.9053],[90.9673,25.8966],[90.9666,25.891],[90.9675,25.8872],[90.9713,25.8877],[90.9754,25.8895],[90.9848,25.8899],[90.9969,25.8887],[91.0013,25.8865],[91.0137,25.8843],[91.0206,25.8873],[91.0257,25.8884],[91.0283,25.8886],[91.0292,25.888],[91.0291,25.8799],[91.0265,25.8666],[91.0218,25.8613],[91.0151,25.8591],[91.0131,25.8572],[91.0127,25.8488],[91.0087,25.8382],[91.0016,25.8258],[91.0008,25.8223],[91.0061,25.8208],[91.0127,25.8211],[91.0208,25.8226],[91.0249,25.8276],[91.042,25.8394],[91.0491,25.8488],[91.0659,25.8464],[91.0785,25.8526],[91.073,25.8425],[91.0729,25.8383],[91.0675,25.8363],[91.0618,25.8361],[91.0572,25.832],[91.0499,25.8289],[91.059,25.8223],[91.0633,25.8204],[91.0665,25.8258],[91.0814,25.8293],[91.1208,25.8313],[91.1263,25.8382],[91.1317,25.8419],[91.1379,25.8421],[91.1454,25.8473],[91.1529,25.8501],[91.1617,25.8493],[91.1682,25.8456],[91.179,25.8428],[91.1818,25.8441],[91.1855,25.85],[91.193,25.8552],[91.1965,25.859],[91.1981,25.8548],[91.1987,25.8476],[91.2026,25.8405],[91.1945,25.8306],[91.1943,25.8264],[91.1899,25.8208],[91.1882,25.8156],[91.191,25.8107],[91.1872,25.8033],[91.1847,25.795],[91.184,25.7826],[91.1799,25.7763],[91.1812,25.7733],[91.1859,25.7699],[91.1857,25.7669],[91.1892,25.7635],[91.1887,25.7389],[91.1923,25.7361],[91.192,25.7296],[91.198,25.731],[91.2159,25.7239],[91.2214,25.726],[91.2239,25.7234],[91.2325,25.7292],[91.2554,25.7478],[91.2623,25.7493],[91.2756,25.7469],[91.2765,25.7517],[91.2796,25.7567],[91.2873,25.7641],[91.2969,25.7782],[91.3063,25.7964],[91.325,25.8238],[91.3324,25.8321],[91.3322,25.8337],[91.3336,25.8388],[91.3364,25.8384],[91.3425,25.8361],[91.3444,25.8394],[91.3486,25.8404],[91.3533,25.8377],[91.3569,25.8415],[91.3637,25.8405],[91.3705,25.8443],[91.3769,25.8449],[91.3821,25.8469],[91.3885,25.8473],[91.4012,25.8511],[91.4051,25.8499],[91.4127,25.8539],[91.4189,25.8547],[91.4243,25.8536],[91.4308,25.8478],[91.4412,25.8416],[91.4444,25.841],[91.4474,25.8457],[91.455,25.8513],[91.4687,25.859],[91.475,25.8572],[91.4784,25.8577],[91.483,25.8629],[91.496,25.8623],[91.5079,25.8648],[91.5128,25.8666],[91.5191,25.8731],[91.5218,25.8743],[91.5254,25.8729],[91.5289,25.8809],[91.5326,25.8841],[91.5321,25.8882],[91.5297,25.8897],[91.5258,25.8901],[91.5222,25.8859],[91.5198,25.878],[91.5173,25.8747],[91.5135,25.871],[91.5078,25.8674],[91.4983,25.8672],[91.4937,25.8655],[91.4774,25.8687],[91.4748,25.8712],[91.4759,25.878],[91.4787,25.8847],[91.4834,25.8911],[91.4885,25.8948],[91.4929,25.8956],[91.4986,25.8925],[91.5033,25.8922],[91.5012,25.8985],[91.5085,25.9098],[91.5248,25.9208],[91.5313,25.9237],[91.5359,25.934],[91.5217,25.9249],[91.5169,25.92],[91.5108,25.9154],[91.5056,25.9131],[91.5033,25.9143],[91.5016,25.9208],[91.5163,25.9383],[91.5198,25.9409],[91.5182,25.9528],[91.5185,25.9582],[91.5238,25.9594],[91.5258,25.9613],[91.5324,25.9622],[91.5372,25.9621],[91.5373,25.9684],[91.5489,25.9751],[91.5513,25.9749],[91.5548,25.9866],[91.5654,26.0018],[91.5661,26.0038],[91.5651,26.0075],[91.5686,26.0119],[91.5697,26.0168],[91.5688,26.0217],[91.57,26.0275],[91.5758,26.0331],[91.5841,26.032],[91.5881,26.0301],[91.5971,26.0171],[91.5968,26.0208],[91.6019,26.0226],[91.6165,26.0247],[91.6203,26.027],[91.6261,26.024],[91.6322,26.0224],[91.6334,26.0179],[91.6321,26.014],[91.633,26.0049],[91.6321,26.0019],[91.6304,25.9998],[91.6267,25.9977],[91.6287,25.9951],[91.6247,25.9859],[91.6268,25.9824],[91.628,25.977],[91.6321,25.9708],[91.6379,25.9648],[91.6341,25.9605],[91.6301,25.9446],[91.6246,25.946],[91.6109,25.9446],[91.6112,25.9399],[91.6228,25.931],[91.6328,25.9258],[91.6479,25.9137],[91.6515,25.9077],[91.6569,25.9079],[91.6619,25.9099],[91.6672,25.9082],[91.6693,25.9054],[91.676,25.9118],[91.6786,25.9173],[91.6864,25.9212],[91.6923,25.9291],[91.702,25.9379],[91.7009,25.9419],[91.7082,25.9444],[91.7139,25.9472],[91.7202,25.9541],[91.7216,25.9651],[91.7198,25.9783],[91.7212,26.0018],[91.7228,26.0198],[91.7247,26.0273],[91.7232,26.0303],[91.7264,26.0469],[91.733,26.051],[91.7346,26.0566],[91.7313,26.0592],[91.7595,26.0713],[91.7785,26.0912],[91.7804,26.0883],[91.7846,26.0866],[91.7904,26.087],[91.8018,26.1049],[91.8081,26.1038],[91.8108,26.1052],[91.8156,26.1114],[91.8193,26.1187],[91.8266,26.1181],[91.8538,26.1048]]]}}]}