{"type":"FeatureCollection","name":"Mizoram","crs":{"type":"name","properties":{"name":"urn:ogc:def:crs:OGC:1.3:CRS84"}},"features":[{"type":"Feature","properties":{"ID_0":105,"ISO":"IND","NAME_0":"India","ID_1":24,"NAME_1":"Mizoram","TYPE_1":"State","ENGTYPE_1":"State","NL_NAME_1":null,"VARNAME_1":null},"geometry":{"type":"Polygon","coordinates":[[[92.8008,24.4191],[92.8037,24.4188],[92.8072,24.4199],[92.8095,24.4193],[92.8089,24.4169],[92.8094,24.4152],[92.8114,24.4154],[92.8111,24.4136],[92.8165,24.4123],[92.8183,24.4127],[92.8211,24.4068],[92.8248,24.4042],[92.8303,24.4018],[92.8314,24.4005],[92.8317,24.3993],[92.8266,24.3936],[92.825,24.3905],[92.8254,24.3884],[92.8283,24.3856],[92.8282,24.3793],[92.829,24.3778],[92.8327,24.3764],[92.8396,24.3808],[92.8443,24.3799],[92.8469,24.3823],[92.8491,24.3861],[92.8516,24.3924],[92.8545,24.394],[92.8591,24.3984],[92.8629,24.3995],[92.8718,24.3971],[92.8739,24.3973],[92.8782,24.3989],[92.8842,24.403],[92.888,24.4016],[92.8908,24.4023],[92.8917,24.4018],[92.8944,24.3953],[92.8964,24.3943],[92.901,24.3934],[92.9052,24.3945],[92.9059,24.3954],[92.9057,24.3991],[92.9093,24.4032],[92.9115,24.4129],[92.9234,24.4057],[92.9226,24.4042],[92.9237,24.4026],[92.9254,24.4022],[92.9277,24.3986],[92.9357,24.3955],[92.9377,24.3967],[92.9386,24.399],[92.9406,24.4011],[92.9442,24.4018],[92.9512,24.4048],[92.9539,24.4046],[92.9547,24.4039],[92.9581,24.3981],[92.9603,24.3959],[92.9708,24.4012],[92.9756,24.4078],[92.9803,24.4097],[92.9854,24.4076],[92.9883,24.4076],[92.9919,24.4055],[92.9953,24.402],[92.998,24.4016],[93.0005,24.4033],[93.0244,24.3905],[93.0171,24.38],[93.0221,24.3742],[93.0201,24.366],[93.0193,24.3588],[93.0216,24.3468],[93.0318,24.3445],[93.0434,24.3434],[93.0352,24.3184],[93.0239,24.3007],[93.0182,24.2932],[93.0111,24.2881],[93.0082,24.2805],[93.0139,24.2717],[93.0067,24.2628],[93.0067,24.254],[93.018,24.2364],[93.0266,24.2326],[93.0194,24.2288],[93.0194,24.2251],[93.0237,24.2176],[93.0223,24.2101],[93.018,24.2075],[93.0166,24.2],[93.0124,24.1975],[93.003,24.1975],[93.0031,24.1943],[93.0109,24.1822],[93.0033,24.174],[93.0055,24.1632],[93.0054,24.1606],[93.0007,24.1567],[92.9931,24.1532],[92.9911,24.1503],[92.9909,24.1469],[92.9929,24.1404],[92.9894,24.1318],[92.9861,24.1289],[92.9776,24.1264],[92.9736,24.1239],[92.9749,24.117],[92.9764,24.1148],[92.9848,24.1148],[92.9893,24.1163],[92.9964,24.1167],[93.0007,24.1152],[93.0097,24.11],[93.0141,24.1045],[93.0215,24.1015],[93.0273,24.1036],[93.0303,24.1008],[93.0347,24.0992],[93.0377,24.0952],[93.0537,24.0907],[93.0652,24.0943],[93.0738,24.1005],[93.0795,24.103],[93.0852,24.0904],[93.0895,24.0841],[93.0952,24.0803],[93.1023,24.074],[93.1009,24.0665],[93.1023,24.0627],[93.1009,24.0564],[93.1038,24.0526],[93.0995,24.0488],[93.1009,24.0451],[93.1066,24.0489],[93.1109,24.0501],[93.1123,24.0552],[93.1194,24.0565],[93.1208,24.0603],[93.1294,24.0641],[93.1351,24.0729],[93.1351,24.0792],[93.1422,24.0868],[93.1479,24.0881],[93.1585,24.0838],[93.1613,24.0776],[93.1699,24.0751],[93.1699,24.0713],[93.167,24.0612],[93.1698,24.055],[93.1755,24.0537],[93.1784,24.0541],[93.194,24.0563],[93.1983,24.0525],[93.2167,24.0501],[93.221,24.0614],[93.2224,24.0677],[93.2253,24.074],[93.2224,24.0815],[93.2238,24.084],[93.2267,24.0865],[93.2366,24.084],[93.2423,24.0866],[93.248,24.0853],[93.2637,24.0728],[93.2637,24.0678],[93.2666,24.0603],[93.2637,24.0577],[93.2623,24.0577],[93.2524,24.0338],[93.2567,24.0288],[93.2553,24.0238],[93.2739,24.0339],[93.2768,24.0402],[93.2854,24.0465],[93.2882,24.0515],[93.2982,24.0516],[93.3125,24.0541],[93.3374,24.0534],[93.3383,24.0502],[93.3422,24.0446],[93.336,24.0426],[93.3332,24.0398],[93.3376,24.0342],[93.3422,24.0307],[93.3381,24.0254],[93.3369,24.0238],[93.3375,24.0212],[93.3378,24.0199],[93.3403,24.0124],[93.3393,24.0029],[93.3393,24.0022],[93.339,23.9959],[93.3344,23.9869],[93.3374,23.9828],[93.3424,23.9823],[93.3474,23.9807],[93.3516,23.978],[93.3532,23.972],[93.3559,23.9613],[93.3599,23.9547],[93.3624,23.9508],[93.3649,23.946],[93.3678,23.9434],[93.371,23.9405],[93.3757,23.9378],[93.3812,23.9362],[93.391,23.934],[93.3987,23.9303],[93.3996,23.9244],[93.3992,23.919],[93.3976,23.9129],[93.3967,23.8987],[93.3956,23.8873],[93.3954,23.8767],[93.3964,23.8709],[93.3969,23.8638],[93.3966,23.8585],[93.3967,23.8507],[93.3971,23.8409],[93.4001,23.8353],[93.3992,23.8242],[93.4014,23.8194],[93.4069,23.8171],[93.4098,23.8136],[93.411,23.8077],[93.4101,23.7988],[93.4076,23.7902],[93.4044,23.7751],[93.4042,23.769],[93.4053,23.7616],[93.4071,23.7556],[93.4105,23.7486],[93.4144,23.7435],[93.4154,23.7384],[93.4177,23.7325],[93.4158,23.7269],[93.4149,23.7226],[93.4155,23.7181],[93.4169,23.7121],[93.4191,23.7084],[93.4233,23.704],[93.4296,23.7007],[93.4365,23.6962],[93.4387,23.6922],[93.4414,23.6883],[93.4447,23.6824],[93.4409,23.6782],[93.4391,23.6757],[93.4361,23.6718],[93.4334,23.6672],[93.4304,23.6602],[93.4283,23.6535],[93.4286,23.6452],[93.4287,23.6448],[93.4327,23.6188],[93.4334,23.5951],[93.4347,23.5888],[93.4331,23.5824],[93.4271,23.5717],[93.424,23.5694],[93.424,23.5616],[93.4272,23.553],[93.4281,23.5452],[93.4278,23.5382],[93.4276,23.5344],[93.4256,23.5312],[93.4219,23.5272],[93.4162,23.5205],[93.4112,23.5133],[93.4076,23.5085],[93.4073,23.502],[93.4081,23.4965],[93.4044,23.485],[93.4059,23.481],[93.4071,23.4753],[93.406,23.4673],[93.4014,23.457],[93.3998,23.4469],[93.3985,23.4429],[93.3972,23.4333],[93.3973,23.4262],[93.3968,23.4225],[93.3976,23.4155],[93.3983,23.4113],[93.4039,23.4017],[93.4058,23.3976],[93.4098,23.3919],[93.4142,23.388],[93.4046,23.3835],[93.4017,23.3795],[93.3964,23.374],[93.3965,23.3681],[93.3988,23.3643],[93.3898,23.3628],[93.3763,23.3626],[93.3716,23.3598],[93.3675,23.3581],[93.3658,23.3545],[93.3663,23.3535],[93.368,23.3499],[93.372,23.3442],[93.3753,23.341],[93.3778,23.3375],[93.3793,23.3327],[93.3775,23.3268],[93.3767,23.3195],[93.377,23.3128],[93.3776,23.3066],[93.3798,23.3012],[93.3812,23.2936],[93.3812,23.2899],[93.3783,23.2868],[93.3754,23.2826],[93.3751,23.2746],[93.3773,23.2642],[93.3784,23.2561],[93.3833,23.2448],[93.3884,23.235],[93.3947,23.2243],[93.3948,23.2196],[93.3874,23.2112],[93.3866,23.202],[93.3853,23.188],[93.3815,23.1749],[93.3806,23.1669],[93.3781,23.1635],[93.376,23.1589],[93.3739,23.1503],[93.3791,23.1436],[93.3829,23.1447],[93.3907,23.1479],[93.3945,23.1444],[93.3936,23.1386],[93.382,23.1275],[93.3761,23.124],[93.3723,23.1226],[93.3691,23.1206],[93.365,23.1167],[93.364,23.1127],[93.364,23.1062],[93.3635,23.1031],[93.3631,23.1001],[93.362,23.0954],[93.3574,23.091],[93.3525,23.0846],[93.3511,23.0803],[93.3582,23.0779],[93.3578,23.0754],[93.3574,23.0728],[93.353,23.0648],[93.3452,23.0648],[93.345,23.0645],[93.3406,23.0552],[93.3368,23.0436],[93.3326,23.0357],[93.3296,23.0316],[93.3241,23.0249],[93.3212,23.0219],[93.3155,23.0221],[93.315,23.0221],[93.3118,23.0187],[93.3062,23.0137],[93.302,23.0083],[93.2977,23.0058],[93.2959,23.0055],[93.2933,23.005],[93.2882,23.0046],[93.2786,23.0056],[93.2739,23.0103],[93.2681,23.0123],[93.2591,23.0087],[93.2532,23.0065],[93.2477,23.0096],[93.2412,23.0141],[93.2378,23.0176],[93.2341,23.0219],[93.2317,23.0271],[93.2282,23.0328],[93.2202,23.0452],[93.2141,23.0494],[93.2062,23.0569],[93.2012,23.0578],[93.1945,23.0603],[93.1909,23.0582],[93.1871,23.0572],[93.1869,23.0572],[93.183,23.058],[93.1768,23.0531],[93.1767,23.053],[93.1721,23.0508],[93.1678,23.049],[93.162,23.0519],[93.1556,23.0581],[93.1473,23.0617],[93.1419,23.0606],[93.1403,23.0565],[93.1385,23.0548],[93.1376,23.054],[93.1369,23.0534],[93.1329,23.0475],[93.1334,23.0464],[93.1351,23.0416],[93.1358,23.0352],[93.1344,23.0312],[93.1316,23.0259],[93.1341,23.0198],[93.1358,23.0129],[93.1302,23.0065],[93.1292,23.0008],[93.1334,22.9961],[93.1374,22.9942],[93.1426,22.9937],[93.145,22.9878],[93.1476,22.9806],[93.1481,22.9756],[93.1465,22.9708],[93.1427,22.9686],[93.1425,22.9644],[93.1462,22.9612],[93.1488,22.9565],[93.1516,22.95],[93.1526,22.9415],[93.1534,22.9306],[93.1572,22.9267],[93.1617,22.9245],[93.1661,22.9225],[93.1684,22.9191],[93.1665,22.9159],[93.1637,22.9141],[93.1628,22.9135],[93.1586,22.9136],[93.1523,22.9129],[93.146,22.9129],[93.1388,22.9132],[93.1352,22.9072],[93.1388,22.9002],[93.1383,22.8934],[93.1371,22.8896],[93.1356,22.8826],[93.1332,22.8752],[93.1302,22.8694],[93.1239,22.8659],[93.1217,22.8628],[93.1208,22.8548],[93.1215,22.8434],[93.1208,22.8373],[93.1166,22.8326],[93.1156,22.8315],[93.1112,22.8282],[93.1127,22.8222],[93.1154,22.8213],[93.1166,22.8209],[93.1162,22.8163],[93.1144,22.8154],[93.1093,22.8128],[93.1043,22.8118],[93.0993,22.8104],[93.1028,22.7921],[93.1037,22.7887],[93.104,22.7871],[93.108,22.7703],[93.1113,22.753],[93.1127,22.7442],[93.1092,22.7378],[93.1046,22.7317],[93.1019,22.7274],[93.1008,22.7196],[93.0991,22.7143],[93.0955,22.7111],[93.0918,22.7093],[93.0979,22.7013],[93.1042,22.6961],[93.1069,22.6863],[93.1067,22.6818],[93.1032,22.6787],[93.1035,22.6741],[93.1048,22.6702],[93.1074,22.6641],[93.1106,22.6591],[93.1145,22.6549],[93.1185,22.6515],[93.1148,22.6392],[93.1169,22.6351],[93.1243,22.6301],[93.1295,22.6292],[93.1364,22.6229],[93.1391,22.6182],[93.1429,22.6076],[93.1444,22.5989],[93.1456,22.5861],[93.1366,22.5818],[93.136,22.5815],[93.1337,22.5773],[93.1335,22.5772],[93.1292,22.5745],[93.1244,22.5671],[93.1216,22.56],[93.1178,22.5589],[93.1155,22.5547],[93.1156,22.5539],[93.1165,22.5458],[93.116,22.5405],[93.1144,22.5369],[93.1119,22.5322],[93.1117,22.5318],[93.1121,22.5316],[93.1199,22.5287],[93.1258,22.5285],[93.1309,22.5261],[93.1337,22.5199],[93.1306,22.514],[93.1289,22.5098],[93.1306,22.5059],[93.1327,22.5018],[93.1353,22.499],[93.1378,22.4951],[93.1383,22.4866],[93.1363,22.4796],[93.1345,22.4748],[93.1351,22.4739],[93.1382,22.4693],[93.1421,22.4633],[93.1458,22.4585],[93.1497,22.4559],[93.1567,22.4521],[93.1628,22.4538],[93.1754,22.4513],[93.1781,22.4466],[93.1822,22.4388],[93.1879,22.4337],[93.1908,22.4273],[93.189,22.4233],[93.1883,22.4189],[93.1889,22.4135],[93.1943,22.4089],[93.1955,22.4033],[93.1933,22.3991],[93.1915,22.3959],[93.1923,22.3908],[93.1964,22.3841],[93.1974,22.38],[93.1926,22.3708],[93.1945,22.3634],[93.1971,22.3586],[93.2,22.3436],[93.1995,22.3372],[93.2027,22.3337],[93.2066,22.3295],[93.2029,22.3273],[93.1963,22.3246],[93.1984,22.3201],[93.1995,22.3178],[93.2006,22.3132],[93.2013,22.3061],[93.2017,22.2999],[93.2011,22.292],[93.2016,22.2865],[93.2019,22.2809],[93.204,22.2757],[93.2073,22.2697],[93.2093,22.2662],[93.2086,22.2611],[93.1964,22.2556],[93.1904,22.2497],[93.1837,22.2491],[93.1709,22.2497],[93.166,22.2489],[93.1603,22.2471],[93.1572,22.2474],[93.1546,22.2477],[93.1515,22.2481],[93.1471,22.2465],[93.1464,22.2411],[93.1519,22.2347],[93.1565,22.2287],[93.1576,22.2231],[93.1563,22.2174],[93.1586,22.2112],[93.1591,22.2098],[93.1659,22.2052],[93.1698,22.2001],[93.1668,22.1943],[93.1664,22.1936],[93.1654,22.1903],[93.163,22.1823],[93.1544,22.1782],[93.1484,22.1768],[93.1429,22.1768],[93.1387,22.1767],[93.1307,22.1791],[93.1275,22.1824],[93.1228,22.189],[93.1199,22.1985],[93.1172,22.2013],[93.1124,22.2008],[93.1115,22.2007],[93.1022,22.1988],[93.0973,22.1993],[93.0888,22.2026],[93.0877,22.2036],[93.0859,22.2051],[93.0815,22.2084],[93.077,22.2101],[93.0725,22.2085],[93.0715,22.2082],[93.0676,22.2064],[93.0598,22.204],[93.0539,22.2032],[93.0491,22.1995],[93.0483,22.1989],[93.0467,22.1976],[93.0461,22.1966],[93.0457,22.1958],[93.0445,22.1937],[93.0465,22.19],[93.0537,22.1758],[93.0549,22.1654],[93.052,22.1567],[93.0508,22.1501],[93.048,22.1458],[93.047,22.1391],[93.0469,22.1387],[93.0541,22.1317],[93.0592,22.1275],[93.0626,22.1209],[93.0665,22.1133],[93.0656,22.1021],[93.0598,22.0998],[93.0521,22.0992],[93.0463,22.1013],[93.0392,22.1049],[93.0365,22.1049],[93.0322,22.1049],[93.023,22.1056],[93.016,22.1055],[93.0133,22.1022],[93.0133,22.0981],[93.0156,22.0931],[93.0145,22.0852],[93.0118,22.0793],[93.0081,22.0699],[93.0038,22.0611],[93.0008,22.0556],[93,22.0504],[92.9999,22.0395],[93.0007,22.0363],[93.0016,22.0321],[93.0067,22.023],[93.0085,22.0199],[93.0104,22.0112],[93.0096,22.0027],[93.0101,21.9958],[93.0099,21.9917],[93.0092,21.9839],[93.0066,21.9799],[92.999,21.9779],[92.9924,21.9808],[92.988,21.9829],[92.9874,21.985],[92.9858,21.9901],[92.9818,22.0019],[92.9795,22.0064],[92.9731,22.01],[92.9695,22.0141],[92.9669,22.0203],[92.9666,22.0271],[92.9609,22.0302],[92.9558,22.0299],[92.9528,22.0274],[92.9511,22.0259],[92.9484,22.0229],[92.9421,22.0183],[92.9402,22.0188],[92.9346,22.02],[92.9316,22.0175],[92.934,22.0148],[92.9357,22.0127],[92.9391,22.0086],[92.9322,22.0019],[92.9277,21.9959],[92.9248,21.9871],[92.9223,21.9808],[92.9194,21.9738],[92.9158,21.965],[92.9145,21.9566],[92.9161,21.9494],[92.9109,21.9462],[92.908,21.9505],[92.9058,21.9536],[92.9047,21.9808],[92.9013,21.9904],[92.8964,22.0039],[92.8943,22.012],[92.8894,22.0182],[92.8857,22.0215],[92.8795,22.0259],[92.8747,22.0301],[92.8725,22.0365],[92.8713,22.0466],[92.8701,22.0542],[92.8702,22.0608],[92.8677,22.0654],[92.8633,22.0676],[92.857,22.0656],[92.8546,22.0649],[92.849,22.0624],[92.8446,22.0634],[92.8446,22.0681],[92.8414,22.072],[92.8365,22.0764],[92.8325,22.0764],[92.8256,22.0797],[92.8203,22.0903],[92.8171,22.0956],[92.8104,22.0976],[92.8033,22.1023],[92.7952,22.1062],[92.7888,22.1089],[92.7831,22.1086],[92.7774,22.1098],[92.7768,22.11],[92.7737,22.111],[92.7731,22.1118],[92.7693,22.1158],[92.7701,22.1231],[92.7657,22.1263],[92.7513,22.1327],[92.7431,22.1359],[92.7378,22.139],[92.7328,22.1496],[92.7179,22.1526],[92.708,22.1535],[92.7034,22.1538],[92.7003,22.1496],[92.6994,22.1483],[92.7006,22.1384],[92.6997,22.1224],[92.699,22.1182],[92.6971,22.0993],[92.6975,22.0862],[92.697,22.0809],[92.6936,22.0772],[92.6913,22.0811],[92.6906,22.0948],[92.6896,22.1071],[92.6864,22.1094],[92.6838,22.1053],[92.6845,22.0921],[92.6853,22.0856],[92.6855,22.0817],[92.6858,22.0765],[92.6869,22.0699],[92.6873,22.0631],[92.6863,22.0586],[92.6867,22.05],[92.69,22.041],[92.6895,22.0357],[92.6879,22.0324],[92.6882,22.0307],[92.6884,22.0286],[92.6873,22.0239],[92.6844,22.0179],[92.6808,22.0142],[92.6768,22.0141],[92.6715,22.0147],[92.6632,22.0155],[92.6592,22.0147],[92.6493,22.0034],[92.6447,21.9982],[92.641,21.9922],[92.6379,21.9887],[92.6301,21.985],[92.629,21.9846],[92.6181,21.9814],[92.6123,21.9803],[92.6119,21.9818],[92.6118,21.9817],[92.6097,21.9768],[92.6093,21.9792],[92.6092,21.9827],[92.6088,21.9838],[92.6087,21.9861],[92.6081,21.9874],[92.6089,21.9928],[92.6115,21.9958],[92.6115,22.0002],[92.6104,22.0034],[92.6102,22.004],[92.6088,22.0061],[92.6082,22.0068],[92.6072,22.0079],[92.6065,22.0093],[92.6051,22.0101],[92.6042,22.0151],[92.6042,22.0202],[92.6042,22.0205],[92.6043,22.0253],[92.6049,22.0309],[92.604,22.0319],[92.6031,22.032],[92.6013,22.0344],[92.599,22.0378],[92.6,22.0404],[92.6006,22.0438],[92.6015,22.0454],[92.6023,22.0469],[92.6047,22.0499],[92.6052,22.0518],[92.605,22.0576],[92.6048,22.0578],[92.6037,22.0584],[92.6033,22.059],[92.6024,22.0594],[92.6012,22.0605],[92.6007,22.062],[92.5992,22.0645],[92.5995,22.0662],[92.5999,22.0687],[92.6,22.0695],[92.5997,22.0706],[92.5978,22.0741],[92.5973,22.0748],[92.5958,22.0774],[92.595,22.0781],[92.5933,22.0822],[92.5917,22.0865],[92.5914,22.0875],[92.5908,22.0892],[92.5887,22.0942],[92.5876,22.0969],[92.5866,22.0995],[92.5844,22.1055],[92.5841,22.1062],[92.5827,22.1086],[92.5806,22.1118],[92.5802,22.1123],[92.5783,22.1148],[92.5753,22.1183],[92.5737,22.1216],[92.5719,22.1248],[92.5716,22.1259],[92.5713,22.1268],[92.5704,22.1291],[92.5712,22.1323],[92.5754,22.1337],[92.5802,22.134],[92.5853,22.1348],[92.5876,22.1397],[92.5916,22.1382],[92.5965,22.1366],[92.5965,22.1365],[92.598,22.1347],[92.6018,22.1299],[92.6047,22.1263],[92.6049,22.126],[92.61,22.1213],[92.6122,22.1331],[92.6137,22.1421],[92.6148,22.1469],[92.6145,22.1477],[92.6138,22.15],[92.6137,22.1507],[92.6141,22.1551],[92.6135,22.1606],[92.6139,22.1729],[92.6116,22.1761],[92.6091,22.1765],[92.6071,22.1779],[92.6064,22.1784],[92.6048,22.1825],[92.6046,22.1867],[92.6036,22.1896],[92.6031,22.1946],[92.6025,22.2],[92.6014,22.2029],[92.6013,22.2051],[92.6004,22.2094],[92.6007,22.2149],[92.5995,22.2222],[92.5986,22.2271],[92.5977,22.2321],[92.5983,22.2385],[92.5979,22.2483],[92.5977,22.2572],[92.597,22.2592],[92.595,22.265],[92.5928,22.2713],[92.5904,22.2768],[92.5889,22.2824],[92.5885,22.2846],[92.5862,22.2894],[92.5856,22.2949],[92.5857,22.3037],[92.5874,22.3175],[92.5875,22.321],[92.587,22.3225],[92.5854,22.3283],[92.5845,22.331],[92.5841,22.3324],[92.5824,22.3374],[92.5811,22.3409],[92.5795,22.3471],[92.5781,22.3527],[92.5779,22.3534],[92.5779,22.3543],[92.5774,22.3566],[92.5771,22.3602],[92.5763,22.3631],[92.5747,22.3671],[92.5732,22.3709],[92.5703,22.3771],[92.5693,22.381],[92.5681,22.3835],[92.5674,22.3861],[92.5669,22.3877],[92.5656,22.3919],[92.566,22.3936],[92.5654,22.3971],[92.5645,22.403],[92.5647,22.4057],[92.5641,22.4141],[92.5641,22.4149],[92.5621,22.4261],[92.562,22.4268],[92.5618,22.4276],[92.5595,22.4379],[92.559,22.4426],[92.5583,22.4483],[92.5582,22.4514],[92.5581,22.4522],[92.5576,22.4627],[92.5575,22.4635],[92.5559,22.4691],[92.5532,22.4811],[92.5515,22.4922],[92.5506,22.5025],[92.5505,22.5037],[92.5502,22.5062],[92.55,22.5082],[92.5499,22.5098],[92.5505,22.511],[92.5512,22.5148],[92.5518,22.5162],[92.5517,22.5174],[92.5527,22.5189],[92.5528,22.5205],[92.5521,22.521],[92.5497,22.5225],[92.5492,22.5224],[92.5487,22.5224],[92.5477,22.5244],[92.5471,22.5257],[92.5476,22.5279],[92.5469,22.5307],[92.5456,22.5329],[92.5451,22.536],[92.545,22.537],[92.5449,22.5382],[92.5441,22.5419],[92.5434,22.5467],[92.543,22.5498],[92.5416,22.5541],[92.5399,22.5545],[92.5393,22.5547],[92.538,22.5539],[92.5371,22.5554],[92.5375,22.5581],[92.5376,22.5589],[92.5368,22.5607],[92.5356,22.5614],[92.535,22.5619],[92.5341,22.5619],[92.5327,22.5617],[92.5314,22.5623],[92.5319,22.5638],[92.532,22.564],[92.5331,22.5661],[92.5338,22.5698],[92.5335,22.571],[92.5337,22.575],[92.5345,22.5754],[92.5351,22.5752],[92.5358,22.5757],[92.5369,22.5752],[92.5387,22.5755],[92.5397,22.5765],[92.5403,22.5783],[92.5405,22.5788],[92.5402,22.5814],[92.54,22.5839],[92.5399,22.5854],[92.5401,22.5884],[92.54,22.5923],[92.5399,22.6002],[92.5398,22.6041],[92.5382,22.6083],[92.5372,22.6141],[92.536,22.6177],[92.5363,22.6224],[92.5362,22.6269],[92.5354,22.6301],[92.5353,22.6304],[92.534,22.6357],[92.534,22.638],[92.534,22.6428],[92.5326,22.6511],[92.5317,22.6561],[92.5291,22.6635],[92.5284,22.6649],[92.5278,22.666],[92.5274,22.6691],[92.527,22.6751],[92.527,22.6762],[92.5263,22.6777],[92.5239,22.6835],[92.5216,22.6878],[92.5204,22.6953],[92.5192,22.7009],[92.5176,22.7077],[92.5151,22.7144],[92.5134,22.7193],[92.5105,22.7249],[92.5072,22.7324],[92.5043,22.7355],[92.5042,22.7357],[92.5059,22.7358],[92.5114,22.7366],[92.5101,22.7382],[92.5057,22.7394],[92.5031,22.7411],[92.5052,22.7436],[92.5055,22.744],[92.5044,22.7442],[92.4886,22.7474],[92.4883,22.7477],[92.4846,22.7502],[92.4872,22.7518],[92.4914,22.752],[92.4921,22.7539],[92.4914,22.7547],[92.4882,22.7571],[92.4874,22.7597],[92.4813,22.7625],[92.4846,22.7645],[92.4838,22.7653],[92.4837,22.766],[92.4831,22.7669],[92.4832,22.7708],[92.4865,22.7728],[92.4828,22.7769],[92.4827,22.7788],[92.4825,22.7817],[92.4777,22.7843],[92.4771,22.7866],[92.4765,22.7876],[92.4764,22.7891],[92.476,22.7907],[92.4766,22.7935],[92.478,22.7962],[92.4778,22.7983],[92.4728,22.8008],[92.4712,22.8028],[92.4701,22.8042],[92.4688,22.8071],[92.4696,22.8103],[92.4665,22.8105],[92.4626,22.8141],[92.4626,22.8142],[92.4617,22.816],[92.4612,22.8169],[92.4606,22.8184],[92.4607,22.8201],[92.4588,22.8209],[92.4577,22.8211],[92.4575,22.823],[92.4592,22.8236],[92.4584,22.8264],[92.4592,22.8274],[92.4592,22.828],[92.46,22.8291],[92.4617,22.8298],[92.4629,22.8306],[92.4644,22.8319],[92.4648,22.8328],[92.464,22.8344],[92.4631,22.8365],[92.4594,22.8401],[92.4575,22.8417],[92.4613,22.8434],[92.4632,22.8425],[92.4645,22.8432],[92.4629,22.8451],[92.4611,22.847],[92.4617,22.8487],[92.46,22.8522],[92.4595,22.8527],[92.4592,22.8538],[92.461,22.8533],[92.4619,22.8534],[92.4631,22.8532],[92.4634,22.8531],[92.4639,22.853],[92.4647,22.8538],[92.4644,22.856],[92.4628,22.8578],[92.4622,22.8584],[92.4622,22.8586],[92.4621,22.8604],[92.4609,22.8615],[92.459,22.862],[92.4581,22.8621],[92.4562,22.8625],[92.4545,22.8635],[92.4535,22.8656],[92.4546,22.8674],[92.4554,22.869],[92.4575,22.8705],[92.4583,22.872],[92.4561,22.8739],[92.4537,22.8754],[92.4524,22.8759],[92.4511,22.8769],[92.4506,22.8775],[92.4501,22.8791],[92.4501,22.8814],[92.4502,22.8842],[92.4502,22.8854],[92.4484,22.8867],[92.4479,22.8906],[92.4475,22.8936],[92.4455,22.8949],[92.4452,22.8951],[92.4451,22.895],[92.4432,22.8931],[92.4419,22.8916],[92.4417,22.8912],[92.4411,22.8903],[92.4408,22.8896],[92.4404,22.8886],[92.4394,22.8869],[92.4383,22.8867],[92.4378,22.8866],[92.4377,22.8867],[92.4369,22.8868],[92.4363,22.8855],[92.4329,22.8869],[92.4307,22.8897],[92.4309,22.8938],[92.4313,22.8953],[92.4299,22.8967],[92.4292,22.8988],[92.4281,22.9018],[92.4252,22.9049],[92.4242,22.9061],[92.423,22.9061],[92.4207,22.9089],[92.4188,22.913],[92.4204,22.9172],[92.4211,22.9187],[92.4212,22.9191],[92.4214,22.9201],[92.4186,22.9203],[92.418,22.9195],[92.4171,22.9184],[92.4167,22.9168],[92.416,22.9158],[92.4154,22.9155],[92.4134,22.9161],[92.4127,22.9161],[92.4114,22.9167],[92.411,22.9169],[92.41,22.9172],[92.4088,22.9163],[92.4072,22.9161],[92.4056,22.9161],[92.4044,22.9165],[92.404,22.917],[92.4039,22.9172],[92.402,22.9199],[92.4015,22.9217],[92.4009,22.9255],[92.4001,22.9275],[92.399,22.9293],[92.3976,22.9309],[92.3975,22.9309],[92.3966,22.9316],[92.3951,22.9319],[92.3937,22.9316],[92.3921,22.9311],[92.391,22.9307],[92.3908,22.9307],[92.3905,22.9307],[92.3892,22.9306],[92.3869,22.9306],[92.3855,22.9304],[92.3849,22.9303],[92.3847,22.9303],[92.3829,22.9301],[92.381,22.9303],[92.3788,22.9309],[92.3773,22.9317],[92.3758,22.9338],[92.3754,22.9349],[92.3753,22.9373],[92.3758,22.9399],[92.3765,22.9421],[92.3773,22.9446],[92.3779,22.9465],[92.3787,22.9485],[92.3797,22.9513],[92.38,22.9527],[92.3803,22.9555],[92.3799,22.9582],[92.3792,22.9598],[92.3787,22.9608],[92.3782,22.9623],[92.3778,22.9648],[92.378,22.9677],[92.3788,22.9714],[92.3794,22.9757],[92.3797,22.977],[92.3803,22.9807],[92.3805,22.9819],[92.3835,22.9855],[92.3855,22.9869],[92.383,22.991],[92.3837,22.9916],[92.3856,22.9935],[92.3848,22.9983],[92.3858,23.0017],[92.3838,23.0065],[92.3831,23.0078],[92.3818,23.01],[92.3826,23.0134],[92.384,23.0179],[92.3858,23.0221],[92.3866,23.028],[92.386,23.0346],[92.3856,23.0373],[92.3855,23.038],[92.3905,23.0418],[92.3906,23.0423],[92.3926,23.047],[92.3931,23.0491],[92.3932,23.0499],[92.3936,23.0525],[92.3937,23.0582],[92.3923,23.0614],[92.3916,23.0625],[92.3911,23.0642],[92.3908,23.0649],[92.3884,23.0701],[92.3885,23.0762],[92.3871,23.0802],[92.386,23.0816],[92.3859,23.0837],[92.3839,23.0874],[92.3824,23.0857],[92.3803,23.0868],[92.379,23.0879],[92.378,23.0888],[92.3775,23.0893],[92.3773,23.0904],[92.3764,23.0917],[92.3745,23.0954],[92.374,23.0964],[92.373,23.0974],[92.3708,23.0977],[92.369,23.0985],[92.3688,23.1009],[92.3674,23.103],[92.3663,23.1046],[92.3662,23.1054],[92.3658,23.1059],[92.3654,23.1103],[92.3679,23.1133],[92.3684,23.1148],[92.3689,23.1175],[92.3703,23.12],[92.3714,23.1224],[92.3725,23.1246],[92.3734,23.1279],[92.3726,23.1295],[92.3718,23.13],[92.3706,23.1313],[92.3688,23.1323],[92.3673,23.1322],[92.3662,23.1348],[92.3651,23.1366],[92.3647,23.1374],[92.3652,23.1388],[92.3663,23.1425],[92.3683,23.1453],[92.3687,23.146],[92.3682,23.148],[92.368,23.1495],[92.3682,23.1524],[92.3689,23.1534],[92.3693,23.1539],[92.3696,23.1555],[92.3716,23.1598],[92.3714,23.1611],[92.3703,23.1627],[92.3698,23.1664],[92.3678,23.1713],[92.3663,23.174],[92.3661,23.176],[92.366,23.1764],[92.3656,23.1775],[92.3654,23.1815],[92.3662,23.1835],[92.3664,23.1835],[92.3696,23.1839],[92.3687,23.1863],[92.3666,23.1875],[92.3651,23.1879],[92.363,23.1892],[92.3626,23.1907],[92.3622,23.192],[92.362,23.1947],[92.3616,23.1971],[92.363,23.1992],[92.3641,23.2015],[92.3641,23.2038],[92.364,23.2052],[92.3645,23.2088],[92.3645,23.2115],[92.3639,23.2139],[92.3643,23.2167],[92.3642,23.2179],[92.364,23.2202],[92.3637,23.2223],[92.363,23.2254],[92.3622,23.2274],[92.3621,23.2293],[92.3618,23.2305],[92.3611,23.2375],[92.3625,23.2385],[92.3644,23.2384],[92.368,23.2385],[92.3693,23.2389],[92.3726,23.2396],[92.3732,23.2397],[92.3763,23.2397],[92.3782,23.24],[92.3834,23.2399],[92.3848,23.2399],[92.3862,23.24],[92.3868,23.2401],[92.3893,23.2401],[92.3903,23.2404],[92.3915,23.2405],[92.3926,23.2406],[92.3976,23.2406],[92.3984,23.2407],[92.3993,23.2408],[92.4002,23.2409],[92.4068,23.242],[92.4086,23.2422],[92.4086,23.2461],[92.4077,23.248],[92.4065,23.25],[92.4062,23.2518],[92.4058,23.2528],[92.4055,23.2558],[92.4036,23.2584],[92.4019,23.2589],[92.4003,23.2602],[92.3992,23.2614],[92.3988,23.2621],[92.398,23.2635],[92.3971,23.265],[92.3965,23.2663],[92.3962,23.2672],[92.3961,23.2674],[92.3969,23.2684],[92.397,23.2685],[92.3972,23.2688],[92.3979,23.2683],[92.3993,23.2673],[92.4006,23.2663],[92.4006,23.2673],[92.4005,23.2687],[92.4004,23.2694],[92.3994,23.2717],[92.3977,23.2759],[92.3945,23.2821],[92.3932,23.2833],[92.3909,23.2852],[92.389,23.2888],[92.39,23.2904],[92.3898,23.2945],[92.3897,23.2973],[92.3895,23.2983],[92.3889,23.3035],[92.3877,23.3086],[92.3871,23.3095],[92.3858,23.3113],[92.3842,23.3135],[92.3829,23.3181],[92.3824,23.3194],[92.3812,23.3207],[92.3802,23.3207],[92.3789,23.3212],[92.3767,23.3212],[92.3762,23.3196],[92.3756,23.319],[92.3753,23.3182],[92.3739,23.3206],[92.3735,23.3213],[92.3729,23.3229],[92.3729,23.3236],[92.3722,23.3268],[92.3752,23.3282],[92.3772,23.3315],[92.3794,23.3352],[92.3795,23.3357],[92.3811,23.3413],[92.3817,23.3468],[92.3821,23.3474],[92.3835,23.3502],[92.3837,23.3536],[92.3815,23.3565],[92.3816,23.3591],[92.3804,23.3625],[92.3798,23.3632],[92.3783,23.3642],[92.3772,23.3648],[92.3758,23.3653],[92.3751,23.3703],[92.3744,23.371],[92.3736,23.3705],[92.3723,23.3686],[92.3705,23.3673],[92.3694,23.3671],[92.3677,23.3669],[92.3664,23.3674],[92.3654,23.3679],[92.3642,23.3695],[92.3636,23.3714],[92.3635,23.3736],[92.3642,23.375],[92.3666,23.3771],[92.3673,23.3777],[92.3687,23.3784],[92.3691,23.3789],[92.3687,23.3804],[92.3683,23.3805],[92.3664,23.3813],[92.3644,23.3812],[92.3627,23.3809],[92.3616,23.3809],[92.3606,23.3811],[92.3598,23.3813],[92.3596,23.3824],[92.3595,23.3853],[92.3621,23.3865],[92.3624,23.3871],[92.3634,23.3891],[92.3632,23.391],[92.3622,23.3911],[92.3611,23.3911],[92.3604,23.3913],[92.3594,23.392],[92.3586,23.3947],[92.3587,23.3981],[92.3604,23.4021],[92.3623,23.4038],[92.3622,23.4074],[92.3618,23.4091],[92.3611,23.41],[92.3585,23.412],[92.3557,23.4131],[92.354,23.4136],[92.3535,23.4144],[92.3525,23.4148],[92.3533,23.4169],[92.3539,23.419],[92.3541,23.4195],[92.3539,23.4226],[92.3534,23.4243],[92.3529,23.4294],[92.3524,23.4313],[92.3515,23.4326],[92.3502,23.4343],[92.3496,23.4347],[92.3493,23.4349],[92.3473,23.4356],[92.3471,23.4356],[92.3469,23.4354],[92.3461,23.4343],[92.3452,23.4336],[92.3426,23.4324],[92.3425,23.431],[92.3422,23.4301],[92.3408,23.4312],[92.3405,23.4324],[92.34,23.4343],[92.3386,23.4365],[92.3376,23.4414],[92.3372,23.4457],[92.3358,23.4494],[92.3366,23.4526],[92.3385,23.4539],[92.339,23.455],[92.3391,23.456],[92.3365,23.456],[92.3346,23.4558],[92.3336,23.4575],[92.3329,23.4584],[92.3323,23.4613],[92.3331,23.461],[92.3349,23.461],[92.3366,23.46],[92.3378,23.462],[92.3381,23.4645],[92.3355,23.4675],[92.3324,23.4683],[92.3311,23.4691],[92.3305,23.4694],[92.329,23.4701],[92.3271,23.4707],[92.3246,23.4727],[92.3241,23.4731],[92.3232,23.4738],[92.3245,23.4762],[92.3261,23.4764],[92.3284,23.4767],[92.329,23.4768],[92.3311,23.4771],[92.3326,23.4787],[92.3312,23.481],[92.3301,23.4816],[92.3299,23.4818],[92.3283,23.4826],[92.3256,23.4859],[92.3234,23.4902],[92.3248,23.4905],[92.3253,23.4906],[92.3258,23.4907],[92.3263,23.4909],[92.3275,23.4919],[92.3265,23.4937],[92.3255,23.4945],[92.3245,23.4951],[92.3245,23.4959],[92.3254,23.4963],[92.3258,23.4965],[92.3268,23.4969],[92.3269,23.4988],[92.3266,23.5006],[92.3262,23.5014],[92.3262,23.5022],[92.3265,23.5063],[92.3263,23.5083],[92.3249,23.5101],[92.3246,23.5105],[92.3234,23.5113],[92.323,23.5139],[92.3222,23.5167],[92.3218,23.5189],[92.3215,23.5196],[92.3212,23.522],[92.3232,23.5247],[92.3191,23.5287],[92.3172,23.5307],[92.3162,23.5308],[92.3147,23.5312],[92.3134,23.533],[92.3128,23.5338],[92.3138,23.5376],[92.3139,23.5379],[92.3142,23.54],[92.3157,23.5426],[92.3161,23.5454],[92.3161,23.5461],[92.3151,23.5487],[92.317,23.5511],[92.318,23.5546],[92.3154,23.5602],[92.3135,23.5626],[92.3135,23.5633],[92.3136,23.5655],[92.3137,23.5666],[92.3123,23.5695],[92.3115,23.5706],[92.312,23.5755],[92.3115,23.5791],[92.3098,23.5829],[92.3092,23.5836],[92.3089,23.5846],[92.3077,23.5867],[92.3059,23.5913],[92.3049,23.5911],[92.3031,23.5895],[92.3022,23.5887],[92.3018,23.5881],[92.3013,23.5887],[92.2994,23.5903],[92.2991,23.5911],[92.297,23.5933],[92.2936,23.596],[92.2929,23.6013],[92.2933,23.6054],[92.2932,23.6076],[92.2933,23.6148],[92.2933,23.6155],[92.2942,23.6182],[92.2946,23.6195],[92.2977,23.6216],[92.3006,23.6221],[92.3002,23.6253],[92.2976,23.6271],[92.2961,23.6282],[92.2929,23.6298],[92.2922,23.6297],[92.2913,23.6292],[92.2901,23.6289],[92.2885,23.6272],[92.2866,23.6278],[92.2858,23.6277],[92.2848,23.6278],[92.2838,23.6281],[92.2836,23.629],[92.2814,23.6301],[92.2825,23.6334],[92.2851,23.636],[92.2853,23.6362],[92.2862,23.6365],[92.2837,23.6379],[92.2813,23.639],[92.2808,23.6393],[92.2805,23.6394],[92.28,23.6438],[92.2804,23.6445],[92.2823,23.6473],[92.2852,23.6513],[92.2861,23.6537],[92.288,23.6572],[92.2925,23.6701],[92.2941,23.6726],[92.2953,23.6755],[92.296,23.6789],[92.2959,23.6823],[92.2959,23.6847],[92.2959,23.6869],[92.2952,23.6927],[92.2949,23.6942],[92.2942,23.6961],[92.2931,23.6987],[92.2916,23.7009],[92.2907,23.7031],[92.2898,23.7041],[92.2888,23.7053],[92.2856,23.7068],[92.283,23.7084],[92.2804,23.7144],[92.2767,23.7211],[92.2763,23.7219],[92.2692,23.7281],[92.2685,23.7286],[92.2663,23.7387],[92.2683,23.7564],[92.2671,23.7619],[92.268,23.7665],[92.2678,23.77],[92.2637,23.7917],[92.2635,23.7997],[92.2623,23.8049],[92.2607,23.8071],[92.2594,23.815],[92.2695,23.8178],[92.2767,23.8152],[92.2791,23.8167],[92.2808,23.8151],[92.2837,23.8163],[92.2858,23.8157],[92.2868,23.8168],[92.2857,23.8226],[92.2834,23.8234],[92.2836,23.8242],[92.2816,23.8262],[92.2821,23.8309],[92.2771,23.8366],[92.2759,23.8399],[92.2739,23.8417],[92.2741,23.8436],[92.2747,23.8491],[92.2766,23.8529],[92.2852,23.8573],[92.2878,23.863],[92.2878,23.867],[92.292,23.8714],[92.2939,23.8713],[92.2951,23.8701],[92.2951,23.8655],[92.3006,23.8664],[92.3042,23.8638],[92.3073,23.8639],[92.3099,23.8626],[92.3155,23.8635],[92.3196,23.8652],[92.3202,23.8658],[92.3182,23.8671],[92.3185,23.868],[92.322,23.8698],[92.3221,23.8738],[92.3204,23.878],[92.319,23.8777],[92.3171,23.8792],[92.3175,23.8814],[92.3166,23.8817],[92.3163,23.8833],[92.3171,23.8841],[92.3193,23.8837],[92.3195,23.8861],[92.3183,23.888],[92.319,23.8892],[92.3185,23.8905],[92.3192,23.8907],[92.3199,23.8899],[92.3207,23.8912],[92.3216,23.8914],[92.323,23.9042],[92.3236,23.9047],[92.3258,23.9044],[92.3277,23.9063],[92.3299,23.9055],[92.3305,23.9076],[92.3311,23.9118],[92.3294,23.9189],[92.3307,23.9214],[92.3297,23.9231],[92.3279,23.924],[92.3212,23.9261],[92.3181,23.9304],[92.3134,23.9345],[92.3127,23.9412],[92.3134,23.9433],[92.3112,23.9456],[92.3126,23.9575],[92.3114,23.9606],[92.3133,23.961],[92.3126,23.9702],[92.3152,23.971],[92.315,23.9722],[92.3177,23.9721],[92.3196,23.9753],[92.3221,23.9753],[92.3227,23.9798],[92.3241,23.9795],[92.3255,23.9833],[92.3278,23.9847],[92.3277,23.9857],[92.3258,23.9875],[92.3291,23.9897],[92.3272,24.0019],[92.3275,24.0042],[92.3246,24.0065],[92.3172,24.0176],[92.3175,24.0189],[92.3189,24.0192],[92.3209,24.0179],[92.3217,24.0188],[92.3183,24.0226],[92.3191,24.0255],[92.3167,24.028],[92.3193,24.0302],[92.3193,24.0313],[92.3141,24.0347],[92.3172,24.0375],[92.3175,24.0395],[92.3154,24.0449],[92.3153,24.0487],[92.3168,24.0514],[92.319,24.0501],[92.3203,24.0512],[92.3186,24.0573],[92.3217,24.0587],[92.3191,24.0613],[92.3168,24.0668],[92.3182,24.0691],[92.3192,24.0695],[92.3213,24.0684],[92.3233,24.0696],[92.3229,24.0718],[92.3236,24.0733],[92.3273,24.0745],[92.327,24.0764],[92.3229,24.077],[92.3228,24.0775],[92.3281,24.0806],[92.3291,24.0822],[92.3281,24.085],[92.3288,24.0891],[92.3279,24.0938],[92.3302,24.096],[92.3316,24.0988],[92.3283,24.0986],[92.3297,24.1012],[92.3294,24.1029],[92.3323,24.1053],[92.3324,24.1068],[92.3293,24.1103],[92.3319,24.1118],[92.3317,24.1131],[92.3286,24.1159],[92.3282,24.1246],[92.331,24.128],[92.3288,24.1297],[92.3292,24.1316],[92.3282,24.1352],[92.3282,24.1386],[92.3292,24.1399],[92.3323,24.1405],[92.3323,24.144],[92.3335,24.1443],[92.3353,24.1436],[92.3363,24.1444],[92.3368,24.1468],[92.3344,24.1508],[92.3318,24.1636],[92.3295,24.1645],[92.3286,24.1661],[92.3299,24.1747],[92.33,24.18],[92.3308,24.1821],[92.3304,24.1848],[92.327,24.1861],[92.3296,24.1882],[92.3288,24.1891],[92.3295,24.1912],[92.3248,24.1948],[92.3247,24.1963],[92.3256,24.1975],[92.3251,24.199],[92.3202,24.2026],[92.3202,24.2043],[92.3248,24.2047],[92.3246,24.2058],[92.319,24.209],[92.3161,24.2132],[92.3127,24.211],[92.3097,24.2148],[92.3097,24.2161],[92.3136,24.2211],[92.3138,24.2229],[92.3034,24.2216],[92.3009,24.222],[92.3012,24.2245],[92.3019,24.2251],[92.2976,24.2272],[92.2992,24.2294],[92.2995,24.2316],[92.2963,24.2338],[92.2963,24.2361],[92.2968,24.2381],[92.2949,24.2407],[92.2941,24.2443],[92.2953,24.248],[92.2971,24.2495],[92.2966,24.2517],[92.3035,24.2527],[92.3105,24.2513],[92.3141,24.2526],[92.3765,24.2513],[92.3957,24.2525],[92.4068,24.2519],[92.4165,24.2534],[92.4224,24.2531],[92.4225,24.2482],[92.4201,24.2352],[92.4185,24.2216],[92.4202,24.2179],[92.4182,24.2109],[92.4197,24.2025],[92.419,24.1944],[92.4221,24.1885],[92.4332,24.1833],[92.4342,24.1814],[92.4345,24.1741],[92.4378,24.1705],[92.4381,24.1691],[92.4352,24.1626],[92.4366,24.1524],[92.4374,24.1514],[92.4388,24.1513],[92.4418,24.1529],[92.4439,24.1531],[92.4506,24.1437],[92.4572,24.1435],[92.4631,24.1364],[92.4648,24.1366],[92.466,24.1348],[92.4668,24.135],[92.4686,24.138],[92.4734,24.14],[92.4733,24.142],[92.4748,24.1429],[92.4796,24.1409],[92.4809,24.1413],[92.4815,24.1429],[92.4788,24.1487],[92.4806,24.1501],[92.4807,24.1523],[92.4829,24.1527],[92.4836,24.1539],[92.4812,24.1571],[92.4826,24.1571],[92.484,24.1581],[92.4849,24.1593],[92.4849,24.1614],[92.4859,24.1622],[92.4881,24.1622],[92.4948,24.1599],[92.5001,24.1605],[92.5025,24.1621],[92.5033,24.1667],[92.5049,24.1673],[92.5068,24.1668],[92.5095,24.1629],[92.5128,24.1626],[92.512,24.1648],[92.5086,24.1692],[92.5137,24.1693],[92.5148,24.1702],[92.5136,24.1736],[92.5151,24.1755],[92.5176,24.1762],[92.5218,24.1729],[92.5254,24.1729],[92.5297,24.1748],[92.5299,24.1764],[92.5315,24.1774],[92.5329,24.1805],[92.5335,24.1808],[92.5315,24.1835],[92.5378,24.1965],[92.5364,24.1999],[92.5373,24.2019],[92.5415,24.2062],[92.5424,24.2106],[92.5422,24.2142],[92.5457,24.2199],[92.5474,24.2244],[92.5478,24.2319],[92.5469,24.2348],[92.5471,24.2377],[92.5488,24.2432],[92.5506,24.2459],[92.5589,24.2479],[92.5646,24.2501],[92.5818,24.2454],[92.588,24.2449],[92.5914,24.246],[92.5936,24.2486],[92.596,24.2493],[92.606,24.2492],[92.608,24.2501],[92.6116,24.2533],[92.6131,24.2558],[92.6155,24.2636],[92.6158,24.2705],[92.6168,24.2753],[92.619,24.2813],[92.6194,24.2868],[92.6191,24.2879],[92.6172,24.2891],[92.6168,24.2912],[92.6183,24.2997],[92.618,24.3044],[92.6196,24.3085],[92.6194,24.3115],[92.6231,24.3203],[92.6234,24.3308],[92.6243,24.3327],[92.6262,24.3345],[92.6306,24.3334],[92.6359,24.3357],[92.6377,24.3355],[92.6382,24.3344],[92.6365,24.3342],[92.6367,24.3327],[92.6393,24.3318],[92.6398,24.3297],[92.641,24.3287],[92.645,24.3277],[92.6459,24.3292],[92.6452,24.3318],[92.649,24.3288],[92.6498,24.3292],[92.6494,24.3308],[92.6518,24.3303],[92.652,24.3329],[92.6524,24.3353],[92.6565,24.3391],[92.6576,24.3416],[92.6575,24.3435],[92.6585,24.3435],[92.6607,24.3451],[92.6622,24.3434],[92.6632,24.3438],[92.6641,24.3467],[92.6653,24.3452],[92.667,24.3456],[92.6748,24.3498],[92.6796,24.3478],[92.6838,24.3475],[92.684,24.3499],[92.688,24.352],[92.6907,24.3548],[92.6917,24.3564],[92.6918,24.3622],[92.6939,24.3636],[92.6942,24.365],[92.6933,24.3678],[92.695,24.3696],[92.6969,24.374],[92.6983,24.375],[92.7024,24.3752],[92.7041,24.3762],[92.7034,24.3838],[92.7075,24.387],[92.7074,24.3924],[92.7142,24.4053],[92.7141,24.4078],[92.7151,24.4088],[92.7142,24.4104],[92.7141,24.413],[92.7151,24.4145],[92.7181,24.4162],[92.7238,24.4359],[92.7305,24.4528],[92.7436,24.4746],[92.7488,24.4885],[92.7508,24.4915],[92.7513,24.4944],[92.7545,24.5011],[92.7536,24.507],[92.7592,24.5118],[92.7645,24.5188],[92.7652,24.5208],[92.7791,24.4865],[92.7822,24.4748],[92.7844,24.4712],[92.7862,24.4637],[92.7899,24.4561],[92.7939,24.444],[92.7978,24.4347],[92.8003,24.432],[92.8028,24.4273],[92.8043,24.423],[92.8038,24.4217],[92.8,24.4215],[92.8008,24.4191]]]}}]}