{"type":"FeatureCollection","name":"Nagaland","crs":{"type":"name","properties":{"name":"urn:ogc:def:crs:OGC:1.3:CRS84"}},"features":[{"type":"Feature","properties":{"ID_0":105,"ISO":"IND","NAME_0":"India","ID_1":25,"NAME_1":"Nagaland","TYPE_1":"State","ENGTYPE_1":"State","NL_NAME_1":null,"VARNAME_1":null},"geometry":{"type":"Polygon","coordinates":[[[95.2144,26.937],[95.2171,26.9342],[95.2256,26.9344],[95.2293,26.9306],[95.2318,26.9261],[95.234,26.9206],[95.234,26.9188],[95.232,26.9179],[95.2321,26.9148],[95.2341,26.9097],[95.2338,26.9059],[95.2313,26.8983],[95.2339,26.8908],[95.2299,26.8857],[95.2178,26.8869],[95.2129,26.8856],[95.2114,26.8817],[95.2064,26.8779],[95.1845,26.8648],[95.1858,26.8596],[95.193,26.8512],[95.1956,26.8496],[95.1973,26.8494],[95.1977,26.8515],[95.2042,26.8489],[95.2086,26.8507],[95.2064,26.8463],[95.2005,26.8429],[95.199,26.8399],[95.2006,26.8329],[95.2026,26.8288],[95.2036,26.8213],[95.2068,26.8117],[95.2151,26.7984],[95.2216,26.7935],[95.2275,26.7923],[95.235,26.7893],[95.2403,26.7892],[95.2417,26.7869],[95.2449,26.7873],[95.2425,26.7845],[95.2347,26.7803],[95.2316,26.7777],[95.2333,26.7737],[95.2332,26.7719],[95.2292,26.7685],[95.2241,26.7617],[95.2201,26.7598],[95.2193,26.7556],[95.2214,26.7515],[95.221,26.7474],[95.2169,26.7413],[95.2161,26.7353],[95.2282,26.7238],[95.2297,26.7169],[95.2361,26.7122],[95.2337,26.6971],[95.236,26.6915],[95.236,26.6882],[95.2376,26.6863],[95.2345,26.6831],[95.2317,26.6776],[95.2281,26.6731],[95.2274,26.672],[95.2247,26.6675],[95.2195,26.6607],[95.2149,26.6557],[95.2098,26.6515],[95.2078,26.6502],[95.2062,26.6491],[95.197,26.6474],[95.1913,26.6477],[95.182,26.6433],[95.1743,26.6342],[95.1714,26.6301],[95.1648,26.6266],[95.1614,26.6248],[95.1583,26.6232],[95.1547,26.6195],[95.1537,26.6096],[95.1525,26.6018],[95.1522,26.5976],[95.153,26.5936],[95.1562,26.5868],[95.1545,26.5808],[95.1508,26.5768],[95.1488,26.5746],[95.1445,26.5679],[95.1444,26.5637],[95.1444,26.563],[95.1427,26.5623],[95.1385,26.5605],[95.1338,26.5624],[95.1268,26.5624],[95.1247,26.5566],[95.1213,26.553],[95.1148,26.548],[95.1164,26.5448],[95.1191,26.5396],[95.1208,26.5345],[95.1208,26.5298],[95.1132,26.5187],[95.1125,26.5184],[95.1068,26.5155],[95.1035,26.5129],[95.1046,26.5091],[95.1024,26.5032],[95.096,26.4985],[95.091,26.4946],[95.0879,26.4907],[95.084,26.4859],[95.082,26.4836],[95.0804,26.4817],[95.0792,26.4806],[95.076,26.4777],[95.0758,26.4759],[95.0754,26.4733],[95.0723,26.4698],[95.072,26.4694],[95.0688,26.4667],[95.0672,26.4615],[95.0663,26.4568],[95.0664,26.4504],[95.0717,26.4504],[95.0751,26.4524],[95.0763,26.4526],[95.0816,26.4532],[95.087,26.452],[95.0906,26.4473],[95.0968,26.4394],[95.1,26.436],[95.1015,26.4327],[95.1062,26.43],[95.1087,26.4237],[95.1077,26.4188],[95.1058,26.415],[95.1054,26.4111],[95.105,26.4065],[95.1048,26.4013],[95.1217,26.398],[95.125,26.3955],[95.1309,26.3906],[95.1357,26.3878],[95.1359,26.3832],[95.1346,26.3757],[95.1319,26.3667],[95.1297,26.362],[95.1283,26.3547],[95.1317,26.3465],[95.1335,26.3426],[95.1275,26.3359],[95.128,26.3307],[95.1282,26.3293],[95.1287,26.3253],[95.1294,26.3216],[95.1299,26.3172],[95.1312,26.3074],[95.1315,26.3026],[95.1308,26.2966],[95.1311,26.2925],[95.1298,26.2887],[95.1271,26.285],[95.1213,26.2794],[95.1207,26.2749],[95.1227,26.2687],[95.1249,26.2642],[95.1287,26.2602],[95.1297,26.2562],[95.1283,26.2526],[95.1258,26.2458],[95.1229,26.2425],[95.1212,26.2387],[95.1231,26.233],[95.1284,26.2295],[95.1332,26.2256],[95.1406,26.2181],[95.1425,26.2142],[95.1382,26.2092],[95.1342,26.2077],[95.1283,26.2031],[95.1247,26.1966],[95.1277,26.194],[95.1258,26.1827],[95.123,26.1763],[95.1202,26.1723],[95.1181,26.1689],[95.1168,26.163],[95.1205,26.1551],[95.1238,26.1491],[95.1279,26.137],[95.1254,26.1313],[95.1232,26.1277],[95.1209,26.122],[95.1206,26.1097],[95.1233,26.1042],[95.1267,26.101],[95.1315,26.1003],[95.138,26.1026],[95.1442,26.101],[95.148,26.0979],[95.1516,26.0949],[95.1575,26.0962],[95.1659,26.099],[95.171,26.0968],[95.177,26.0923],[95.1802,26.0898],[95.1854,26.0847],[95.1857,26.0804],[95.1836,26.0745],[95.1816,26.0726],[95.1803,26.0713],[95.1775,26.0676],[95.173,26.0618],[95.1681,26.0578],[95.1656,26.0534],[95.1652,26.0446],[95.165,26.0389],[95.1649,26.0373],[95.1647,26.035],[95.1626,26.0314],[95.1614,26.0303],[95.1489,26.0188],[95.1426,26.0109],[95.1407,26.0065],[95.1366,26.0042],[95.1315,26.0001],[95.128,25.9953],[95.1175,25.9877],[95.1101,25.9757],[95.1097,25.9749],[95.1065,25.9682],[95.1002,25.9649],[95.0934,25.9615],[95.0885,25.9576],[95.0789,25.9508],[95.0734,25.949],[95.0655,25.9477],[95.0574,25.947],[95.0531,25.9445],[95.05,25.9392],[95.0449,25.9348],[95.0367,25.9351],[95.0358,25.9315],[95.0362,25.9286],[95.0364,25.927],[95.0331,25.9244],[95.028,25.9198],[95.0219,25.91],[95.0215,25.909],[95.0201,25.9057],[95.0193,25.901],[95.0198,25.898],[95.0203,25.8945],[95.0222,25.8875],[95.019,25.8848],[95.0175,25.8829],[95.0156,25.8807],[95.0154,25.872],[95.0182,25.8678],[95.0214,25.8619],[95.0244,25.8585],[95.0275,25.8515],[95.03,25.8493],[95.0332,25.8465],[95.0337,25.8404],[95.0342,25.8339],[95.0346,25.829],[95.0348,25.8274],[95.035,25.8264],[95.036,25.8238],[95.0375,25.8202],[95.0403,25.817],[95.0438,25.813],[95.0494,25.8101],[95.0518,25.8052],[95.0515,25.7991],[95.0476,25.7877],[95.0455,25.7828],[95.0456,25.7786],[95.0525,25.7627],[95.0444,25.7533],[95.0424,25.7502],[95.0407,25.7476],[95.0337,25.7414],[95.0272,25.7406],[95.0189,25.7385],[95.0094,25.7385],[95.0024,25.7326],[94.9993,25.7266],[94.9988,25.7221],[94.9987,25.7217],[94.9932,25.7143],[94.989,25.7091],[94.9837,25.7043],[94.9799,25.7019],[94.9763,25.6995],[94.9739,25.6974],[94.9732,25.6967],[94.9538,25.6834],[94.9429,25.6753],[94.9376,25.669],[94.9351,25.6646],[94.9342,25.6611],[94.9326,25.654],[94.9319,25.652],[94.9298,25.6467],[94.9266,25.6406],[94.9255,25.6324],[94.9223,25.6245],[94.9209,25.6148],[94.9197,25.6111],[94.9172,25.6077],[94.9115,25.6033],[94.9047,25.6014],[94.9035,25.6011],[94.8957,25.598],[94.889,25.5931],[94.8889,25.5929],[94.8892,25.5922],[94.8887,25.592],[94.8877,25.5876],[94.8919,25.5821],[94.8971,25.5774],[94.9042,25.5712],[94.905,25.5671],[94.8878,25.5654],[94.8586,25.5634],[94.8568,25.5634],[94.8565,25.5633],[94.853,25.5633],[94.8499,25.5609],[94.8494,25.5607],[94.848,25.5593],[94.8434,25.5557],[94.8369,25.5505],[94.8339,25.5467],[94.8298,25.5384],[94.8297,25.5349],[94.8296,25.533],[94.8288,25.5281],[94.8253,25.5209],[94.8221,25.5172],[94.8202,25.5137],[94.8186,25.5069],[94.8156,25.4999],[94.8125,25.4954],[94.8059,25.4934],[94.7971,25.4937],[94.7898,25.4912],[94.7845,25.4902],[94.779,25.4843],[94.7727,25.4813],[94.7671,25.4824],[94.7645,25.4854],[94.7623,25.4915],[94.7567,25.492],[94.7558,25.489],[94.7554,25.4879],[94.7515,25.4825],[94.7465,25.4791],[94.7392,25.4768],[94.7309,25.4747],[94.7218,25.4725],[94.7146,25.471],[94.7024,25.4686],[94.7009,25.4685],[94.6957,25.4681],[94.6886,25.4655],[94.6824,25.4597],[94.6698,25.4554],[94.666,25.4554],[94.6587,25.4571],[94.6565,25.4586],[94.6482,25.4616],[94.633,25.4657],[94.6253,25.4691],[94.6075,25.4824],[94.5974,25.4863],[94.5949,25.4881],[94.5908,25.4897],[94.5872,25.4925],[94.585,25.4969],[94.5746,25.5052],[94.5682,25.5066],[94.5574,25.5128],[94.559,25.5243],[94.5613,25.5307],[94.5583,25.5349],[94.5635,25.5397],[94.5599,25.5457],[94.5629,25.5495],[94.5614,25.5605],[94.5647,25.5679],[94.5604,25.568],[94.5615,25.5783],[94.5557,25.5858],[94.5596,25.5941],[94.5651,25.6026],[94.5669,25.6041],[94.5686,25.6078],[94.5728,25.6113],[94.5769,25.6204],[94.5785,25.6263],[94.5838,25.6345],[94.5905,25.6403],[94.5946,25.6427],[94.5952,25.6439],[94.5869,25.6466],[94.5761,25.6447],[94.5772,25.6483],[94.5768,25.6528],[94.5814,25.6574],[94.582,25.6606],[94.5852,25.6618],[94.5834,25.6652],[94.5856,25.67],[94.5874,25.6718],[94.5853,25.6749],[94.5881,25.6773],[94.59,25.6812],[94.5969,25.6869],[94.5956,25.6913],[94.5871,25.6919],[94.583,25.6932],[94.5786,25.696],[94.573,25.6977],[94.568,25.6922],[94.5651,25.6808],[94.5522,25.6674],[94.5518,25.6625],[94.5447,25.6575],[94.5395,25.6511],[94.5315,25.6501],[94.5307,25.6426],[94.5282,25.6443],[94.5242,25.6434],[94.5145,25.6305],[94.5109,25.6299],[94.5087,25.6269],[94.5078,25.6189],[94.5054,25.617],[94.5018,25.62],[94.5,25.6189],[94.4999,25.6188],[94.4993,25.6165],[94.4934,25.6143],[94.4911,25.6187],[94.4912,25.6198],[94.474,25.6216],[94.4493,25.6011],[94.4478,25.598],[94.4443,25.596],[94.4377,25.5959],[94.43,25.5927],[94.4257,25.5815],[94.4224,25.576],[94.4251,25.573],[94.4264,25.5615],[94.4256,25.5529],[94.4203,25.5427],[94.4168,25.5419],[94.4109,25.5435],[94.4045,25.5409],[94.3885,25.5366],[94.3647,25.5215],[94.329,25.5084],[94.3207,25.4993],[94.3135,25.4945],[94.309,25.4938],[94.3026,25.4946],[94.299,25.5007],[94.2907,25.5095],[94.2867,25.5117],[94.2799,25.5055],[94.2741,25.503],[94.2669,25.5024],[94.2573,25.5034],[94.2521,25.4991],[94.2317,25.4983],[94.2291,25.496],[94.223,25.4968],[94.2199,25.4996],[94.2149,25.5002],[94.2128,25.5028],[94.2129,25.5082],[94.2069,25.5116],[94.2069,25.514],[94.1992,25.5228],[94.1907,25.5308],[94.1901,25.5346],[94.1939,25.5422],[94.1949,25.5524],[94.1918,25.551],[94.1828,25.5533],[94.1795,25.5502],[94.1679,25.547],[94.1635,25.5499],[94.1601,25.5553],[94.1529,25.5478],[94.1518,25.5419],[94.1482,25.5317],[94.1452,25.5276],[94.1387,25.5237],[94.1285,25.5259],[94.1061,25.5289],[94.0921,25.5327],[94.0925,25.538],[94.0962,25.5417],[94.095,25.5464],[94.086,25.5597],[94.08,25.5616],[94.0694,25.559],[94.0647,25.5664],[94.0541,25.5768],[94.046,25.5809],[94.0436,25.5775],[94.039,25.5799],[94.0392,25.583],[94.0379,25.5819],[94.0349,25.5815],[94.0334,25.5847],[94.0273,25.588],[94.0255,25.5934],[94.0147,25.5961],[94.0104,25.5954],[94.0077,25.5909],[94.0078,25.5875],[94.0118,25.5791],[94.0123,25.5753],[94.0116,25.5727],[94.0104,25.5713],[94.0074,25.5699],[94.0006,25.5739],[93.9805,25.5713],[93.9779,25.5662],[93.9726,25.5612],[93.9652,25.5566],[93.9574,25.5568],[93.9435,25.5634],[93.9301,25.5654],[93.9193,25.564],[93.9171,25.5667],[93.9109,25.5675],[93.9048,25.5674],[93.9002,25.5687],[93.892,25.5684],[93.8784,25.562],[93.8622,25.5575],[93.8523,25.5586],[93.8442,25.5617],[93.8365,25.5631],[93.8335,25.5614],[93.8333,25.5564],[93.825,25.556],[93.8233,25.5482],[93.8197,25.5444],[93.8159,25.5454],[93.8078,25.5445],[93.7795,25.538],[93.7718,25.5408],[93.7706,25.5403],[93.771,25.536],[93.769,25.5307],[93.7682,25.5253],[93.7693,25.5177],[93.7643,25.5155],[93.7658,25.4999],[93.7693,25.4968],[93.7734,25.4978],[93.7885,25.5065],[93.7972,25.5044],[93.804,25.499],[93.8076,25.4956],[93.8139,25.4847],[93.809,25.4656],[93.8052,25.4634],[93.8024,25.4604],[93.7984,25.4539],[93.7937,25.4487],[93.7902,25.4434],[93.7881,25.4359],[93.7845,25.4319],[93.7805,25.4295],[93.7811,25.4247],[93.7644,25.4181],[93.7603,25.4141],[93.7467,25.4057],[93.742,25.3999],[93.7401,25.3952],[93.7413,25.3894],[93.7398,25.3844],[93.731,25.3804],[93.7231,25.3756],[93.719,25.3704],[93.718,25.3616],[93.7116,25.3581],[93.7,25.3594],[93.6928,25.3616],[93.6915,25.3474],[93.6871,25.3312],[93.6839,25.3296],[93.6721,25.3287],[93.674,25.3173],[93.6729,25.3115],[93.6661,25.3083],[93.6647,25.3042],[93.6656,25.2984],[93.6516,25.279],[93.6514,25.2737],[93.6499,25.2691],[93.6435,25.2659],[93.6431,25.26],[93.6381,25.2504],[93.6319,25.2429],[93.6289,25.2357],[93.6211,25.2249],[93.6126,25.2062],[93.608,25.2021],[93.6043,25.2043],[93.601,25.2024],[93.5971,25.2043],[93.593,25.2039],[93.5929,25.2067],[93.5948,25.2111],[93.592,25.2139],[93.5903,25.2199],[93.5881,25.2222],[93.5858,25.2223],[93.5816,25.226],[93.5782,25.2257],[93.5749,25.2276],[93.5708,25.2325],[93.5701,25.2356],[93.5631,25.2466],[93.5547,25.2505],[93.5472,25.2485],[93.5412,25.2454],[93.5294,25.2484],[93.5206,25.2488],[93.5164,25.2448],[93.5084,25.2437],[93.5051,25.2441],[93.5042,25.2534],[93.5108,25.2756],[93.5044,25.2758],[93.4949,25.2787],[93.4875,25.2759],[93.4834,25.2766],[93.4768,25.279],[93.4726,25.2854],[93.4746,25.2924],[93.4751,25.2997],[93.474,25.3093],[93.468,25.3138],[93.4631,25.3199],[93.4567,25.3253],[93.458,25.3301],[93.4619,25.3366],[93.4579,25.3409],[93.4519,25.3442],[93.4537,25.3481],[93.4623,25.3589],[93.4663,25.3617],[93.4782,25.3799],[93.4773,25.386],[93.4739,25.3931],[93.4672,25.4031],[93.4633,25.411],[93.4654,25.4159],[93.4651,25.4234],[93.4619,25.4347],[93.4569,25.4419],[93.4436,25.4506],[93.435,25.4548],[93.4275,25.4553],[93.422,25.4548],[93.4171,25.4528],[93.4029,25.4592],[93.3959,25.4641],[93.3904,25.4692],[93.3919,25.4742],[93.391,25.478],[93.3913,25.4814],[93.3905,25.4856],[93.3871,25.4903],[93.3864,25.4934],[93.383,25.4976],[93.3718,25.5011],[93.3711,25.5051],[93.3669,25.5079],[93.365,25.5101],[93.3668,25.5129],[93.3647,25.5162],[93.36,25.5203],[93.3576,25.5277],[93.3542,25.5312],[93.3502,25.5337],[93.3523,25.5376],[93.3492,25.5383],[93.3446,25.5361],[93.3404,25.5373],[93.3357,25.5454],[93.3317,25.5468],[93.3334,25.549],[93.3413,25.5549],[93.3455,25.5611],[93.3483,25.5632],[93.3544,25.5652],[93.3607,25.5604],[93.3642,25.5606],[93.366,25.5633],[93.3652,25.5698],[93.3694,25.5703],[93.3734,25.5692],[93.376,25.571],[93.3768,25.5737],[93.3765,25.5773],[93.3827,25.5762],[93.3847,25.5779],[93.385,25.5812],[93.3831,25.5828],[93.3824,25.5848],[93.3906,25.5891],[93.3901,25.5947],[93.4002,25.5963],[93.4068,25.5965],[93.4092,25.6004],[93.4096,25.6041],[93.4072,25.6065],[93.4076,25.6094],[93.409,25.6117],[93.4123,25.6137],[93.4168,25.6149],[93.4149,25.6166],[93.4183,25.6211],[93.4225,25.6223],[93.4275,25.6315],[93.431,25.6292],[93.4342,25.6299],[93.4391,25.6323],[93.4392,25.6344],[93.4415,25.6348],[93.4444,25.638],[93.4468,25.6388],[93.4499,25.6349],[93.452,25.6375],[93.4594,25.6331],[93.462,25.6334],[93.4612,25.6366],[93.4586,25.6384],[93.4571,25.6406],[93.4607,25.6415],[93.4656,25.6442],[93.4685,25.6438],[93.4748,25.6443],[93.4759,25.648],[93.4834,25.6458],[93.4836,25.6518],[93.4872,25.6505],[93.4907,25.6534],[93.4902,25.656],[93.4939,25.6553],[93.4999,25.6565],[93.5021,25.662],[93.5083,25.6668],[93.5102,25.671],[93.5203,25.6837],[93.5194,25.686],[93.5168,25.6881],[93.5227,25.6932],[93.5259,25.6997],[93.5286,25.6938],[93.5306,25.6927],[93.5315,25.694],[93.538,25.7032],[93.5436,25.7017],[93.5444,25.7059],[93.5459,25.7102],[93.5488,25.7147],[93.5498,25.719],[93.5462,25.7215],[93.5448,25.727],[93.5467,25.7345],[93.5499,25.7324],[93.5569,25.7377],[93.5563,25.7419],[93.5619,25.7409],[93.5655,25.7413],[93.5701,25.7517],[93.5693,25.755],[93.5734,25.7566],[93.5738,25.7597],[93.5732,25.7608],[93.5838,25.7577],[93.5872,25.7595],[93.5871,25.7656],[93.5882,25.7682],[93.5927,25.7662],[93.5937,25.7643],[93.5983,25.7684],[93.6028,25.7708],[93.6056,25.7675],[93.6057,25.7726],[93.6081,25.7769],[93.6114,25.7765],[93.6223,25.7798],[93.6236,25.7839],[93.6211,25.7852],[93.6238,25.7904],[93.627,25.7916],[93.6275,25.7986],[93.6298,25.8],[93.629,25.8044],[93.6333,25.8052],[93.6341,25.81],[93.6361,25.8137],[93.6403,25.8134],[93.641,25.8179],[93.6444,25.8196],[93.6485,25.824],[93.6524,25.8228],[93.6567,25.8264],[93.6608,25.8244],[93.6686,25.8246],[93.6695,25.8288],[93.6726,25.8281],[93.6781,25.8289],[93.6829,25.8358],[93.6825,25.8407],[93.692,25.8441],[93.6905,25.8476],[93.6938,25.8472],[93.6979,25.8513],[93.7036,25.8535],[93.7036,25.8497],[93.7024,25.847],[93.7055,25.8486],[93.7064,25.8533],[93.6909,25.8893],[93.6858,25.9049],[93.6877,25.9094],[93.6977,25.9171],[93.7051,25.9213],[93.7125,25.9227],[93.7165,25.9217],[93.7289,25.9284],[93.7365,25.9305],[93.7501,25.9373],[93.7518,25.9364],[93.752,25.9396],[93.7494,25.9421],[93.7589,25.9487],[93.7628,25.9549],[93.7684,25.955],[93.7703,25.9535],[93.7695,25.958],[93.773,25.966],[93.7788,25.9633],[93.7803,25.9606],[93.7852,25.9583],[93.7866,25.9542],[93.7894,25.9526],[93.7892,25.949],[93.7866,25.9474],[93.7894,25.946],[93.7907,25.9442],[93.7914,25.9401],[93.7933,25.9367],[93.7886,25.933],[93.7932,25.931],[93.7936,25.926],[93.7923,25.9225],[93.7963,25.9182],[93.7983,25.9097],[93.7981,25.9063],[93.7957,25.9012],[93.7951,25.898],[93.7918,25.8949],[93.7915,25.8901],[93.7875,25.8789],[93.7883,25.8757],[93.7906,25.8738],[93.7918,25.8697],[93.7858,25.8669],[93.7853,25.8633],[93.7815,25.8593],[93.7836,25.8539],[93.783,25.8514],[93.7838,25.85],[93.7798,25.8463],[93.7811,25.8446],[93.7826,25.8382],[93.7845,25.8358],[93.7873,25.828],[93.7888,25.826],[93.7907,25.8208],[93.7913,25.816],[93.7958,25.8144],[93.8076,25.8163],[93.8116,25.8213],[93.8188,25.8262],[93.8214,25.8324],[93.8243,25.8471],[93.8327,25.8563],[93.8423,25.8626],[93.8517,25.863],[93.8687,25.8554],[93.8736,25.8509],[93.8827,25.8459],[93.8885,25.8525],[93.8916,25.8586],[93.8934,25.8648],[93.8986,25.8638],[93.9018,25.871],[93.9138,25.8818],[93.9159,25.8877],[93.9239,25.8898],[93.9346,25.8914],[93.9402,25.901],[93.9484,25.9012],[93.9598,25.9053],[93.9608,25.9059],[93.9692,25.9114],[93.972,25.9175],[93.9794,25.9197],[93.9827,25.9263],[93.9711,25.9449],[93.9708,25.9533],[93.9692,25.9608],[93.956,25.9742],[93.958,25.9816],[93.9606,25.997],[93.959,26.0025],[93.956,26.0046],[93.9549,26.0073],[93.9584,26.0119],[93.9627,26.0222],[93.9631,26.0334],[93.9659,26.0424],[93.9726,26.045],[93.9745,26.0522],[93.9808,26.0586],[93.9911,26.0726],[93.9894,26.0741],[93.986,26.0836],[93.9864,26.0883],[93.991,26.0895],[93.9925,26.0928],[93.9922,26.0978],[93.9941,26.1061],[93.9996,26.1085],[94.0022,26.1114],[94.0021,26.1149],[93.9999,26.1159],[93.995,26.1157],[93.9912,26.1181],[93.9928,26.1203],[93.9965,26.1224],[93.9966,26.1281],[93.9983,26.1294],[93.9983,26.131],[93.9933,26.1328],[93.9908,26.1339],[93.9932,26.1374],[93.9963,26.1374],[93.9997,26.1365],[94.0031,26.139],[94.0052,26.1419],[94.0064,26.1472],[94.0029,26.1513],[93.9997,26.1582],[94.0043,26.1641],[94.0039,26.1694],[94.0048,26.1733],[94.0088,26.1805],[94.013,26.1863],[94.022,26.1915],[94.0266,26.1971],[94.0311,26.1994],[94.0357,26.2032],[94.0368,26.2097],[94.0366,26.2177],[94.0405,26.2235],[94.0382,26.2295],[94.0418,26.2339],[94.0442,26.24],[94.0491,26.2502],[94.0529,26.2558],[94.0646,26.2618],[94.0705,26.26],[94.076,26.2692],[94.0778,26.2754],[94.0768,26.2852],[94.0801,26.2888],[94.0844,26.2886],[94.0872,26.2904],[94.0903,26.2971],[94.0981,26.3029],[94.1027,26.3087],[94.1045,26.322],[94.108,26.3264],[94.1113,26.326],[94.1184,26.3227],[94.1287,26.3232],[94.1194,26.3305],[94.1194,26.3337],[94.124,26.3359],[94.1357,26.3382],[94.1388,26.3416],[94.1426,26.3421],[94.1438,26.3402],[94.1422,26.336],[94.1467,26.3354],[94.1493,26.3391],[94.1545,26.34],[94.1645,26.3393],[94.1721,26.3444],[94.1755,26.3442],[94.1793,26.3508],[94.18,26.3541],[94.1753,26.3551],[94.1694,26.3541],[94.1677,26.3533],[94.1645,26.3601],[94.1736,26.3676],[94.1756,26.3718],[94.1755,26.3745],[94.174,26.3778],[94.1791,26.3887],[94.1769,26.3996],[94.1768,26.4134],[94.174,26.4209],[94.1765,26.4281],[94.1758,26.4318],[94.1865,26.4605],[94.2011,26.4699],[94.2094,26.4837],[94.2115,26.4898],[94.2236,26.5006],[94.2289,26.5033],[94.2399,26.5114],[94.2448,26.5169],[94.2521,26.5277],[94.2533,26.5325],[94.2626,26.5439],[94.2767,26.5588],[94.2823,26.5635],[94.2898,26.5641],[94.2889,26.5599],[94.2853,26.5582],[94.2848,26.5554],[94.2856,26.5466],[94.2849,26.5403],[94.2856,26.5341],[94.2891,26.5252],[94.2888,26.5183],[94.2871,26.515],[94.2872,26.5085],[94.2902,26.496],[94.2924,26.49],[94.2939,26.4807],[94.3033,26.4673],[94.311,26.4661],[94.3135,26.465],[94.3165,26.4629],[94.3243,26.4707],[94.3248,26.4722],[94.3239,26.4794],[94.3293,26.4838],[94.3326,26.485],[94.3369,26.4848],[94.3434,26.49],[94.3496,26.4928],[94.3521,26.4958],[94.3518,26.4992],[94.3536,26.5022],[94.3555,26.5035],[94.3537,26.5048],[94.3511,26.5086],[94.3546,26.5103],[94.3587,26.5091],[94.3645,26.5103],[94.3692,26.51],[94.3776,26.5131],[94.3781,26.5172],[94.3769,26.5232],[94.3783,26.5253],[94.3914,26.5328],[94.3941,26.5326],[94.3966,26.5297],[94.3995,26.5323],[94.3989,26.5345],[94.4025,26.5388],[94.4013,26.5441],[94.4027,26.5469],[94.4067,26.5483],[94.408,26.5497],[94.4076,26.5524],[94.4048,26.5552],[94.4061,26.5574],[94.409,26.5571],[94.412,26.5585],[94.4106,26.5606],[94.4078,26.5614],[94.4093,26.569],[94.4119,26.5734],[94.4148,26.5833],[94.406,26.6019],[94.4086,26.6098],[94.4079,26.6143],[94.4099,26.6164],[94.4345,26.6254],[94.4545,26.639],[94.4568,26.6366],[94.4625,26.6355],[94.4648,26.6387],[94.4645,26.6404],[94.4617,26.6438],[94.4614,26.6481],[94.4586,26.6553],[94.4618,26.6632],[94.4645,26.6675],[94.4679,26.6698],[94.4857,26.6737],[94.4928,26.6723],[94.4983,26.6737],[94.5,26.6752],[94.503,26.6777],[94.5071,26.683],[94.5099,26.6834],[94.5155,26.6873],[94.5197,26.6946],[94.5201,26.7015],[94.5227,26.7044],[94.5278,26.7013],[94.5409,26.7096],[94.5451,26.7109],[94.5504,26.7102],[94.5547,26.7084],[94.5611,26.7081],[94.5634,26.7074],[94.5647,26.706],[94.5623,26.6938],[94.563,26.6906],[94.5661,26.6899],[94.5709,26.6901],[94.5747,26.691],[94.5715,26.6962],[94.5828,26.7056],[94.5854,26.7033],[94.589,26.7024],[94.5924,26.7027],[94.5949,26.7066],[94.595,26.7124],[94.5962,26.7182],[94.5983,26.7199],[94.6037,26.7162],[94.6047,26.7172],[94.6046,26.7199],[94.6032,26.7238],[94.6005,26.7253],[94.5933,26.7261],[94.5952,26.7299],[94.5999,26.7377],[94.6041,26.7393],[94.6101,26.7401],[94.6104,26.7359],[94.6119,26.7327],[94.6174,26.7306],[94.6201,26.7267],[94.6211,26.7212],[94.6227,26.7195],[94.6283,26.7186],[94.632,26.7197],[94.6403,26.724],[94.6462,26.7245],[94.6534,26.7236],[94.6585,26.7248],[94.6651,26.7278],[94.6866,26.7326],[94.6915,26.7358],[94.6969,26.7397],[94.7114,26.7528],[94.7197,26.758],[94.7319,26.764],[94.7365,26.7674],[94.7377,26.7689],[94.7417,26.7736],[94.7424,26.7786],[94.7458,26.7821],[94.7507,26.7797],[94.7541,26.7743],[94.7564,26.7723],[94.7593,26.7741],[94.76,26.7766],[94.7624,26.7799],[94.7683,26.7834],[94.7691,26.7911],[94.7731,26.795],[94.7856,26.7986],[94.7908,26.8015],[94.795,26.8037],[94.8022,26.8061],[94.8054,26.8122],[94.8016,26.8138],[94.7966,26.8185],[94.8067,26.8212],[94.8092,26.8233],[94.8131,26.8248],[94.8151,26.83],[94.8154,26.8368],[94.8167,26.8415],[94.8211,26.8449],[94.8217,26.8493],[94.8211,26.8545],[94.8263,26.8593],[94.8323,26.8627],[94.8365,26.8685],[94.8388,26.874],[94.8458,26.8768],[94.8515,26.8813],[94.8533,26.8853],[94.859,26.8933],[94.8653,26.9069],[94.8686,26.9099],[94.8696,26.915],[94.8815,26.9267],[94.8862,26.9325],[94.8945,26.9373],[94.9013,26.9403],[94.9088,26.9423],[94.9139,26.9426],[94.918,26.9451],[94.9238,26.9503],[94.9282,26.9521],[94.9336,26.9385],[94.9386,26.938],[94.9412,26.9393],[94.9471,26.9402],[94.9573,26.9436],[94.9642,26.9406],[94.9668,26.9362],[94.9679,26.9315],[94.9707,26.9284],[94.9743,26.9276],[94.9797,26.9246],[94.9857,26.9182],[94.9894,26.9178],[94.9921,26.9184],[94.9912,26.9229],[94.9931,26.9262],[94.9995,26.9243],[95.0058,26.9249],[95.0166,26.9244],[95.0213,26.9254],[95.0286,26.9325],[95.038,26.9385],[95.0546,26.9409],[95.0653,26.9482],[95.0869,26.9527],[95.11,26.9669],[95.1132,26.9723],[95.1135,26.9776],[95.1169,26.9837],[95.1264,26.9869],[95.137,26.9936],[95.1428,26.9983],[95.1495,26.9998],[95.1545,27.006],[95.1955,27.0429],[95.1958,27.0325],[95.1979,27.0198],[95.1976,27.0157],[95.2001,27.0062],[95.1998,26.9994],[95.1963,26.9978],[95.1952,26.99],[95.2004,26.9856],[95.2078,26.9847],[95.21,26.9826],[95.2052,26.9822],[95.2066,26.9788],[95.2088,26.9751],[95.215,26.9704],[95.2137,26.9681],[95.2088,26.9654],[95.2068,26.9626],[95.2085,26.9607],[95.2134,26.9588],[95.2092,26.9567],[95.2122,26.9433],[95.2144,26.937]]]}}]}