{"type":"FeatureCollection","name":"Puducherry","crs":{"type":"name","properties":{"name":"urn:ogc:def:crs:OGC:1.3:CRS84"}},"features":[{"type":"Feature","properties":{"ID_0":105,"ISO":"IND","NAME_0":"India","ID_1":27,"NAME_1":"Puducherry","TYPE_1":"Union Territor","ENGTYPE_1":"Union Territory","NL_NAME_1":null,"VARNAME_1":"Pondicherry|Puduchcheri|Pondichéry"},"geometry":{"type":"MultiPolygon","coordinates":[[[[79.8449,10.8265],[79.8449,10.8263],[79.8454,10.8263],[79.8454,10.8257],[79.8449,10.8257],[79.8449,10.8254],[79.844,10.8254],[79.844,10.8251],[79.8435,10.8251],[79.8435,10.8249],[79.8429,10.8249],[79.8429,10.8246],[79.8421,10.8246],[79.8421,10.8243],[79.8415,10.8243],[79.8415,10.824],[79.8404,10.824],[79.8404,10.8238],[79.8401,10.8238],[79.8401,10.8243],[79.8404,10.8243],[79.8404,10.8246],[79.841,10.8246],[79.841,10.8249],[79.8412,10.8249],[79.8412,10.8251],[79.8418,10.8251],[79.8418,10.8254],[79.8424,10.8254],[79.8424,10.8257],[79.8429,10.8257],[79.8429,10.826],[79.8435,10.826],[79.8435,10.8263],[79.844,10.8263],[79.844,10.8265],[79.8449,10.8265]]],[[[79.7482,10.9815],[79.7526,10.9799],[79.7605,10.9806],[79.7652,10.9792],[79.7723,10.9796],[79.7744,10.9772],[79.7739,10.971],[79.7772,10.9679],[79.7834,10.9673],[79.7871,10.9698],[79.7896,10.9734],[79.7904,10.9785],[79.7919,10.9809],[79.7964,10.9831],[79.7974,10.9849],[79.8015,10.9862],[79.8026,10.9849],[79.8045,10.9829],[79.8098,10.9821],[79.812,10.983],[79.813,10.9849],[79.8139,10.9871],[79.8248,10.9866],[79.8249,10.9848],[79.8244,10.9795],[79.8345,10.9768],[79.8345,10.9767],[79.8354,10.9766],[79.8376,10.9764],[79.8444,10.976],[79.8506,10.9758],[79.8546,10.976],[79.8546,10.9743],[79.8543,10.9743],[79.8543,10.9726],[79.854,10.9726],[79.854,10.971],[79.8538,10.971],[79.8538,10.9693],[79.8535,10.9693],[79.8535,10.964],[79.8532,10.964],[79.8532,10.9621],[79.8529,10.9621],[79.8529,10.9615],[79.8532,10.9615],[79.8532,10.961],[79.8535,10.961],[79.8535,10.9599],[79.8532,10.9599],[79.8532,10.9596],[79.8529,10.9596],[79.8529,10.9593],[79.8532,10.9593],[79.8532,10.9551],[79.8529,10.9551],[79.8529,10.9535],[79.8532,10.9535],[79.8532,10.9529],[79.8535,10.9529],[79.8535,10.9515],[79.8532,10.9515],[79.8532,10.9507],[79.8529,10.9507],[79.8529,10.9485],[79.8532,10.9485],[79.8532,10.9457],[79.8529,10.9457],[79.8529,10.9451],[79.8532,10.9452],[79.8532,10.9435],[79.8529,10.9435],[79.8529,10.9418],[79.8532,10.9418],[79.8532,10.9415],[79.8535,10.9415],[79.8535,10.9393],[79.8538,10.9393],[79.8538,10.9324],[79.854,10.9324],[79.854,10.9232],[79.8543,10.9232],[79.8543,10.9179],[79.854,10.9179],[79.854,10.9165],[79.8538,10.9165],[79.8538,10.9151],[79.8535,10.9151],[79.8535,10.9137],[79.8532,10.9137],[79.8532,10.9135],[79.851,10.9135],[79.851,10.9132],[79.8504,10.9132],[79.8504,10.9129],[79.8476,10.9129],[79.8476,10.9124],[79.8482,10.9124],[79.8482,10.9121],[79.8487,10.9121],[79.8487,10.9118],[79.8493,10.9118],[79.8493,10.9113],[79.851,10.9113],[79.851,10.9115],[79.8512,10.9115],[79.8512,10.9121],[79.8515,10.9121],[79.8515,10.9124],[79.8526,10.9124],[79.8526,10.9121],[79.8529,10.9121],[79.8529,10.9107],[79.8526,10.9107],[79.8526,10.909],[79.8523,10.909],[79.8523,10.9082],[79.8521,10.9082],[79.8521,10.9074],[79.8524,10.9074],[79.8523,10.9049],[79.8526,10.9049],[79.8526,10.9024],[79.8523,10.9024],[79.8523,10.8951],[79.8521,10.8951],[79.8521,10.8926],[79.8523,10.8926],[79.8523,10.8924],[79.8526,10.8924],[79.8526,10.8901],[79.8529,10.8901],[79.8529,10.8899],[79.8524,10.8899],[79.8524,10.8896],[79.8521,10.8896],[79.8521,10.8893],[79.8518,10.8893],[79.8518,10.889],[79.8515,10.889],[79.8515,10.8888],[79.8512,10.8888],[79.8512,10.8879],[79.851,10.8879],[79.851,10.8865],[79.8507,10.8865],[79.8507,10.8857],[79.8499,10.8857],[79.8499,10.8854],[79.8487,10.8854],[79.8487,10.8849],[79.8485,10.8849],[79.8485,10.8843],[79.8482,10.8843],[79.8482,10.884],[79.8487,10.884],[79.8487,10.8838],[79.8504,10.8838],[79.8504,10.884],[79.851,10.884],[79.851,10.8843],[79.8515,10.8843],[79.8515,10.8838],[79.8512,10.8838],[79.8512,10.8826],[79.851,10.8826],[79.851,10.8815],[79.8512,10.8815],[79.8512,10.8807],[79.8515,10.8807],[79.8515,10.8801],[79.8518,10.8801],[79.8518,10.8796],[79.8521,10.8796],[79.8521,10.8793],[79.8523,10.8793],[79.8523,10.8787],[79.8526,10.8787],[79.8526,10.8785],[79.8529,10.8785],[79.8529,10.8746],[79.8526,10.8746],[79.8526,10.8699],[79.8523,10.8699],[79.8523,10.8685],[79.8521,10.8685],[79.8521,10.8671],[79.8518,10.8671],[79.8518,10.8654],[79.8515,10.8654],[79.8515,10.8649],[79.8518,10.8649],[79.8518,10.864],[79.8521,10.864],[79.8521,10.859],[79.8523,10.859],[79.8523,10.854],[79.8526,10.854],[79.8526,10.8396],[79.8524,10.8396],[79.8524,10.8387],[79.8526,10.8388],[79.8526,10.8376],[79.8529,10.8376],[79.8529,10.8371],[79.8526,10.8371],[79.8526,10.8368],[79.8524,10.8368],[79.8524,10.8365],[79.8526,10.8365],[79.8526,10.831],[79.8524,10.831],[79.8524,10.8293],[79.8521,10.8293],[79.8521,10.8276],[79.8518,10.8276],[79.8518,10.8268],[79.8474,10.8268],[79.8474,10.8265],[79.8463,10.8265],[79.8463,10.8268],[79.8454,10.8268],[79.8454,10.8271],[79.8449,10.8271],[79.8449,10.8274],[79.844,10.8274],[79.844,10.8271],[79.8435,10.8271],[79.8435,10.8268],[79.8429,10.8268],[79.8429,10.8265],[79.8424,10.8265],[79.8424,10.8263],[79.8418,10.8263],[79.8418,10.826],[79.8412,10.826],[79.8412,10.8257],[79.841,10.8257],[79.841,10.8254],[79.8404,10.8254],[79.8404,10.8251],[79.8399,10.8251],[79.8399,10.8254],[79.8396,10.8254],[79.8396,10.8251],[79.8393,10.8251],[79.8393,10.8246],[79.839,10.8246],[79.839,10.8237],[79.8393,10.8238],[79.8393,10.8235],[79.8382,10.8235],[79.8382,10.8232],[79.8374,10.8232],[79.8374,10.8229],[79.8368,10.8229],[79.8368,10.8226],[79.8363,10.8226],[79.8363,10.8224],[79.836,10.8224],[79.836,10.8221],[79.8354,10.8221],[79.8354,10.8218],[79.8351,10.8218],[79.8351,10.8215],[79.8346,10.8215],[79.8346,10.8213],[79.834,10.8213],[79.834,10.821],[79.8337,10.821],[79.8337,10.8207],[79.8332,10.8207],[79.8332,10.8204],[79.8326,10.8204],[79.8326,10.8201],[79.8321,10.8201],[79.8321,10.8199],[79.8315,10.8199],[79.831,10.8199],[79.831,10.8196],[79.8301,10.8196],[79.8301,10.8193],[79.829,10.8193],[79.829,10.819],[79.8282,10.819],[79.8282,10.8188],[79.8271,10.8188],[79.8271,10.8185],[79.8254,10.8185],[79.8254,10.8182],[79.824,10.8182],[79.824,10.8179],[79.8238,10.8179],[79.8238,10.8176],[79.824,10.8176],[79.824,10.8174],[79.8254,10.8174],[79.8254,10.8176],[79.8271,10.8176],[79.8271,10.8179],[79.8282,10.8179],[79.8282,10.8182],[79.829,10.8182],[79.829,10.8185],[79.8301,10.8185],[79.8301,10.8188],[79.831,10.8188],[79.831,10.819],[79.8315,10.819],[79.8321,10.819],[79.8321,10.8193],[79.8326,10.8193],[79.8326,10.8196],[79.8332,10.8196],[79.8332,10.8199],[79.8337,10.8199],[79.8337,10.8201],[79.834,10.8201],[79.834,10.8204],[79.8346,10.8204],[79.8346,10.8207],[79.8351,10.8207],[79.8351,10.821],[79.8354,10.821],[79.8354,10.8213],[79.836,10.8213],[79.836,10.8215],[79.8363,10.8215],[79.8363,10.8218],[79.8368,10.8218],[79.8368,10.8221],[79.8373,10.8221],[79.8373,10.8224],[79.8382,10.8224],[79.8382,10.8226],[79.8393,10.8226],[79.8393,10.8229],[79.8404,10.8229],[79.8404,10.8232],[79.8415,10.8232],[79.8415,10.8235],[79.8421,10.8235],[79.8421,10.8238],[79.8429,10.8238],[79.8429,10.824],[79.8435,10.824],[79.8435,10.8243],[79.844,10.8243],[79.844,10.8246],[79.8449,10.8246],[79.8449,10.8249],[79.8454,10.8249],[79.8454,10.8251],[79.8463,10.8251],[79.8463,10.8254],[79.8468,10.8254],[79.8468,10.8256],[79.8468,10.8257],[79.8474,10.8257],[79.8474,10.826],[79.8515,10.826],[79.8515,10.8238],[79.8512,10.8238],[79.8512,10.8224],[79.851,10.8224],[79.851,10.8199],[79.8512,10.8199],[79.8512,10.8193],[79.851,10.8193],[79.851,10.819],[79.8507,10.819],[79.8507,10.8179],[79.851,10.8179],[79.851,10.8176],[79.8512,10.8176],[79.8512,10.8174],[79.851,10.8174],[79.851,10.8171],[79.8512,10.8171],[79.8512,10.8149],[79.851,10.8149],[79.851,10.814],[79.8512,10.814],[79.8512,10.8138],[79.8433,10.8123],[79.8357,10.8117],[79.832,10.8114],[79.8198,10.8111],[79.8133,10.8141],[79.8117,10.8158],[79.8137,10.8184],[79.8133,10.8287],[79.812,10.8328],[79.8082,10.8314],[79.8059,10.828],[79.8031,10.8337],[79.7967,10.8359],[79.7931,10.8395],[79.7911,10.8457],[79.7923,10.8488],[79.7956,10.8438],[79.7994,10.8447],[79.8034,10.8473],[79.8082,10.8489],[79.8075,10.8527],[79.8035,10.8575],[79.7973,10.8581],[79.7896,10.8618],[79.7918,10.8639],[79.8056,10.8637],[79.8114,10.8644],[79.809,10.8674],[79.8028,10.8711],[79.7925,10.87],[79.7883,10.8729],[79.7849,10.8736],[79.7803,10.8713],[79.7756,10.8758],[79.7725,10.8733],[79.767,10.8728],[79.7674,10.8756],[79.7701,10.878],[79.7749,10.8789],[79.7764,10.8817],[79.7732,10.8896],[79.7612,10.8914],[79.7605,10.8832],[79.7569,10.8801],[79.7519,10.8809],[79.7542,10.8867],[79.7492,10.8894],[79.7479,10.8952],[79.7453,10.8931],[79.7458,10.8872],[79.743,10.8819],[79.7414,10.8833],[79.7422,10.8905],[79.7418,10.8944],[79.7449,10.8967],[79.743,10.8994],[79.7269,10.8975],[79.7284,10.9023],[79.7256,10.9036],[79.7259,10.9069],[79.7239,10.908],[79.7212,10.9052],[79.7196,10.9058],[79.7208,10.9107],[79.7092,10.9132],[79.7086,10.9142],[79.708,10.9151],[79.7103,10.9174],[79.7104,10.9191],[79.7042,10.9189],[79.7044,10.921],[79.7085,10.9212],[79.7077,10.9234],[79.7085,10.9267],[79.713,10.9279],[79.7159,10.9305],[79.7202,10.9322],[79.7212,10.9353],[79.7192,10.9405],[79.7156,10.9383],[79.7148,10.9341],[79.7093,10.9356],[79.7044,10.9352],[79.7032,10.9383],[79.7029,10.9456],[79.7039,10.9476],[79.7037,10.9519],[79.7115,10.9523],[79.7155,10.9533],[79.7209,10.9506],[79.7267,10.9524],[79.7317,10.9482],[79.7327,10.9412],[79.7401,10.9437],[79.7455,10.9433],[79.7457,10.9493],[79.7446,10.9545],[79.7399,10.9558],[79.7381,10.9586],[79.7391,10.9615],[79.7413,10.9633],[79.7438,10.967],[79.7395,10.9661],[79.7382,10.9693],[79.7302,10.971],[79.7316,10.9753],[79.7299,10.9814],[79.7302,10.9851],[79.7319,10.987],[79.7372,10.9891],[79.7431,10.9851],[79.7482,10.9815]]],[[[79.6905,12.0011],[79.6908,11.9963],[79.6954,11.9927],[79.7017,11.9861],[79.7036,11.9801],[79.7058,11.9774],[79.7099,11.9762],[79.7126,11.9756],[79.717,11.9754],[79.7199,11.9765],[79.7249,11.9779],[79.7271,11.98],[79.7289,11.986],[79.729,11.986],[79.7347,11.9943],[79.7496,11.9861],[79.7526,11.9795],[79.7524,11.9761],[79.7491,11.9724],[79.7451,11.9709],[79.7424,11.967],[79.7382,11.967],[79.7354,11.9636],[79.7269,11.9625],[79.7221,11.9674],[79.7179,11.9689],[79.7157,11.9675],[79.7145,11.9553],[79.7336,11.9472],[79.7336,11.9373],[79.7369,11.9274],[79.7366,11.9102],[79.7369,11.9072],[79.7405,11.9072],[79.7408,11.9095],[79.7475,11.9152],[79.7472,11.9178],[79.7478,11.9289],[79.7581,11.9304],[79.7642,11.9346],[79.7654,11.9392],[79.7694,11.9415],[79.7718,11.9464],[79.7727,11.9468],[79.7758,11.946],[79.7788,11.9464],[79.7833,11.9437],[79.7876,11.9384],[79.7903,11.9426],[79.7917,11.9477],[79.7924,11.9571],[79.7953,11.9619],[79.7979,11.9635],[79.7997,11.9643],[79.8046,11.9631],[79.806,11.9592],[79.8063,11.9553],[79.8081,11.9465],[79.811,11.9425],[79.8142,11.9406],[79.818,11.9404],[79.8254,11.94],[79.8254,11.9401],[79.8307,11.9402],[79.8376,11.9405],[79.8376,11.9399],[79.8374,11.9399],[79.8374,11.9388],[79.8371,11.9388],[79.8371,11.9362],[79.8368,11.9362],[79.8368,11.9354],[79.8365,11.9354],[79.8365,11.9335],[79.8363,11.9335],[79.8363,11.9332],[79.8365,11.9332],[79.8365,11.9329],[79.8363,11.9329],[79.8363,11.9313],[79.836,11.9313],[79.836,11.9296],[79.8363,11.9296],[79.8363,11.9293],[79.836,11.9293],[79.836,11.929],[79.8357,11.929],[79.8357,11.9282],[79.8354,11.9282],[79.8354,11.9279],[79.8351,11.9279],[79.8351,11.9276],[79.8354,11.9276],[79.8354,11.9274],[79.8351,11.9274],[79.8351,11.9263],[79.8349,11.9263],[79.8349,11.9246],[79.8346,11.9246],[79.8346,11.9238],[79.8343,11.9238],[79.8343,11.9229],[79.834,11.9229],[79.834,11.9226],[79.8337,11.9226],[79.8337,11.9218],[79.8335,11.9218],[79.8335,11.9199],[79.8332,11.9199],[79.8332,11.9196],[79.8329,11.9196],[79.8329,11.9187],[79.8326,11.9188],[79.8326,11.9176],[79.8324,11.9176],[79.8324,11.9168],[79.8321,11.9168],[79.8321,11.9163],[79.8318,11.9163],[79.8318,11.916],[79.8315,11.916],[79.8315,11.9157],[79.8313,11.9157],[79.8313,11.9154],[79.831,11.9154],[79.831,11.9135],[79.8307,11.9135],[79.8307,11.9132],[79.8304,11.9132],[79.8304,11.9126],[79.8301,11.9126],[79.8301,11.9118],[79.8299,11.9118],[79.8299,11.9107],[79.8296,11.9107],[79.8296,11.9104],[79.8299,11.9104],[79.8299,11.9096],[79.8301,11.9096],[79.8301,11.9079],[79.8307,11.9079],[79.8307,11.9076],[79.831,11.9076],[79.831,11.9071],[79.8307,11.9071],[79.8307,11.9068],[79.8299,11.9068],[79.8299,11.9065],[79.8288,11.9065],[79.8288,11.9068],[79.8282,11.9068],[79.8282,11.9071],[79.8279,11.9071],[79.8279,11.9074],[79.8276,11.9074],[79.8276,11.9079],[79.8274,11.9079],[79.8274,11.9085],[79.8271,11.9085],[79.8271,11.909],[79.8274,11.909],[79.8274,11.9104],[79.8276,11.9104],[79.8276,11.9143],[79.8274,11.9143],[79.8274,11.9149],[79.8271,11.9149],[79.8271,11.9151],[79.8268,11.9151],[79.8268,11.9154],[79.8265,11.9154],[79.8265,11.9157],[79.8262,11.9157],[79.8262,11.916],[79.8257,11.916],[79.8257,11.9163],[79.8254,11.9163],[79.8254,11.9165],[79.8243,11.9165],[79.8243,11.916],[79.8246,11.916],[79.8246,11.9154],[79.8249,11.9154],[79.8249,11.9149],[79.8251,11.9149],[79.8251,11.9146],[79.8257,11.9146],[79.8257,11.9143],[79.826,11.9143],[79.826,11.914],[79.8262,11.914],[79.8262,11.9135],[79.8265,11.9135],[79.8265,11.9126],[79.8262,11.9126],[79.8262,11.9121],[79.8265,11.9121],[79.8265,11.9096],[79.8262,11.9096],[79.8262,11.909],[79.826,11.909],[79.826,11.9079],[79.8257,11.9079],[79.8257,11.9076],[79.8251,11.9076],[79.8251,11.909],[79.8249,11.909],[79.8249,11.9093],[79.8246,11.9093],[79.8246,11.9087],[79.8229,11.9087],[79.8229,11.909],[79.8226,11.909],[79.8226,11.9093],[79.8224,11.9093],[79.8224,11.909],[79.8218,11.909],[79.8218,11.9087],[79.8215,11.9087],[79.8215,11.9085],[79.8213,11.9085],[79.8213,11.9082],[79.8201,11.9082],[79.8201,11.9079],[79.8199,11.9079],[79.8199,11.9076],[79.8196,11.9076],[79.8196,11.9074],[79.8193,11.9074],[79.8193,11.9071],[79.819,11.9071],[79.819,11.9068],[79.8187,11.9068],[79.8187,11.9063],[79.8185,11.9063],[79.8185,11.9043],[79.8182,11.9043],[79.8182,11.9021],[79.8179,11.9021],[79.8179,11.9015],[79.8182,11.9015],[79.8182,11.9018],[79.8187,11.9018],[79.8187,11.9024],[79.819,11.9024],[79.819,11.9026],[79.8193,11.9026],[79.8193,11.9038],[79.8196,11.9038],[79.8196,11.9051],[79.8199,11.9051],[79.8199,11.9057],[79.8201,11.9057],[79.8201,11.9063],[79.8204,11.9063],[79.8204,11.9065],[79.8207,11.9065],[79.8207,11.9068],[79.8213,11.9068],[79.8213,11.9071],[79.8215,11.9071],[79.8215,11.9074],[79.8238,11.9074],[79.8238,11.9071],[79.824,11.9071],[79.824,11.9068],[79.8246,11.9068],[79.8246,11.9063],[79.8265,11.9063],[79.8265,11.906],[79.8274,11.906],[79.8274,11.9057],[79.8293,11.9057],[79.8293,11.9054],[79.8296,11.9054],[79.8296,11.9049],[79.8299,11.9049],[79.8299,11.9046],[79.8304,11.9046],[79.8304,11.904],[79.831,11.904],[79.831,11.9049],[79.8313,11.9049],[79.8313,11.9051],[79.8315,11.9051],[79.8315,11.9054],[79.8321,11.9054],[79.8321,11.904],[79.8318,11.904],[79.8318,11.9038],[79.8313,11.9038],[79.8313,11.9035],[79.8285,11.9035],[79.8285,11.9029],[79.8282,11.9029],[79.8282,11.9021],[79.8279,11.9021],[79.8279,11.901],[79.8276,11.901],[79.8276,11.9004],[79.8274,11.9004],[79.8274,11.8985],[79.8279,11.8985],[79.8279,11.8968],[79.8276,11.8968],[79.8276,11.8963],[79.8274,11.8963],[79.8274,11.896],[79.8271,11.896],[79.8271,11.8949],[79.8274,11.8949],[79.8274,11.8946],[79.8271,11.8946],[79.8271,11.8943],[79.8268,11.8943],[79.8268,11.894],[79.8265,11.894],[79.8265,11.8938],[79.8262,11.8938],[79.8262,11.891],[79.8265,11.891],[79.8265,11.8907],[79.8262,11.8907],[79.8262,11.8896],[79.826,11.8896],[79.826,11.8893],[79.8257,11.8893],[79.8257,11.8888],[79.8254,11.8888],[79.8254,11.8882],[79.8251,11.8882],[79.8251,11.8868],[79.8249,11.8868],[79.8249,11.8862],[79.8246,11.8862],[79.8246,11.8857],[79.8243,11.8857],[79.8243,11.8849],[79.8246,11.8849],[79.8246,11.8837],[79.8243,11.8838],[79.8243,11.8832],[79.824,11.8832],[79.824,11.8829],[79.8238,11.8829],[79.8238,11.8818],[79.8229,11.8818],[79.8229,11.8815],[79.8221,11.8815],[79.8221,11.8812],[79.8218,11.8812],[79.8218,11.881],[79.8213,11.881],[79.8213,11.8807],[79.8201,11.8807],[79.8201,11.8804],[79.8196,11.8804],[79.8196,11.8801],[79.8193,11.8801],[79.8193,11.8799],[79.819,11.8799],[79.819,11.8796],[79.8185,11.8796],[79.8185,11.8799],[79.8179,11.8799],[79.8179,11.8801],[79.8162,11.8801],[79.8162,11.8804],[79.8151,11.8804],[79.8151,11.8807],[79.8149,11.8807],[79.8149,11.8804],[79.8143,11.8804],[79.8143,11.8807],[79.814,11.8807],[79.814,11.881],[79.8135,11.881],[79.8135,11.8812],[79.8132,11.8812],[79.8132,11.8815],[79.8121,11.8815],[79.8121,11.8818],[79.811,11.8818],[79.811,11.8821],[79.8104,11.8821],[79.8104,11.8824],[79.8079,11.8824],[79.8079,11.8826],[79.8076,11.8826],[79.8074,11.8826],[79.8074,11.8829],[79.8065,11.8829],[79.8065,11.8826],[79.8063,11.8826],[79.8063,11.8829],[79.8049,11.8829],[79.8049,11.8832],[79.8035,11.8832],[79.8035,11.8835],[79.8021,11.8835],[79.8021,11.8838],[79.801,11.8838],[79.801,11.8835],[79.8004,11.8835],[79.8004,11.8832],[79.8001,11.8832],[79.8001,11.8829],[79.7996,11.8829],[79.7996,11.8826],[79.7979,11.8826],[79.7979,11.8824],[79.7974,11.8824],[79.7974,11.8821],[79.7968,11.8821],[79.7968,11.8818],[79.7962,11.8818],[79.7962,11.8815],[79.7957,11.8815],[79.7957,11.8812],[79.7954,11.8812],[79.7954,11.881],[79.7937,11.881],[79.7937,11.8807],[79.7935,11.8807],[79.7935,11.8801],[79.7932,11.8801],[79.7932,11.8799],[79.7935,11.8799],[79.7935,11.8796],[79.7932,11.8796],[79.7932,11.879],[79.7921,11.879],[79.7921,11.8787],[79.7907,11.8787],[79.7907,11.8785],[79.7915,11.8785],[79.7915,11.8782],[79.7918,11.8782],[79.7918,11.8779],[79.7937,11.8779],[79.7937,11.8776],[79.7946,11.8776],[79.7946,11.8779],[79.7949,11.8779],[79.7949,11.8782],[79.7954,11.8782],[79.7954,11.8785],[79.7957,11.8785],[79.7957,11.879],[79.7962,11.879],[79.7962,11.8793],[79.7965,11.8793],[79.7965,11.8799],[79.7968,11.8799],[79.7968,11.8801],[79.7974,11.8801],[79.7974,11.8804],[79.7976,11.8804],[79.7976,11.8807],[79.7985,11.8807],[79.7985,11.881],[79.7988,11.881],[79.7988,11.8812],[79.799,11.8812],[79.799,11.8815],[79.7993,11.8815],[79.7993,11.8818],[79.7996,11.8818],[79.7996,11.8815],[79.8007,11.8815],[79.8007,11.881],[79.8004,11.881],[79.8004,11.8807],[79.801,11.8807],[79.801,11.8804],[79.8018,11.8804],[79.8018,11.8807],[79.8026,11.8807],[79.8026,11.8804],[79.8035,11.8804],[79.8035,11.8807],[79.8037,11.8807],[79.8037,11.8815],[79.804,11.8815],[79.804,11.8818],[79.8046,11.8818],[79.8046,11.8821],[79.8049,11.8821],[79.8049,11.8818],[79.8051,11.8818],[79.8051,11.8821],[79.8057,11.8821],[79.8057,11.8818],[79.8065,11.8818],[79.8065,11.8815],[79.8068,11.8815],[79.8068,11.8812],[79.8071,11.8812],[79.8071,11.881],[79.8072,11.881],[79.8074,11.881],[79.8074,11.8807],[79.8085,11.8807],[79.8085,11.8804],[79.8096,11.8804],[79.8096,11.8801],[79.8099,11.8801],[79.8099,11.8799],[79.8104,11.8799],[79.8104,11.8796],[79.811,11.8796],[79.811,11.8793],[79.8115,11.8793],[79.8115,11.879],[79.8121,11.879],[79.8121,11.8785],[79.8124,11.8785],[79.8124,11.8782],[79.8129,11.8782],[79.8129,11.8779],[79.8132,11.8779],[79.8132,11.8776],[79.8149,11.8776],[79.8149,11.8774],[79.8151,11.8774],[79.8151,11.8771],[79.8154,11.8771],[79.8154,11.8768],[79.816,11.8768],[79.816,11.8765],[79.8165,11.8765],[79.8165,11.8763],[79.8168,11.8763],[79.8168,11.876],[79.8174,11.876],[79.8174,11.8754],[79.8176,11.8754],[79.8176,11.8751],[79.8182,11.8751],[79.8182,11.8746],[79.819,11.8746],[79.819,11.8743],[79.8196,11.8743],[79.8196,11.8735],[79.8193,11.8735],[79.8193,11.8732],[79.8185,11.8732],[79.8185,11.8735],[79.8179,11.8735],[79.8179,11.8738],[79.8168,11.8738],[79.8168,11.8735],[79.8149,11.8735],[79.8149,11.8738],[79.8138,11.8738],[79.8138,11.874],[79.8126,11.874],[79.8126,11.8743],[79.8124,11.8743],[79.8124,11.8746],[79.811,11.8746],[79.811,11.8749],[79.8101,11.8749],[79.8101,11.8751],[79.8093,11.8751],[79.8093,11.8754],[79.8087,11.8754],[79.8087,11.8757],[79.8076,11.8757],[79.8076,11.8754],[79.8068,11.8754],[79.8068,11.8751],[79.8063,11.8751],[79.8063,11.8749],[79.8058,11.8749],[79.8054,11.8749],[79.8054,11.8746],[79.8046,11.8746],[79.8046,11.8743],[79.8051,11.8743],[79.8051,11.874],[79.8054,11.874],[79.8054,11.8743],[79.8057,11.8743],[79.8065,11.8743],[79.8065,11.8746],[79.8074,11.8746],[79.8074,11.8749],[79.8079,11.8749],[79.8079,11.8746],[79.8096,11.8746],[79.8096,11.8743],[79.8101,11.8743],[79.8101,11.874],[79.8104,11.874],[79.8104,11.8735],[79.8107,11.8735],[79.8107,11.8732],[79.811,11.8732],[79.811,11.8729],[79.8115,11.8729],[79.8115,11.8726],[79.8121,11.8726],[79.8121,11.8724],[79.8129,11.8724],[79.8129,11.8721],[79.8143,11.8721],[79.8143,11.8718],[79.8146,11.8718],[79.8146,11.8721],[79.8149,11.8721],[79.8149,11.8718],[79.816,11.8718],[79.816,11.8715],[79.8162,11.8715],[79.8162,11.8713],[79.8165,11.8713],[79.8165,11.871],[79.8176,11.871],[79.8176,11.8713],[79.8185,11.8713],[79.8185,11.871],[79.8187,11.871],[79.8187,11.8707],[79.819,11.8707],[79.819,11.8701],[79.8193,11.8701],[79.8193,11.8699],[79.8196,11.8699],[79.8196,11.8696],[79.8199,11.8696],[79.8199,11.8693],[79.8196,11.8693],[79.8196,11.8682],[79.8193,11.8682],[79.8193,11.8674],[79.819,11.8674],[79.819,11.8668],[79.8187,11.8668],[79.8187,11.8663],[79.8185,11.8663],[79.8185,11.8657],[79.8182,11.8657],[79.8182,11.864],[79.8176,11.864],[79.8176,11.8635],[79.8174,11.8635],[79.8174,11.8632],[79.8171,11.8632],[79.8171,11.8626],[79.8168,11.8626],[79.8168,11.8618],[79.8165,11.8618],[79.8165,11.8612],[79.8162,11.8612],[79.8162,11.8604],[79.816,11.8604],[79.816,11.8596],[79.8163,11.8596],[79.8163,11.8593],[79.816,11.8593],[79.816,11.8588],[79.8157,11.8588],[79.8157,11.8582],[79.8154,11.8582],[79.8154,11.8574],[79.8151,11.8574],[79.8151,11.8565],[79.8149,11.8565],[79.8149,11.8557],[79.8146,11.8557],[79.8146,11.8554],[79.8143,11.8554],[79.8143,11.8551],[79.814,11.8551],[79.814,11.8546],[79.8138,11.8546],[79.8138,11.8543],[79.8135,11.8543],[79.8135,11.8535],[79.8129,11.8535],[79.8129,11.8532],[79.8126,11.8532],[79.8126,11.8526],[79.8124,11.8526],[79.8124,11.8518],[79.8121,11.8518],[79.8121,11.851],[79.8118,11.851],[79.8118,11.8504],[79.8115,11.8504],[79.8115,11.8496],[79.8112,11.8496],[79.8112,11.8487],[79.811,11.8488],[79.811,11.8482],[79.8107,11.8482],[79.8107,11.8474],[79.8104,11.8474],[79.8104,11.8465],[79.8101,11.8465],[79.8101,11.8451],[79.8104,11.8451],[79.8104,11.8443],[79.8101,11.8443],[79.8101,11.844],[79.8099,11.844],[79.8099,11.8438],[79.8096,11.8438],[79.8096,11.8435],[79.809,11.8435],[79.809,11.8432],[79.8093,11.8432],[79.8093,11.8421],[79.809,11.8421],[79.809,11.8418],[79.8087,11.8418],[79.8087,11.8399],[79.8085,11.8399],[79.8085,11.8393],[79.8082,11.8393],[79.8082,11.839],[79.8079,11.839],[79.8079,11.8388],[79.8076,11.8388],[79.8076,11.8382],[79.8074,11.8382],[79.8074,11.8376],[79.8076,11.8376],[79.8076,11.8365],[79.8071,11.8365],[79.8071,11.8368],[79.8063,11.8368],[79.8063,11.8376],[79.8065,11.8376],[79.8065,11.8379],[79.8068,11.8379],[79.8068,11.8385],[79.8065,11.8385],[79.8065,11.839],[79.8063,11.839],[79.8063,11.8396],[79.8057,11.8396],[79.8057,11.8393],[79.8018,11.8393],[79.8018,11.8418],[79.8012,11.8418],[79.8012,11.8415],[79.801,11.8415],[79.801,11.841],[79.8007,11.841],[79.8007,11.8407],[79.8004,11.8407],[79.8004,11.8404],[79.7999,11.8404],[79.7999,11.8401],[79.7996,11.8401],[79.7996,11.8393],[79.8004,11.8393],[79.8004,11.839],[79.801,11.839],[79.801,11.8388],[79.8012,11.8388],[79.8012,11.8382],[79.8015,11.8382],[79.8015,11.8374],[79.8018,11.8374],[79.8018,11.8363],[79.8021,11.8363],[79.8021,11.8351],[79.8024,11.8351],[79.8024,11.8346],[79.8029,11.8346],[79.8029,11.8343],[79.8032,11.8343],[79.8032,11.834],[79.804,11.834],[79.804,11.8338],[79.8051,11.8338],[79.8051,11.8335],[79.8054,11.8335],[79.8054,11.8329],[79.8057,11.8329],[79.8057,11.8324],[79.806,11.8324],[79.806,11.8282],[79.8057,11.8282],[79.8057,11.8279],[79.8054,11.8279],[79.8054,11.8276],[79.8057,11.8276],[79.8057,11.8274],[79.8054,11.8274],[79.8054,11.8268],[79.8051,11.8268],[79.8051,11.8246],[79.8046,11.8246],[79.8046,11.824],[79.8043,11.824],[79.8043,11.8235],[79.804,11.8235],[79.804,11.8221],[79.8037,11.8221],[79.8037,11.8218],[79.804,11.8218],[79.804,11.821],[79.8035,11.821],[79.8035,11.8204],[79.8032,11.8204],[79.8032,11.8199],[79.8029,11.8199],[79.8029,11.819],[79.8026,11.819],[79.8026,11.8168],[79.8024,11.8168],[79.8024,11.8165],[79.8021,11.8165],[79.8021,11.816],[79.8024,11.816],[79.8024,11.8149],[79.8021,11.8149],[79.8021,11.814],[79.8018,11.814],[79.8018,11.8124],[79.8015,11.8124],[79.8015,11.8121],[79.8012,11.8121],[79.8012,11.8112],[79.801,11.8112],[79.801,11.8104],[79.8007,11.8104],[79.8007,11.8101],[79.8004,11.8101],[79.8004,11.8084],[79.7968,11.8115],[79.794,11.8156],[79.793,11.8176],[79.7928,11.8195],[79.7918,11.827],[79.794,11.8302],[79.791,11.8318],[79.7879,11.8351],[79.7862,11.8384],[79.7818,11.8403],[79.7785,11.8388],[79.7671,11.8405],[79.7654,11.8333],[79.7636,11.8325],[79.7604,11.823],[79.7581,11.8221],[79.7521,11.8245],[79.7473,11.8327],[79.7487,11.8358],[79.7503,11.836],[79.7516,11.8417],[79.7539,11.8422],[79.7557,11.8505],[79.755,11.8578],[79.751,11.8589],[79.7498,11.8605],[79.7436,11.8597],[79.7434,11.8536],[79.7394,11.8499],[79.7384,11.835],[79.7278,11.8323],[79.7303,11.8469],[79.7182,11.8484],[79.718,11.8476],[79.7067,11.8471],[79.7038,11.8383],[79.6977,11.8524],[79.6935,11.8539],[79.6957,11.8734],[79.6905,11.8741],[79.6821,11.8734],[79.6804,11.8706],[79.6784,11.8696],[79.6732,11.87],[79.6709,11.8698],[79.6712,11.8666],[79.6591,11.8657],[79.6591,11.8721],[79.6604,11.8773],[79.6682,11.8763],[79.6687,11.8746],[79.6759,11.8793],[79.6799,11.8793],[79.6807,11.8819],[79.6799,11.8862],[79.6838,11.8875],[79.6823,11.8919],[79.6798,11.8934],[79.6829,11.9047],[79.7026,11.9025],[79.7025,11.8984],[79.6917,11.8978],[79.6915,11.8784],[79.7017,11.8765],[79.7044,11.8746],[79.7083,11.874],[79.7154,11.875],[79.7169,11.8768],[79.716,11.8867],[79.7175,11.8892],[79.7249,11.8915],[79.7041,11.913],[79.706,11.9287],[79.6965,11.9325],[79.6946,11.9313],[79.6945,11.9259],[79.6961,11.9201],[79.6978,11.9167],[79.6928,11.9212],[79.692,11.9245],[79.6902,11.9262],[79.6841,11.9272],[79.6782,11.9365],[79.6777,11.9394],[79.6815,11.9434],[79.6831,11.9465],[79.6854,11.9452],[79.6867,11.9473],[79.6932,11.9508],[79.7016,11.9522],[79.7019,11.9564],[79.6953,11.961],[79.6992,11.97],[79.6991,11.9721],[79.6948,11.9751],[79.69,11.9756],[79.6869,11.974],[79.6842,11.9747],[79.6811,11.9728],[79.6775,11.974],[79.6734,11.9724],[79.6711,11.9748],[79.6654,11.9675],[79.6614,11.9729],[79.6596,11.9771],[79.6512,11.972],[79.6442,11.9732],[79.6423,11.9758],[79.6443,11.9863],[79.6444,11.9863],[79.6443,11.9927],[79.647,11.9933],[79.6473,11.9972],[79.6524,11.9983],[79.6593,11.9969],[79.6633,12.0064],[79.6689,12.0073],[79.6715,12.0116],[79.6765,12.0129],[79.679,12.0193],[79.6916,12.0174],[79.6924,12.0111],[79.6905,12.0011]]],[[[75.3746,12.1491],[75.3784,12.146],[75.3885,12.1463],[75.3939,12.1455],[75.3998,12.1405],[75.4025,12.1368],[75.4022,12.1341],[75.3982,12.1299],[75.3922,12.1263],[75.3831,12.124],[75.3823,12.1291],[75.3799,12.1264],[75.3793,12.1221],[75.3755,12.1234],[75.3685,12.1213],[75.3659,12.1169],[75.3627,12.1161],[75.3579,12.1129],[75.3553,12.1094],[75.3519,12.1089],[75.3399,12.0983],[75.336,12.0986],[75.33,12.1026],[75.3282,12.1073],[75.3196,12.1067],[75.3129,12.1053],[75.3091,12.1027],[75.3096,12.0906],[75.3148,12.0876],[75.3092,12.0784],[75.2992,12.0668],[75.2974,12.0637],[75.2962,12.0592],[75.3007,12.058],[75.3048,12.0529],[75.3088,12.0538],[75.3117,12.0493],[75.3101,12.0493],[75.3101,12.049],[75.3099,12.049],[75.3099,12.0493],[75.3085,12.0493],[75.3085,12.049],[75.3082,12.049],[75.3082,12.0487],[75.3079,12.0487],[75.3079,12.0485],[75.3076,12.0485],[75.3076,12.0482],[75.3074,12.0482],[75.3074,12.0471],[75.3076,12.0471],[75.3076,12.0468],[75.3074,12.0468],[75.3074,12.046],[75.3071,12.046],[75.3071,12.0451],[75.3068,12.0451],[75.3068,12.0449],[75.3065,12.0449],[75.3065,12.0446],[75.3063,12.0446],[75.3063,12.044],[75.306,12.044],[75.306,12.0432],[75.3057,12.0432],[75.3057,12.0426],[75.3054,12.0426],[75.3054,12.0421],[75.3051,12.0421],[75.3051,12.0415],[75.3049,12.0415],[75.3049,12.0412],[75.3046,12.0412],[75.3046,12.0401],[75.3043,12.0401],[75.3043,12.039],[75.3046,12.039],[75.3046,12.0379],[75.3049,12.0379],[75.3049,12.0374],[75.3051,12.0374],[75.3051,12.0371],[75.3049,12.0371],[75.3049,12.0368],[75.3046,12.0368],[75.3046,12.0371],[75.304,12.0371],[75.304,12.0374],[75.3035,12.0374],[75.3035,12.0371],[75.3032,12.0371],[75.3032,12.0368],[75.3029,12.0368],[75.3029,12.0365],[75.3026,12.0365],[75.3026,12.0363],[75.3029,12.0363],[75.3029,12.0357],[75.3032,12.0357],[75.3032,12.0354],[75.3035,12.0354],[75.3035,12.0351],[75.3037,12.0351],[75.3037,12.034],[75.3035,12.034],[75.3035,12.0338],[75.3032,12.0338],[75.3032,12.0335],[75.3029,12.0335],[75.3029,12.0332],[75.3018,12.0332],[75.3018,12.0335],[75.3015,12.0335],[75.3015,12.0338],[75.301,12.0338],[75.301,12.0335],[75.3007,12.0335],[75.3007,12.0332],[75.3004,12.0332],[75.3004,12.0326],[75.3001,12.0326],[75.3001,12.0315],[75.2999,12.0315],[75.2999,12.0304],[75.2996,12.0304],[75.2996,12.0293],[75.2993,12.0293],[75.2993,12.0282],[75.2996,12.0282],[75.2996,12.0279],[75.2999,12.0279],[75.2999,12.0274],[75.3001,12.0274],[75.3001,12.0271],[75.3004,12.0271],[75.3004,12.0268],[75.3007,12.0268],[75.3007,12.0265],[75.301,12.0265],[75.301,12.026],[75.3012,12.026],[75.3012,12.0254],[75.3015,12.0254],[75.3015,12.0246],[75.301,12.0246],[75.301,12.0249],[75.2999,12.0249],[75.2999,12.0251],[75.299,12.0251],[75.299,12.0257],[75.2993,12.0257],[75.2993,12.0263],[75.299,12.0263],[75.299,12.0268],[75.2988,12.0268],[75.2988,12.0271],[75.2985,12.0271],[75.2985,12.0276],[75.2982,12.0276],[75.2982,12.0282],[75.2979,12.0282],[75.2979,12.0285],[75.2974,12.0285],[75.2974,12.0288],[75.2971,12.0288],[75.2971,12.029],[75.2965,12.029],[75.2965,12.0293],[75.2962,12.0293],[75.2962,12.0299],[75.296,12.0299],[75.296,12.0304],[75.2957,12.0304],[75.2957,12.0307],[75.2951,12.0307],[75.2951,12.031],[75.2949,12.031],[75.2949,12.0315],[75.2946,12.0315],[75.2946,12.0318],[75.2932,12.0318],[75.2932,12.0315],[75.2929,12.0315],[75.2929,12.0318],[75.2921,12.0318],[75.2921,12.0315],[75.2918,12.0315],[75.2918,12.0307],[75.2915,12.0307],[75.2915,12.0304],[75.2918,12.0304],[75.2918,12.0299],[75.2921,12.0299],[75.2921,12.0296],[75.2924,12.0296],[75.2924,12.0293],[75.2926,12.0293],[75.2926,12.029],[75.2929,12.029],[75.2929,12.0285],[75.2932,12.0285],[75.2932,12.0279],[75.2935,12.0279],[75.2935,12.0276],[75.294,12.0276],[75.294,12.0279],[75.2954,12.0279],[75.2954,12.0276],[75.2957,12.0276],[75.2957,12.0274],[75.2962,12.0274],[75.2962,12.0271],[75.2968,12.0271],[75.2968,12.0268],[75.2974,12.0268],[75.2974,12.0265],[75.2976,12.0265],[75.2976,12.026],[75.2974,12.026],[75.2974,12.0257],[75.2965,12.0257],[75.2965,12.0254],[75.2954,12.0254],[75.2954,12.0251],[75.2949,12.0251],[75.2949,12.0249],[75.2946,12.0249],[75.2946,12.0246],[75.2943,12.0246],[75.2943,12.0238],[75.294,12.0238],[75.294,12.0229],[75.2937,12.0229],[75.2937,12.0218],[75.294,12.0218],[75.294,12.0213],[75.2946,12.0213],[75.2946,12.021],[75.2949,12.021],[75.2949,12.0207],[75.2951,12.0207],[75.2951,12.0204],[75.2954,12.0204],[75.2954,12.0201],[75.2957,12.0201],[75.2957,12.0196],[75.296,12.0196],[75.296,12.019],[75.2962,12.019],[75.2962,12.0179],[75.296,12.0179],[75.296,12.0176],[75.2946,12.0176],[75.2946,12.0179],[75.294,12.0179],[75.294,12.0176],[75.2932,12.0176],[75.2932,12.0179],[75.2929,12.0179],[75.2929,12.0185],[75.2926,12.0185],[75.2926,12.019],[75.2924,12.019],[75.2924,12.0193],[75.2918,12.0193],[75.2918,12.0196],[75.2913,12.0196],[75.2913,12.0201],[75.291,12.0201],[75.291,12.0207],[75.2913,12.0207],[75.2913,12.0213],[75.2915,12.0212],[75.2915,12.0221],[75.291,12.0221],[75.291,12.0224],[75.2907,12.0224],[75.2907,12.0227],[75.2904,12.0226],[75.2904,12.0232],[75.2907,12.0232],[75.2907,12.0238],[75.291,12.0238],[75.291,12.024],[75.2913,12.024],[75.2913,12.0243],[75.2918,12.0243],[75.2918,12.0254],[75.2915,12.0254],[75.2915,12.026],[75.2913,12.026],[75.2913,12.0268],[75.2915,12.0268],[75.2915,12.0274],[75.2913,12.0274],[75.2913,12.0276],[75.291,12.0276],[75.291,12.0279],[75.2899,12.0279],[75.2899,12.0282],[75.2893,12.0282],[75.2893,12.0285],[75.289,12.0285],[75.289,12.0288],[75.2885,12.0288],[75.2885,12.029],[75.2871,12.029],[75.2871,12.0293],[75.2868,12.0293],[75.2868,12.0296],[75.2865,12.0296],[75.2865,12.0299],[75.286,12.0299],[75.286,12.0296],[75.2857,12.0296],[75.2857,12.0293],[75.2854,12.0293],[75.2854,12.0288],[75.2851,12.0288],[75.2851,12.0282],[75.2849,12.0282],[75.2849,12.0279],[75.2843,12.0279],[75.2843,12.0276],[75.2838,12.0276],[75.2838,12.0268],[75.284,12.0268],[75.284,12.0265],[75.2849,12.0265],[75.2849,12.0263],[75.2854,12.0263],[75.2854,12.026],[75.2857,12.026],[75.2857,12.0257],[75.286,12.0257],[75.286,12.0254],[75.2862,12.0254],[75.2862,12.0249],[75.2865,12.0249],[75.2865,12.0243],[75.2862,12.0243],[75.2862,12.0238],[75.286,12.0238],[75.286,12.024],[75.2854,12.024],[75.2854,12.0243],[75.2851,12.0243],[75.2851,12.0246],[75.2849,12.0246],[75.2849,12.0249],[75.2843,12.0249],[75.2843,12.0251],[75.284,12.0251],[75.284,12.0254],[75.2835,12.0254],[75.2835,12.0257],[75.2804,12.0257],[75.2804,12.0254],[75.2799,12.0254],[75.2799,12.0251],[75.2793,12.0251],[75.2793,12.0249],[75.2779,12.0249],[75.2779,12.0251],[75.2771,12.0251],[75.2771,12.0254],[75.2763,12.0254],[75.2763,12.0257],[75.2749,12.0257],[75.2749,12.026],[75.274,12.026],[75.274,12.0265],[75.2735,12.0265],[75.2735,12.0268],[75.2732,12.0268],[75.2732,12.0274],[75.2729,12.0274],[75.2729,12.0276],[75.2726,12.0276],[75.2726,12.0282],[75.2729,12.0282],[75.2729,12.0288],[75.2726,12.0288],[75.2726,12.0293],[75.2724,12.0293],[75.2724,12.0296],[75.271,12.0296],[75.271,12.0293],[75.2707,12.0293],[75.2707,12.029],[75.2704,12.029],[75.2704,12.0288],[75.2701,12.0288],[75.2701,12.0285],[75.2704,12.0285],[75.2704,12.0282],[75.2707,12.0282],[75.2707,12.0279],[75.271,12.0279],[75.271,12.0268],[75.2701,12.0268],[75.2701,12.0265],[75.2699,12.0265],[75.2699,12.0263],[75.2693,12.0263],[75.2693,12.0257],[75.2685,12.0257],[75.2685,12.0254],[75.2676,12.0254],[75.2676,12.0249],[75.2674,12.0249],[75.2674,12.024],[75.2671,12.024],[75.2671,12.0232],[75.2665,12.0232],[75.2665,12.0226],[75.2663,12.0227],[75.2663,12.0221],[75.266,12.0221],[75.266,12.0215],[75.2657,12.0215],[75.2657,12.021],[75.2654,12.021],[75.2654,12.0204],[75.2651,12.0204],[75.2651,12.0199],[75.2649,12.0199],[75.2649,12.0193],[75.2646,12.0193],[75.2646,12.0185],[75.2643,12.0185],[75.2643,12.0176],[75.264,12.0176],[75.264,12.0171],[75.2637,12.0171],[75.2637,12.016],[75.2635,12.016],[75.2635,12.0146],[75.2632,12.0146],[75.2632,12.0135],[75.2629,12.0135],[75.2629,12.0121],[75.2626,12.0121],[75.2626,12.009],[75.2624,12.009],[75.2624,12.0063],[75.2626,12.0063],[75.2626,12.0054],[75.2629,12.0054],[75.2629,12.0043],[75.2632,12.0043],[75.2632,12.0035],[75.2635,12.0035],[75.2635,12.0029],[75.2637,12.0029],[75.2637,12.0026],[75.264,12.0026],[75.264,12.0024],[75.2643,12.0024],[75.2643,12.0021],[75.2646,12.0021],[75.2646,12.0018],[75.2649,12.0018],[75.2649,12.0015],[75.2651,12.0015],[75.2651,12.0013],[75.2657,12.0013],[75.2657,12.001],[75.266,12.001],[75.266,12.0007],[75.2665,12.0007],[75.2665,12.0004],[75.2682,12.0004],[75.2682,12.0001],[75.2688,12.0001],[75.2688,11.9999],[75.2693,11.9999],[75.2693,11.9996],[75.2701,11.9996],[75.2701,11.9993],[75.2707,11.9993],[75.2707,11.9987],[75.271,11.9987],[75.271,11.9985],[75.2715,11.9985],[75.2715,11.9982],[75.2721,11.9982],[75.2721,11.9979],[75.2724,11.9979],[75.2724,11.9974],[75.2729,11.9974],[75.2729,11.9968],[75.2732,11.9968],[75.2732,11.9963],[75.2738,11.9963],[75.2738,11.996],[75.2743,11.996],[75.2743,11.9957],[75.2746,11.9957],[75.2746,11.9951],[75.2749,11.9951],[75.2749,11.9949],[75.2751,11.9949],[75.2751,11.9946],[75.2757,11.9946],[75.2757,11.9937],[75.276,11.9937],[75.276,11.9935],[75.2763,11.9935],[75.2763,11.9932],[75.2765,11.9932],[75.2765,11.9929],[75.2768,11.9929],[75.2768,11.9923],[75.2774,11.9924],[75.2774,11.9918],[75.2776,11.9918],[75.2776,11.9915],[75.2779,11.9915],[75.2779,11.9913],[75.2782,11.9913],[75.2782,11.9907],[75.2785,11.9907],[75.2785,11.9904],[75.2787,11.9904],[75.2787,11.9901],[75.279,11.9901],[75.279,11.9899],[75.2793,11.9899],[75.2793,11.9893],[75.2796,11.9893],[75.2796,11.989],[75.2801,11.989],[75.2801,11.9887],[75.2804,11.9887],[75.2804,11.9882],[75.2807,11.9882],[75.2807,11.9879],[75.281,11.9879],[75.281,11.9876],[75.2813,11.9876],[75.2813,11.9874],[75.2815,11.9874],[75.2815,11.9871],[75.2818,11.9871],[75.2818,11.9868],[75.2821,11.9868],[75.2821,11.9863],[75.2824,11.9863],[75.2824,11.9857],[75.2826,11.9857],[75.2826,11.9854],[75.2829,11.9854],[75.2829,11.9851],[75.2832,11.9851],[75.2832,11.984],[75.2835,11.984],[75.2835,11.9835],[75.2838,11.9835],[75.2838,11.9832],[75.284,11.9832],[75.284,11.9826],[75.2843,11.9826],[75.2843,11.9821],[75.2846,11.9821],[75.2846,11.9818],[75.2843,11.9818],[75.2843,11.9815],[75.2846,11.9815],[75.2846,11.981],[75.2849,11.981],[75.2849,11.9804],[75.2851,11.9804],[75.2851,11.9796],[75.2854,11.9796],[75.2854,11.9788],[75.2857,11.9788],[75.2857,11.9779],[75.286,11.9779],[75.286,11.9771],[75.2861,11.9771],[75.2865,11.9771],[75.2865,11.9763],[75.2868,11.9763],[75.2868,11.976],[75.2871,11.976],[75.2871,11.9757],[75.2874,11.9757],[75.2874,11.9751],[75.2876,11.9751],[75.2876,11.9749],[75.2879,11.9749],[75.2879,11.974],[75.2885,11.974],[75.2885,11.9735],[75.2887,11.9735],[75.2887,11.9732],[75.2885,11.9732],[75.2885,11.9726],[75.2887,11.9726],[75.2887,11.9724],[75.289,11.9724],[75.289,11.9712],[75.2893,11.9712],[75.2893,11.971],[75.2896,11.971],[75.2896,11.9704],[75.2899,11.9704],[75.2899,11.9699],[75.2901,11.9699],[75.2901,11.9693],[75.2904,11.9693],[75.2904,11.969],[75.2907,11.969],[75.2907,11.9682],[75.291,11.9682],[75.291,11.9679],[75.2913,11.9679],[75.2913,11.9671],[75.2918,11.9671],[75.2918,11.9665],[75.2921,11.9665],[75.2921,11.9663],[75.2924,11.9663],[75.2924,11.9657],[75.2926,11.9657],[75.2926,11.9654],[75.2929,11.9654],[75.2929,11.9651],[75.2932,11.9651],[75.2932,11.9649],[75.2937,11.9649],[75.2937,11.9643],[75.294,11.9643],[75.294,11.9638],[75.2943,11.9638],[75.2943,11.9635],[75.2949,11.9635],[75.2949,11.9632],[75.2951,11.9632],[75.2951,11.9629],[75.2954,11.9629],[75.2954,11.9626],[75.2957,11.9626],[75.2957,11.9624],[75.296,11.9624],[75.296,11.9621],[75.2962,11.9621],[75.2962,11.9615],[75.2965,11.9615],[75.2965,11.961],[75.2971,11.961],[75.2971,11.9607],[75.2974,11.9607],[75.2974,11.9604],[75.2976,11.9604],[75.2976,11.9601],[75.2979,11.9601],[75.2979,11.9599],[75.2985,11.9599],[75.2985,11.9596],[75.2988,11.9596],[75.2988,11.9593],[75.299,11.9593],[75.299,11.959],[75.2996,11.959],[75.2996,11.9585],[75.2999,11.9585],[75.2999,11.9582],[75.3001,11.9582],[75.3001,11.9579],[75.3004,11.9579],[75.3004,11.9576],[75.3007,11.9576],[75.3007,11.9574],[75.301,11.9574],[75.301,11.9571],[75.3012,11.9571],[75.3012,11.9568],[75.3015,11.9568],[75.3015,11.9565],[75.3018,11.9565],[75.3018,11.9562],[75.3021,11.9563],[75.3021,11.9557],[75.3024,11.9557],[75.3024,11.9554],[75.3026,11.9554],[75.3026,11.9549],[75.3029,11.9549],[75.3029,11.9543],[75.3032,11.9543],[75.3032,11.954],[75.3035,11.954],[75.3035,11.9535],[75.3037,11.9535],[75.3037,11.9532],[75.304,11.9532],[75.304,11.9526],[75.3043,11.9526],[75.3043,11.9524],[75.3046,11.9524],[75.3046,11.9518],[75.3049,11.9518],[75.3049,11.9513],[75.3046,11.9513],[75.3046,11.9507],[75.3043,11.9507],[75.3043,11.9504],[75.304,11.9504],[75.304,11.9499],[75.3037,11.9499],[75.3037,11.9496],[75.3032,11.9496],[75.3032,11.9493],[75.3029,11.9493],[75.3029,11.949],[75.3024,11.949],[75.3024,11.9488],[75.3021,11.9488],[75.3021,11.9485],[75.301,11.9485],[75.301,11.9482],[75.2999,11.9482],[75.2999,11.9479],[75.2989,11.9479],[75.2988,11.9479],[75.2988,11.9482],[75.2985,11.9482],[75.2985,11.9485],[75.2982,11.9485],[75.2982,11.949],[75.2974,11.949],[75.2974,11.9488],[75.2971,11.9488],[75.2971,11.9485],[75.2968,11.9485],[75.2968,11.9482],[75.2962,11.9482],[75.2962,11.9479],[75.296,11.9479],[75.296,11.9482],[75.2957,11.9482],[75.2957,11.9485],[75.2954,11.9485],[75.2954,11.9488],[75.2951,11.9488],[75.2951,11.9493],[75.2949,11.9493],[75.2949,11.9496],[75.2946,11.9496],[75.2946,11.9499],[75.2943,11.9499],[75.2943,11.9507],[75.2937,11.9507],[75.2937,11.951],[75.2935,11.951],[75.2935,11.9513],[75.2929,11.9513],[75.2929,11.9515],[75.2926,11.9515],[75.2926,11.9518],[75.2924,11.9518],[75.2924,11.9521],[75.2921,11.9521],[75.2921,11.9524],[75.2918,11.9524],[75.2918,11.9529],[75.2913,11.9529],[75.2913,11.9532],[75.291,11.9532],[75.291,11.9535],[75.2907,11.9535],[75.2907,11.9538],[75.2901,11.9538],[75.2901,11.954],[75.2896,11.954],[75.2896,11.9543],[75.2893,11.9543],[75.2893,11.9549],[75.289,11.9549],[75.289,11.9551],[75.2887,11.9551],[75.2887,11.9554],[75.2885,11.9554],[75.2885,11.9557],[75.2882,11.9557],[75.2882,11.956],[75.2879,11.956],[75.2879,11.9563],[75.2876,11.9562],[75.2876,11.9568],[75.2874,11.9568],[75.2874,11.9574],[75.2871,11.9574],[75.2871,11.9576],[75.2868,11.9576],[75.2868,11.9582],[75.2865,11.9582],[75.2865,11.9585],[75.2862,11.9585],[75.2862,11.959],[75.286,11.959],[75.286,11.9596],[75.2857,11.9596],[75.2857,11.9599],[75.2854,11.9599],[75.2854,11.9601],[75.2851,11.9601],[75.2851,11.9607],[75.2846,11.9607],[75.2846,11.9612],[75.2843,11.9612],[75.2843,11.9618],[75.284,11.9618],[75.284,11.9624],[75.2838,11.9624],[75.2838,11.9626],[75.2835,11.9626],[75.2835,11.9629],[75.2832,11.9629],[75.2832,11.9635],[75.2829,11.9635],[75.2829,11.9638],[75.2826,11.9638],[75.2826,11.964],[75.2824,11.964],[75.2824,11.9646],[75.2821,11.9646],[75.2821,11.9651],[75.2815,11.9651],[75.2815,11.966],[75.281,11.966],[75.281,11.9665],[75.2807,11.9665],[75.2807,11.9668],[75.2804,11.9668],[75.2804,11.9674],[75.2801,11.9674],[75.2801,11.9679],[75.2799,11.9679],[75.2799,11.969],[75.2796,11.969],[75.2796,11.9696],[75.279,11.9696],[75.279,11.9699],[75.2787,11.9699],[75.2787,11.9701],[75.2782,11.9701],[75.2782,11.9707],[75.2779,11.9707],[75.2779,11.971],[75.2776,11.971],[75.2776,11.9715],[75.2774,11.9715],[75.2774,11.9721],[75.2771,11.9721],[75.2771,11.9724],[75.2768,11.9724],[75.2768,11.9729],[75.2763,11.9729],[75.2763,11.9732],[75.276,11.9732],[75.276,11.9738],[75.2757,11.9738],[75.2757,11.9743],[75.2754,11.9743],[75.2754,11.9749],[75.2751,11.9749],[75.2751,11.9751],[75.2749,11.9751],[75.2749,11.9754],[75.2746,11.9754],[75.2746,11.9757],[75.2743,11.9757],[75.2743,11.9763],[75.274,11.9763],[75.274,11.9765],[75.2738,11.9765],[75.2738,11.9771],[75.2735,11.9771],[75.2735,11.9776],[75.2732,11.9776],[75.2732,11.9779],[75.2726,11.9779],[75.2726,11.9785],[75.2724,11.9785],[75.2724,11.979],[75.2718,11.979],[75.2718,11.9796],[75.2715,11.9796],[75.2715,11.9799],[75.2712,11.9799],[75.2712,11.9804],[75.271,11.9804],[75.271,11.981],[75.2707,11.981],[75.2707,11.9812],[75.2704,11.9812],[75.2704,11.9818],[75.2701,11.9818],[75.2701,11.9821],[75.2699,11.9821],[75.2699,11.9824],[75.2693,11.9824],[75.2693,11.9826],[75.269,11.9826],[75.269,11.9832],[75.2688,11.9832],[75.2688,11.9838],[75.2685,11.9838],[75.2685,11.9843],[75.2682,11.9843],[75.2682,11.9846],[75.2676,11.9846],[75.2676,11.9851],[75.2674,11.9851],[75.2674,11.9854],[75.2671,11.9854],[75.2671,11.986],[75.2668,11.986],[75.2668,11.9863],[75.2665,11.9863],[75.2665,11.9865],[75.2663,11.9865],[75.2663,11.9868],[75.266,11.9868],[75.266,11.9871],[75.2657,11.9871],[75.2657,11.9874],[75.2651,11.9874],[75.2651,11.9879],[75.2649,11.9879],[75.2649,11.9885],[75.2643,11.9885],[75.2643,11.9887],[75.264,11.9887],[75.264,11.9893],[75.2637,11.9893],[75.2637,11.9899],[75.2635,11.9899],[75.2635,11.9901],[75.2629,11.9901],[75.2629,11.9907],[75.2624,11.9907],[75.2624,11.9913],[75.2621,11.9913],[75.2621,11.9918],[75.2618,11.9918],[75.2618,11.9921],[75.2615,11.9921],[75.2615,11.9926],[75.2613,11.9926],[75.2613,11.9929],[75.261,11.9929],[75.261,11.9932],[75.2607,11.9932],[75.2607,11.9935],[75.2604,11.9935],[75.2604,11.9937],[75.2601,11.9937],[75.2601,11.9943],[75.2596,11.9943],[75.2596,11.9951],[75.2593,11.9951],[75.2593,11.9954],[75.259,11.9954],[75.259,11.9957],[75.2588,11.9957],[75.2588,11.9963],[75.2585,11.9963],[75.2585,11.9965],[75.2582,11.9965],[75.2582,11.9971],[75.2576,11.9971],[75.2576,11.9976],[75.2574,11.9976],[75.2574,11.9979],[75.2571,11.9979],[75.2571,11.9985],[75.2568,11.9985],[75.2568,11.9987],[75.2565,11.9987],[75.2565,11.9993],[75.2562,11.9993],[75.2562,11.9996],[75.256,11.9996],[75.256,12.0001],[75.2554,12.0001],[75.2554,12.0004],[75.2551,12.0004],[75.2551,12.0007],[75.2549,12.0007],[75.2549,12.0013],[75.2543,12.0013],[75.2543,12.0018],[75.254,12.0018],[75.254,12.0021],[75.2537,12.0021],[75.2537,12.0026],[75.2532,12.0026],[75.2532,12.0029],[75.2529,12.0029],[75.2529,12.0035],[75.2526,12.0035],[75.2526,12.004],[75.2521,12.004],[75.2521,12.0046],[75.2518,12.0046],[75.2518,12.0049],[75.2515,12.0049],[75.2515,12.0051],[75.2513,12.0051],[75.2513,12.0057],[75.251,12.0057],[75.251,12.0063],[75.2504,12.0063],[75.2504,12.0065],[75.2499,12.0065],[75.2499,12.0071],[75.2496,12.0071],[75.2496,12.0074],[75.2495,12.0074],[75.2493,12.0074],[75.2493,12.0079],[75.2487,12.0079],[75.2487,12.0082],[75.2485,12.0082],[75.2485,12.0088],[75.2482,12.0088],[75.2482,12.009],[75.2477,12.009],[75.2477,12.0093],[75.2474,12.0093],[75.2474,12.0099],[75.2471,12.0099],[75.2471,12.0104],[75.2468,12.0104],[75.2468,12.0107],[75.2462,12.0107],[75.2462,12.011],[75.2457,12.011],[75.2457,12.0115],[75.2454,12.0115],[75.2454,12.0118],[75.2449,12.0118],[75.2449,12.0124],[75.2443,12.0124],[75.2443,12.0126],[75.244,12.0126],[75.244,12.0129],[75.2438,12.0129],[75.2438,12.0132],[75.2435,12.0132],[75.2435,12.0135],[75.2432,12.0135],[75.2432,12.0138],[75.2429,12.0138],[75.2429,12.0143],[75.2424,12.0143],[75.2424,12.0146],[75.2418,12.0146],[75.2418,12.0149],[75.2412,12.0149],[75.2412,12.0154],[75.2407,12.0154],[75.2407,12.0157],[75.2404,12.0157],[75.2404,12.016],[75.2399,12.016],[75.2399,12.0162],[75.2396,12.0162],[75.2396,12.0165],[75.2393,12.0165],[75.2393,12.0168],[75.2387,12.0168],[75.2387,12.0171],[75.2385,12.0171],[75.2382,12.0171],[75.2382,12.0172],[75.2382,12.0174],[75.2379,12.0174],[75.2379,12.0176],[75.2374,12.0176],[75.2374,12.0179],[75.2368,12.0179],[75.2368,12.0182],[75.2365,12.0182],[75.2365,12.0185],[75.236,12.0185],[75.236,12.0188],[75.2357,12.0188],[75.2357,12.019],[75.2351,12.019],[75.2351,12.0193],[75.2343,12.0193],[75.2343,12.0196],[75.2337,12.0196],[75.2337,12.0199],[75.2335,12.0199],[75.2335,12.0201],[75.2332,12.0201],[75.2332,12.0204],[75.2329,12.0204],[75.2329,12.0207],[75.2326,12.0207],[75.2326,12.021],[75.2324,12.021],[75.2324,12.0227],[75.2321,12.0227],[75.2321,12.0229],[75.2324,12.0229],[75.2324,12.0235],[75.2321,12.0235],[75.2321,12.0238],[75.2318,12.0238],[75.2318,12.024],[75.2307,12.024],[75.2307,12.0241],[75.2311,12.0246],[75.2249,12.0319],[75.2274,12.0443],[75.2237,12.0545],[75.2231,12.0644],[75.2242,12.0744],[75.2223,12.0782],[75.2225,12.0856],[75.2211,12.101],[75.2231,12.1048],[75.2366,12.1102],[75.2405,12.1093],[75.2434,12.1047],[75.2474,12.1037],[75.2559,12.1086],[75.2599,12.1089],[75.266,12.1037],[75.2745,12.1003],[75.2778,12.1018],[75.282,12.1091],[75.2839,12.115],[75.2928,12.1161],[75.3107,12.1247],[75.3099,12.132],[75.3112,12.1365],[75.3143,12.1401],[75.3206,12.1435],[75.3252,12.1449],[75.3311,12.1452],[75.3352,12.144],[75.3419,12.1372],[75.3462,12.1386],[75.3478,12.1353],[75.3636,12.135],[75.3667,12.1354],[75.3683,12.1401],[75.3715,12.1426],[75.372,12.1465],[75.3746,12.1491]]],[[[82.2657,16.7029],[82.2657,16.7026],[82.2679,16.7026],[82.2679,16.7024],[82.2701,16.7024],[82.2701,16.7021],[82.2707,16.7021],[82.2707,16.7018],[82.2718,16.7018],[82.2718,16.7015],[82.2732,16.7015],[82.2732,16.7013],[82.274,16.7013],[82.274,16.701],[82.2751,16.701],[82.2751,16.7007],[82.276,16.7007],[82.276,16.7004],[82.2771,16.7004],[82.2771,16.7001],[82.2779,16.7001],[82.2779,16.6999],[82.2787,16.6999],[82.2787,16.6996],[82.2793,16.6996],[82.2793,16.6993],[82.2804,16.6993],[82.2804,16.699],[82.2812,16.699],[82.2812,16.6987],[82.2824,16.6987],[82.2824,16.6985],[82.2832,16.6985],[82.2832,16.6982],[82.2846,16.6982],[82.2846,16.6979],[82.2851,16.6979],[82.2851,16.6976],[82.2854,16.6976],[82.2852,16.6974],[82.2763,16.6931],[82.2647,16.6905],[82.2588,16.6901],[82.2588,16.6907],[82.2585,16.6907],[82.2585,16.6918],[82.2582,16.6918],[82.2582,16.6921],[82.2579,16.6921],[82.2579,16.6929],[82.2576,16.6929],[82.2576,16.6974],[82.2574,16.6974],[82.2574,16.6979],[82.2576,16.6979],[82.2576,16.6982],[82.2579,16.6982],[82.2579,16.7018],[82.2593,16.7018],[82.2593,16.7021],[82.2607,16.7021],[82.2607,16.7024],[82.2624,16.7024],[82.2624,16.7026],[82.2629,16.7026],[82.2629,16.7029],[82.2657,16.7029]]],[[[82.211,16.7279],[82.2148,16.7252],[82.2204,16.7183],[82.227,16.7172],[82.2449,16.719],[82.2637,16.7194],[82.2807,16.7227],[82.2851,16.7345],[82.2891,16.741],[82.2937,16.743],[82.2977,16.7404],[82.3011,16.7333],[82.3028,16.7228],[82.2995,16.7143],[82.2994,16.7141],[82.2994,16.714],[82.2993,16.7139],[82.2993,16.7138],[82.299,16.7138],[82.299,16.7135],[82.2985,16.7135],[82.2985,16.7129],[82.2982,16.7129],[82.2982,16.7124],[82.2976,16.7124],[82.2976,16.7118],[82.2974,16.7118],[82.2974,16.7115],[82.2971,16.7115],[82.2971,16.7113],[82.2968,16.7113],[82.2968,16.711],[82.2965,16.711],[82.2965,16.7104],[82.2962,16.7104],[82.2962,16.7101],[82.296,16.7101],[82.296,16.7099],[82.2954,16.7099],[82.2954,16.7096],[82.2951,16.7096],[82.2951,16.7093],[82.2949,16.7093],[82.2949,16.709],[82.2946,16.709],[82.2946,16.7088],[82.2943,16.7088],[82.2943,16.7085],[82.294,16.7085],[82.294,16.7082],[82.2935,16.7082],[82.2935,16.7079],[82.2921,16.7079],[82.2921,16.7076],[82.2913,16.7076],[82.2913,16.7074],[82.2885,16.7074],[82.2885,16.7071],[82.2879,16.7071],[82.2879,16.7074],[82.2871,16.7074],[82.2871,16.7071],[82.2862,16.7071],[82.2862,16.7074],[82.2857,16.7074],[82.2857,16.7076],[82.2807,16.7076],[82.2807,16.7079],[82.2793,16.7079],[82.2793,16.7082],[82.2718,16.7082],[82.2718,16.7085],[82.2707,16.7085],[82.2707,16.709],[82.2701,16.709],[82.2701,16.7093],[82.2696,16.7093],[82.2696,16.7096],[82.2693,16.7096],[82.2693,16.7099],[82.269,16.7099],[82.269,16.7101],[82.2688,16.7101],[82.2688,16.7104],[82.2685,16.7104],[82.2685,16.7107],[82.2679,16.7107],[82.2679,16.7113],[82.2674,16.7113],[82.2674,16.7115],[82.2665,16.7115],[82.2665,16.7118],[82.2663,16.7118],[82.2663,16.7121],[82.2654,16.7121],[82.2654,16.7124],[82.2651,16.7124],[82.2651,16.7126],[82.2649,16.7126],[82.2649,16.7129],[82.2646,16.7129],[82.2646,16.7132],[82.2643,16.7132],[82.2643,16.7135],[82.2637,16.7135],[82.2637,16.7138],[82.2632,16.7138],[82.2632,16.714],[82.2626,16.714],[82.2626,16.7143],[82.2621,16.7143],[82.2621,16.7146],[82.2615,16.7146],[82.2615,16.7149],[82.2613,16.7149],[82.2613,16.7151],[82.2604,16.7151],[82.2604,16.7154],[82.2596,16.7154],[82.2596,16.7157],[82.2588,16.7157],[82.2588,16.716],[82.2582,16.716],[82.2582,16.7162],[82.2576,16.7162],[82.2576,16.7165],[82.2571,16.7165],[82.2571,16.7168],[82.256,16.7168],[82.256,16.7171],[82.2546,16.7171],[82.2546,16.7174],[82.2535,16.7174],[82.2535,16.7176],[82.2513,16.7176],[82.2513,16.7179],[82.2507,16.7179],[82.2507,16.7176],[82.249,16.7176],[82.249,16.7174],[82.2485,16.7174],[82.2485,16.7171],[82.2462,16.7171],[82.2462,16.7168],[82.2457,16.7168],[82.2457,16.716],[82.2454,16.716],[82.2454,16.7151],[82.2451,16.7151],[82.2451,16.714],[82.2449,16.714],[82.2449,16.7132],[82.2446,16.7132],[82.2446,16.7124],[82.2443,16.7124],[82.2443,16.7113],[82.244,16.7113],[82.244,16.7104],[82.2438,16.7104],[82.2438,16.7093],[82.2435,16.7093],[82.2435,16.7088],[82.2432,16.7088],[82.2432,16.7085],[82.2429,16.7085],[82.2429,16.7082],[82.2426,16.7082],[82.2426,16.7076],[82.2429,16.7076],[82.2429,16.7079],[82.2435,16.7079],[82.2435,16.7076],[82.244,16.7076],[82.244,16.7074],[82.2443,16.7074],[82.2443,16.7071],[82.2446,16.7071],[82.2446,16.7068],[82.2449,16.7068],[82.2449,16.7065],[82.246,16.7065],[82.246,16.7062],[82.2462,16.7062],[82.2462,16.706],[82.2465,16.706],[82.2465,16.7057],[82.2474,16.7057],[82.2474,16.7054],[82.2476,16.7054],[82.2476,16.7051],[82.2479,16.7051],[82.2479,16.7049],[82.2482,16.7049],[82.2482,16.7043],[82.2485,16.7043],[82.2485,16.704],[82.2487,16.704],[82.2487,16.7038],[82.249,16.7038],[82.249,16.7035],[82.2493,16.7035],[82.2493,16.7029],[82.2496,16.7029],[82.2496,16.7026],[82.2499,16.7026],[82.2499,16.7021],[82.2501,16.7021],[82.2501,16.7018],[82.2504,16.7018],[82.2504,16.7015],[82.2507,16.7015],[82.2507,16.7013],[82.251,16.7013],[82.251,16.701],[82.2513,16.701],[82.2513,16.7007],[82.2515,16.7007],[82.2515,16.7004],[82.2518,16.7004],[82.2518,16.7001],[82.2521,16.7001],[82.2521,16.6999],[82.2524,16.6999],[82.2524,16.6996],[82.2526,16.6996],[82.2526,16.699],[82.2532,16.699],[82.2532,16.6987],[82.2537,16.6987],[82.2537,16.6985],[82.254,16.6985],[82.254,16.6979],[82.2543,16.6979],[82.2543,16.6974],[82.2546,16.6974],[82.2546,16.6971],[82.2549,16.6971],[82.2549,16.6965],[82.2551,16.6965],[82.2551,16.696],[82.2554,16.696],[82.2554,16.6957],[82.2557,16.6957],[82.2557,16.6954],[82.256,16.6954],[82.256,16.6951],[82.2562,16.6951],[82.2562,16.6949],[82.2565,16.6949],[82.2565,16.6946],[82.2568,16.6946],[82.2568,16.6943],[82.2565,16.6943],[82.2565,16.6935],[82.2571,16.6935],[82.2571,16.6924],[82.2574,16.6924],[82.2574,16.6915],[82.2576,16.6915],[82.2576,16.6901],[82.2534,16.6897],[82.2465,16.6914],[82.2274,16.7047],[82.2154,16.7098],[82.2025,16.7077],[82.1936,16.7085],[82.1791,16.7163],[82.1746,16.7251],[82.1803,16.7281],[82.1888,16.7272],[82.1968,16.7365],[82.2072,16.7437],[82.2111,16.7482],[82.2177,16.7517],[82.2218,16.7504],[82.2198,16.7449],[82.21,16.7313],[82.211,16.7279]]]]}}]}