{"type":"FeatureCollection","name":"Punjab","crs":{"type":"name","properties":{"name":"urn:ogc:def:crs:OGC:1.3:CRS84"}},"features":[{"type":"Feature","properties":{"ID_0":105,"ISO":"IND","NAME_0":"India","ID_1":28,"NAME_1":"Punjab","TYPE_1":"State","ENGTYPE_1":"State","NL_NAME_1":null,"VARNAME_1":null},"geometry":{"type":"Polygon","coordinates":[[[75.8688,32.4887],[75.8871,32.472],[75.8954,32.4619],[75.9155,32.4487],[75.9244,32.439],[75.9314,32.4308],[75.9346,32.4248],[75.9322,32.4168],[75.9259,32.4118],[75.9154,32.4103],[75.9111,32.4092],[75.8719,32.3984],[75.8663,32.3946],[75.8439,32.3793],[75.8374,32.373],[75.8189,32.355],[75.8139,32.3506],[75.7993,32.3374],[75.7937,32.3324],[75.7855,32.3238],[75.7831,32.3222],[75.7634,32.3022],[75.7619,32.2961],[75.7547,32.2861],[75.7518,32.2842],[75.7364,32.2738],[75.7049,32.2672],[75.6849,32.265],[75.6758,32.264],[75.6549,32.2559],[75.6524,32.2554],[75.6409,32.2474],[75.6341,32.2447],[75.6225,32.2347],[75.6218,32.23],[75.6201,32.2202],[75.6183,32.197],[75.6194,32.1898],[75.6202,32.1852],[75.6496,32.1797],[75.6562,32.1766],[75.6618,32.1647],[75.6555,32.1461],[75.6479,32.1377],[75.6312,32.1195],[75.6106,32.0996],[75.5788,32.0817],[75.5985,32.066],[75.6096,32.0695],[75.6253,32.0727],[75.6401,32.0767],[75.6494,32.0772],[75.6731,32.0669],[75.6898,32.0615],[75.6923,32.0595],[75.7004,32.0436],[75.7105,32.036],[75.7232,32.0362],[75.734,32.0373],[75.738,32.0358],[75.74,32.0345],[75.7484,32.0272],[75.7538,32.0199],[75.7615,32.0139],[75.7664,32.0076],[75.7743,32.0008],[75.7843,31.9943],[75.7951,31.9886],[75.8056,31.985],[75.814,31.9834],[75.8364,31.9816],[75.8416,31.9736],[75.8513,31.9725],[75.8568,31.9695],[75.8662,31.9688],[75.8685,31.9669],[75.8697,31.966],[75.8777,31.962],[75.8945,31.9498],[75.896,31.9403],[75.9028,31.9279],[75.9127,31.9166],[75.9262,31.8898],[75.9314,31.8838],[75.9384,31.8679],[75.9443,31.8575],[75.9497,31.8481],[75.9536,31.84],[75.9558,31.8324],[75.9676,31.8235],[75.9709,31.8192],[75.9715,31.8145],[75.967,31.8149],[75.9603,31.8185],[75.9529,31.824],[75.9488,31.8231],[75.9361,31.8183],[75.9333,31.815],[75.9293,31.8152],[75.9268,31.8164],[75.9218,31.8172],[75.9272,31.8051],[75.933,31.7971],[75.9358,31.7897],[75.9364,31.7843],[75.9451,31.7813],[75.9519,31.763],[75.9595,31.7495],[75.9597,31.7443],[75.9576,31.7405],[75.961,31.7368],[75.966,31.7335],[75.9694,31.7197],[75.9726,31.7152],[75.9774,31.705],[75.9758,31.6953],[75.9856,31.6854],[75.9907,31.6847],[75.991,31.6858],[75.9921,31.6845],[75.9947,31.6815],[75.9974,31.676],[75.9974,31.6689],[76.0047,31.663],[76.0039,31.6569],[76.0062,31.6514],[76.0027,31.6466],[76.0176,31.6217],[76.0232,31.6155],[76.0314,31.6095],[76.0367,31.6068],[76.04,31.6085],[76.044,31.603],[76.0427,31.5959],[76.0432,31.592],[76.0515,31.5818],[76.0649,31.5618],[76.066,31.5605],[76.0716,31.5541],[76.0768,31.546],[76.084,31.5372],[76.089,31.5276],[76.0906,31.519],[76.0946,31.5142],[76.1041,31.5023],[76.1082,31.4951],[76.108,31.4822],[76.1147,31.4735],[76.1155,31.4654],[76.1213,31.461],[76.1226,31.4537],[76.1282,31.4438],[76.1351,31.4375],[76.1435,31.4323],[76.1471,31.4256],[76.1471,31.4188],[76.1535,31.414],[76.1567,31.4045],[76.153,31.3973],[76.1471,31.3919],[76.1386,31.3869],[76.1341,31.3826],[76.135,31.3618],[76.1396,31.3531],[76.1477,31.3481],[76.1581,31.3469],[76.1663,31.3415],[76.1661,31.3262],[76.1685,31.3141],[76.1728,31.3067],[76.1857,31.3047],[76.2064,31.3053],[76.215,31.3076],[76.2232,31.3131],[76.2441,31.3137],[76.2556,31.315],[76.2612,31.3058],[76.2684,31.3066],[76.2774,31.3099],[76.2844,31.3136],[76.2904,31.3156],[76.2961,31.3192],[76.3023,31.3264],[76.296,31.3422],[76.2999,31.3438],[76.3158,31.3475],[76.3178,31.3522],[76.3245,31.3471],[76.3301,31.3453],[76.3367,31.353],[76.3313,31.3591],[76.33,31.3677],[76.3296,31.3795],[76.3182,31.3811],[76.3188,31.3882],[76.3158,31.4024],[76.3295,31.4011],[76.3346,31.4037],[76.3469,31.4057],[76.3531,31.4125],[76.3591,31.4156],[76.3568,31.4296],[76.3631,31.4414],[76.3692,31.4281],[76.3753,31.4222],[76.373,31.4136],[76.3816,31.4106],[76.3904,31.3973],[76.3792,31.3912],[76.3911,31.3786],[76.3992,31.3655],[76.4088,31.3537],[76.4128,31.3477],[76.4182,31.3373],[76.428,31.3252],[76.4374,31.3174],[76.4483,31.306],[76.4456,31.3004],[76.4358,31.2946],[76.4285,31.2892],[76.4311,31.2828],[76.4458,31.2897],[76.451,31.2962],[76.4621,31.3068],[76.4667,31.3102],[76.4725,31.3067],[76.4751,31.299],[76.4756,31.2922],[76.4797,31.2891],[76.4832,31.2843],[76.4886,31.2734],[76.4982,31.2733],[76.5034,31.2779],[76.5109,31.2826],[76.5143,31.2831],[76.5166,31.2774],[76.5143,31.2645],[76.5181,31.2623],[76.5279,31.27],[76.5312,31.2835],[76.5372,31.284],[76.5348,31.2723],[76.5326,31.2665],[76.535,31.2554],[76.5459,31.2559],[76.5522,31.2649],[76.5705,31.2801],[76.6016,31.2509],[76.5927,31.2462],[76.5847,31.2396],[76.5825,31.2309],[76.576,31.2258],[76.5794,31.2205],[76.5806,31.2164],[76.5868,31.2161],[76.6163,31.2294],[76.6259,31.2271],[76.6245,31.221],[76.6341,31.2153],[76.6354,31.213],[76.6201,31.2067],[76.6187,31.2039],[76.6122,31.2026],[76.6058,31.1971],[76.6007,31.191],[76.5983,31.1865],[76.5904,31.1829],[76.5925,31.1723],[76.5894,31.1648],[76.5915,31.1603],[76.5901,31.1573],[76.5947,31.1513],[76.5987,31.1512],[76.594,31.1365],[76.5893,31.1277],[76.5974,31.1262],[76.6073,31.1196],[76.6156,31.1216],[76.6237,31.118],[76.6257,31.1102],[76.6118,31.0964],[76.6078,31.0835],[76.6049,31.0784],[76.6095,31.0607],[76.599,31.0536],[76.6015,31.0436],[76.6052,31.0335],[76.6136,31.022],[76.6101,31.0042],[76.6124,31.0021],[76.6209,30.9983],[76.6259,30.9925],[76.6333,30.9907],[76.6531,30.9818],[76.6626,30.9711],[76.6682,30.9699],[76.6942,30.9725],[76.6962,30.9718],[76.6984,30.9689],[76.7051,30.9633],[76.7126,30.9634],[76.7241,30.9506],[76.7255,30.9425],[76.726,30.9393],[76.7384,30.9301],[76.7438,30.929],[76.7486,30.9292],[76.7487,30.9238],[76.7541,30.923],[76.7538,30.9178],[76.7699,30.9064],[76.7625,30.8934],[76.769,30.8765],[76.7733,30.8712],[76.7849,30.8613],[76.8012,30.8425],[76.8066,30.8403],[76.8189,30.8371],[76.8278,30.8326],[76.8321,30.8254],[76.8334,30.8159],[76.8335,30.8046],[76.8413,30.7991],[76.8468,30.7925],[76.8308,30.7679],[76.8282,30.7638],[76.812,30.7666],[76.8015,30.7628],[76.7931,30.7665],[76.7914,30.7695],[76.8035,30.7776],[76.8039,30.779],[76.8022,30.7818],[76.7978,30.7853],[76.7961,30.7858],[76.7887,30.781],[76.7809,30.7739],[76.7756,30.7761],[76.7693,30.777],[76.7727,30.7831],[76.7763,30.784],[76.7773,30.7855],[76.7733,30.7879],[76.7676,30.7951],[76.7593,30.799],[76.7509,30.7968],[76.7458,30.7946],[76.743,30.7915],[76.74,30.7911],[76.7382,30.7899],[76.7392,30.7861],[76.7352,30.783],[76.7305,30.781],[76.7312,30.777],[76.7292,30.7763],[76.7227,30.7707],[76.7183,30.7691],[76.7079,30.7701],[76.6906,30.7601],[76.6929,30.7574],[76.6933,30.7527],[76.6907,30.7467],[76.6927,30.7447],[76.6955,30.7441],[76.7013,30.7453],[76.7099,30.7355],[76.7112,30.7323],[76.7161,30.7286],[76.718,30.7206],[76.7176,30.7175],[76.7153,30.715],[76.7152,30.7133],[76.7215,30.7121],[76.7255,30.71],[76.7269,30.7076],[76.7261,30.7049],[76.7246,30.7038],[76.7263,30.6959],[76.7275,30.6957],[76.7304,30.6975],[76.7329,30.6972],[76.7385,30.6892],[76.745,30.6905],[76.7707,30.6779],[76.7893,30.6706],[76.7944,30.6693],[76.8029,30.6755],[76.8059,30.6803],[76.8105,30.685],[76.8198,30.6858],[76.8184,30.673],[76.8188,30.6606],[76.8241,30.6601],[76.8269,30.6633],[76.8301,30.6649],[76.835,30.6641],[76.8348,30.6558],[76.8399,30.6568],[76.8498,30.6649],[76.8554,30.6732],[76.8622,30.6793],[76.8631,30.6715],[76.8619,30.6597],[76.859,30.6516],[76.8586,30.6406],[76.8619,30.6403],[76.868,30.6416],[76.8727,30.64],[76.8771,30.637],[76.8806,30.6331],[76.8836,30.6271],[76.8945,30.6233],[76.8996,30.62],[76.9015,30.6084],[76.9106,30.6058],[76.9134,30.5997],[76.9072,30.5914],[76.8986,30.5884],[76.9045,30.5806],[76.9039,30.5752],[76.8989,30.5667],[76.8989,30.564],[76.9038,30.5617],[76.9059,30.5584],[76.9022,30.551],[76.8922,30.5444],[76.885,30.5404],[76.8878,30.5382],[76.8982,30.5347],[76.9072,30.5299],[76.9143,30.5266],[76.9201,30.5247],[76.9203,30.518],[76.9183,30.5072],[76.9159,30.4994],[76.9124,30.4937],[76.9078,30.4908],[76.9011,30.4888],[76.8939,30.4896],[76.8889,30.4846],[76.8898,30.4793],[76.8966,30.4754],[76.898,30.4678],[76.8952,30.4556],[76.8907,30.4511],[76.8888,30.4411],[76.8899,30.4367],[76.9017,30.4283],[76.9037,30.4249],[76.9037,30.4182],[76.9052,30.4132],[76.9039,30.41],[76.9038,30.4067],[76.9052,30.4047],[76.9093,30.4033],[76.9195,30.403],[76.9258,30.4016],[76.929,30.3999],[76.9314,30.3971],[76.9303,30.3926],[76.9273,30.3886],[76.9208,30.3848],[76.917,30.3828],[76.9035,30.3675],[76.8978,30.3626],[76.8923,30.3597],[76.8872,30.3584],[76.8802,30.3597],[76.8764,30.3633],[76.8757,30.3695],[76.8804,30.383],[76.8802,30.3862],[76.8744,30.3913],[76.8662,30.3948],[76.8676,30.4015],[76.8647,30.4088],[76.8473,30.4149],[76.8397,30.4207],[76.8325,30.4339],[76.8279,30.4303],[76.8231,30.4225],[76.8085,30.4119],[76.7973,30.4151],[76.7807,30.415],[76.7708,30.4183],[76.7643,30.425],[76.7667,30.436],[76.7633,30.4397],[76.7579,30.4389],[76.7544,30.4328],[76.7489,30.4266],[76.7379,30.4249],[76.7252,30.4204],[76.7265,30.405],[76.7129,30.3982],[76.7001,30.3936],[76.7017,30.3848],[76.7049,30.3808],[76.7157,30.3803],[76.7181,30.3771],[76.7089,30.3682],[76.7114,30.3651],[76.7304,30.3674],[76.735,30.3649],[76.7385,30.3596],[76.7346,30.3539],[76.729,30.3484],[76.7239,30.3444],[76.7152,30.3399],[76.7152,30.3329],[76.711,30.3299],[76.7048,30.3317],[76.7003,30.3299],[76.6977,30.3249],[76.6885,30.326],[76.6795,30.3214],[76.6746,30.326],[76.6709,30.3192],[76.6731,30.3128],[76.6624,30.2996],[76.6513,30.2993],[76.6263,30.2839],[76.6228,30.2914],[76.6197,30.2878],[76.6144,30.2753],[76.6098,30.2706],[76.6045,30.2723],[76.5809,30.2699],[76.5579,30.2643],[76.5476,30.2649],[76.5458,30.2586],[76.5469,30.2495],[76.546,30.2435],[76.5422,30.2364],[76.5329,30.2321],[76.5325,30.2271],[76.5444,30.2309],[76.5477,30.2344],[76.569,30.2514],[76.5759,30.2559],[76.584,30.2565],[76.5903,30.2541],[76.5959,30.2439],[76.5994,30.2403],[76.6093,30.2349],[76.612,30.231],[76.6119,30.2256],[76.6063,30.22],[76.6043,30.2152],[76.6094,30.2128],[76.6168,30.2111],[76.6328,30.21],[76.6389,30.2059],[76.6372,30.197],[76.642,30.1937],[76.6417,30.1893],[76.6393,30.1852],[76.6227,30.1703],[76.6276,30.1551],[76.6233,30.1494],[76.6231,30.1447],[76.6294,30.1348],[76.6287,30.1302],[76.6252,30.121],[76.6247,30.1169],[76.6266,30.114],[76.6276,30.1105],[76.6267,30.1056],[76.6252,30.1018],[76.6195,30.0954],[76.6177,30.0941],[76.6159,30.0928],[76.6141,30.0915],[76.6124,30.0902],[76.6106,30.0889],[76.609,30.0875],[76.6074,30.0859],[76.606,30.0843],[76.6045,30.0827],[76.6029,30.0813],[76.6011,30.0802],[76.5988,30.0797],[76.5964,30.0795],[76.5941,30.0796],[76.5917,30.0797],[76.5895,30.0793],[76.5876,30.0781],[76.5858,30.0767],[76.584,30.0754],[76.5819,30.0747],[76.5792,30.0746],[76.5768,30.0751],[76.5764,30.0761],[76.5779,30.0777],[76.5798,30.0795],[76.581,30.0813],[76.5819,30.0831],[76.5819,30.0852],[76.5808,30.0869],[76.5788,30.0878],[76.5766,30.0888],[76.5748,30.09],[76.573,30.0912],[76.5712,30.0926],[76.5695,30.0939],[76.5677,30.0951],[76.5658,30.0963],[76.5636,30.0971],[76.5614,30.0976],[76.5592,30.098],[76.5549,30.0988],[76.5336,30.0828],[76.5255,30.0809],[76.5089,30.0795],[76.5011,30.0766],[76.4971,30.0816],[76.495,30.0871],[76.4952,30.0924],[76.4908,30.0972],[76.4835,30.0996],[76.4616,30.099],[76.4521,30.1007],[76.4491,30.1048],[76.4466,30.1112],[76.4445,30.1229],[76.4462,30.129],[76.4465,30.1371],[76.441,30.136],[76.4363,30.137],[76.4314,30.1407],[76.426,30.1476],[76.4249,30.1546],[76.4223,30.1587],[76.4224,30.1636],[76.4264,30.1676],[76.429,30.173],[76.4286,30.1798],[76.42,30.1979],[76.4102,30.2023],[76.3988,30.199],[76.391,30.1923],[76.3867,30.187],[76.381,30.1832],[76.383,30.179],[76.3886,30.1741],[76.4016,30.1577],[76.3995,30.1552],[76.3925,30.1503],[76.3862,30.1482],[76.3846,30.1458],[76.3883,30.1383],[76.3885,30.134],[76.39,30.1275],[76.3844,30.1238],[76.3747,30.1237],[76.3637,30.1275],[76.3582,30.1333],[76.3483,30.1505],[76.3431,30.1534],[76.3259,30.1492],[76.3287,30.1448],[76.3357,30.1393],[76.3483,30.1317],[76.3489,30.1277],[76.3379,30.1159],[76.3284,30.1095],[76.3229,30.1082],[76.3128,30.1085],[76.2931,30.1186],[76.2864,30.1168],[76.2798,30.1137],[76.272,30.1143],[76.2655,30.1177],[76.2512,30.119],[76.2446,30.1219],[76.243,30.1275],[76.241,30.1287],[76.2382,30.1309],[76.2368,30.1326],[76.2354,30.1341],[76.2338,30.1356],[76.2319,30.1368],[76.23,30.1379],[76.228,30.139],[76.2263,30.1403],[76.2247,30.1418],[76.2234,30.1434],[76.222,30.1451],[76.2206,30.1467],[76.219,30.1482],[76.2173,30.1498],[76.2157,30.1514],[76.214,30.153],[76.2122,30.1546],[76.2105,30.1561],[76.2088,30.1574],[76.2072,30.1585],[76.2056,30.1593],[76.2039,30.1589],[76.2024,30.1567],[76.202,30.1546],[76.2026,30.1528],[76.2038,30.151],[76.2051,30.1492],[76.2063,30.1474],[76.2071,30.1455],[76.2074,30.1435],[76.2085,30.1417],[76.21,30.1401],[76.2116,30.1385],[76.2127,30.1368],[76.2119,30.1351],[76.2101,30.1336],[76.2079,30.1331],[76.2058,30.1338],[76.2037,30.1347],[76.2016,30.1358],[76.1997,30.1372],[76.1978,30.1387],[76.1959,30.14],[76.1941,30.1408],[76.1923,30.1405],[76.1906,30.1386],[76.1896,30.1367],[76.1906,30.135],[76.1925,30.1335],[76.1944,30.1324],[76.1963,30.1313],[76.1984,30.1303],[76.2004,30.1293],[76.2026,30.1287],[76.2047,30.1279],[76.2064,30.1265],[76.2079,30.125],[76.2093,30.1233],[76.2106,30.1216],[76.2119,30.12],[76.2134,30.1185],[76.2152,30.1172],[76.2171,30.1161],[76.2192,30.1151],[76.2212,30.1141],[76.2232,30.113],[76.2249,30.1117],[76.2267,30.1104],[76.2287,30.1093],[76.2308,30.1085],[76.2331,30.1082],[76.2354,30.1082],[76.2377,30.1082],[76.2401,30.1083],[76.2424,30.1082],[76.2447,30.1079],[76.2471,30.1076],[76.2495,30.1072],[76.2517,30.1067],[76.2538,30.106],[76.255,30.1046],[76.2546,30.1024],[76.2536,30.1005],[76.2524,30.0987],[76.2509,30.0971],[76.2492,30.096],[76.2467,30.0964],[76.2446,30.0961],[76.2428,30.0949],[76.2412,30.0935],[76.2396,30.092],[76.2381,30.0905],[76.2366,30.0888],[76.2352,30.0872],[76.2338,30.0856],[76.2325,30.0839],[76.2312,30.0823],[76.2299,30.0806],[76.2287,30.0789],[76.2275,30.0771],[76.2263,30.0754],[76.2251,30.0737],[76.224,30.0719],[76.2227,30.0702],[76.2215,30.0685],[76.2204,30.0667],[76.2192,30.065],[76.218,30.0633],[76.2168,30.0616],[76.2157,30.0598],[76.2145,30.0581],[76.2133,30.0563],[76.2122,30.0546],[76.211,30.0528],[76.2099,30.0511],[76.2086,30.0494],[76.2072,30.0478],[76.2056,30.0463],[76.204,30.0448],[76.2025,30.0433],[76.2011,30.0416],[76.1996,30.0398],[76.1984,30.0379],[76.1979,30.0363],[76.1989,30.0348],[76.2011,30.0337],[76.2035,30.0327],[76.2058,30.032],[76.2084,30.0314],[76.211,30.0309],[76.2133,30.0304],[76.2151,30.0296],[76.2161,30.0287],[76.2154,30.0271],[76.2135,30.0253],[76.2114,30.0237],[76.2095,30.0227],[76.2072,30.0221],[76.2049,30.0217],[76.2026,30.0212],[76.2003,30.0209],[76.198,30.0205],[76.1958,30.0201],[76.1935,30.0194],[76.1916,30.0182],[76.1909,30.0164],[76.1905,30.0145],[76.1902,30.0125],[76.19,30.0104],[76.1898,30.0084],[76.1896,30.0063],[76.1894,30.0042],[76.193,29.9966],[76.1958,29.9905],[76.1971,29.9851],[76.1975,29.9798],[76.199,29.9732],[76.1947,29.9657],[76.2035,29.9521],[76.2051,29.9475],[76.2039,29.9441],[76.1909,29.9445],[76.1848,29.9463],[76.1789,29.9463],[76.1696,29.9366],[76.1663,29.9287],[76.1715,29.9232],[76.182,29.9232],[76.1836,29.9157],[76.1827,29.8939],[76.1846,29.8886],[76.1974,29.884],[76.2081,29.8865],[76.2169,29.8839],[76.2253,29.8851],[76.2325,29.8813],[76.2387,29.8759],[76.242,29.869],[76.238,29.8655],[76.2352,29.8598],[76.2319,29.8564],[76.2285,29.8545],[76.2229,29.8556],[76.2158,29.8547],[76.2118,29.8531],[76.2097,29.8502],[76.2111,29.8432],[76.2096,29.8427],[76.2022,29.8453],[76.1942,29.845],[76.1894,29.8405],[76.1858,29.8312],[76.1667,29.8183],[76.1531,29.8163],[76.1393,29.8168],[76.1321,29.8121],[76.1272,29.8054],[76.1214,29.7995],[76.1164,29.7964],[76.1103,29.8033],[76.1032,29.8084],[76.0944,29.8116],[76.0906,29.8108],[76.0861,29.8099],[76.0777,29.8058],[76.0756,29.797],[76.0754,29.7879],[76.0743,29.7812],[76.0699,29.776],[76.0632,29.7775],[76.0584,29.7731],[76.0415,29.7488],[76.0357,29.7467],[76.0329,29.7496],[76.0317,29.7509],[76.0242,29.7556],[76.0176,29.7561],[76.0113,29.7528],[76.0038,29.7509],[75.9893,29.7423],[75.98,29.7362],[75.9725,29.7324],[75.9705,29.7321],[75.9649,29.7314],[75.9575,29.7321],[75.9501,29.7339],[75.9424,29.7343],[75.9387,29.7335],[75.9366,29.7331],[75.934,29.7325],[75.9289,29.7337],[75.9231,29.7349],[75.9139,29.7388],[75.9031,29.7463],[75.8972,29.7555],[75.8907,29.7532],[75.8793,29.7471],[75.872,29.7501],[75.8638,29.7523],[75.8546,29.7697],[75.8436,29.776],[75.8412,29.7808],[75.8334,29.7907],[75.8293,29.8007],[75.829,29.8123],[75.82,29.8154],[75.7961,29.8071],[75.7832,29.8153],[75.7724,29.8247],[75.7716,29.8254],[75.767,29.8235],[75.7634,29.822],[75.7606,29.8187],[75.7484,29.8121],[75.7327,29.8113],[75.726,29.8115],[75.7099,29.8123],[75.7059,29.8086],[75.6974,29.7552],[75.6874,29.7518],[75.6783,29.7571],[75.6662,29.7727],[75.6564,29.7761],[75.6497,29.7746],[75.6409,29.7711],[75.6254,29.7732],[75.6235,29.7669],[75.6226,29.7536],[75.6132,29.7465],[75.6005,29.7474],[75.5927,29.7492],[75.5688,29.7426],[75.5631,29.7442],[75.5564,29.7658],[75.5442,29.7718],[75.5302,29.7727],[75.524,29.7672],[75.5117,29.76],[75.5063,29.7741],[75.4984,29.7778],[75.4443,29.8078],[75.4355,29.7988],[75.4432,29.7942],[75.4438,29.7862],[75.4346,29.7803],[75.4272,29.7779],[75.4198,29.7744],[75.41,29.7753],[75.3972,29.761],[75.3968,29.7487],[75.3909,29.7386],[75.3837,29.734],[75.3822,29.7271],[75.3836,29.7203],[75.3788,29.7113],[75.37,29.7131],[75.3619,29.7129],[75.3586,29.7058],[75.3527,29.7045],[75.3412,29.6952],[75.3354,29.6938],[75.3338,29.6881],[75.346,29.6714],[75.3493,29.6656],[75.3504,29.6593],[75.3485,29.6591],[75.3468,29.6589],[75.3415,29.6621],[75.3301,29.6723],[75.3226,29.6724],[75.3177,29.6707],[75.3162,29.6608],[75.3117,29.6488],[75.3075,29.6326],[75.3011,29.6271],[75.2879,29.6198],[75.2806,29.6101],[75.2803,29.6033],[75.2936,29.5977],[75.302,29.592],[75.3045,29.5885],[75.3049,29.5836],[75.303,29.5791],[75.2961,29.5681],[75.2906,29.5618],[75.275,29.5611],[75.2675,29.5593],[75.2545,29.5542],[75.2381,29.5515],[75.2235,29.5462],[75.2243,29.55],[75.2282,29.5586],[75.2218,29.5703],[75.2179,29.5785],[75.2112,29.5824],[75.2194,29.5925],[75.2232,29.5989],[75.2212,29.6066],[75.1994,29.6227],[75.1847,29.6225],[75.1733,29.6301],[75.1724,29.6386],[75.1733,29.6495],[75.1685,29.6542],[75.1628,29.658],[75.1578,29.6627],[75.1589,29.6694],[75.1678,29.6733],[75.1753,29.6781],[75.1799,29.6783],[75.1889,29.6808],[75.1953,29.6878],[75.1977,29.6965],[75.1924,29.6995],[75.1884,29.7037],[75.1872,29.7119],[75.1937,29.7252],[75.1981,29.7308],[75.2062,29.7353],[75.2107,29.7309],[75.2166,29.73],[75.2214,29.7331],[75.231,29.7521],[75.2273,29.7561],[75.2233,29.7635],[75.2167,29.7715],[75.2162,29.7799],[75.2124,29.7865],[75.2054,29.79],[75.198,29.7962],[75.1965,29.8051],[75.1978,29.8134],[75.2025,29.8214],[75.2009,29.83],[75.1886,29.8346],[75.1823,29.8387],[75.1786,29.8369],[75.176,29.8351],[75.1752,29.8295],[75.167,29.825],[75.16,29.8236],[75.1554,29.8198],[75.1513,29.8018],[75.1489,29.7961],[75.1495,29.7916],[75.1549,29.7891],[75.1592,29.7842],[75.1541,29.781],[75.1417,29.777],[75.1355,29.7804],[75.1314,29.7849],[75.1249,29.8056],[75.1023,29.8026],[75.0955,29.8043],[75.0902,29.8067],[75.0891,29.8128],[75.0933,29.8193],[75.1071,29.8265],[75.1041,29.838],[75.099,29.8414],[75.0857,29.8448],[75.0813,29.8494],[75.081,29.8541],[75.0847,29.8586],[75.1006,29.8679],[75.1042,29.8732],[75.1031,29.8768],[75.1027,29.897],[75.0948,29.9051],[75.0898,29.9117],[75.0848,29.9151],[75.0777,29.9123],[75.07,29.8934],[75.0655,29.879],[75.0604,29.8761],[75.0518,29.8749],[75.0375,29.8818],[75.0235,29.8729],[75.0141,29.8646],[75.0057,29.8676],[74.9941,29.8632],[74.9899,29.8565],[74.9695,29.8807],[74.9699,29.8899],[74.9579,29.8977],[74.9432,29.9025],[74.9357,29.9154],[74.9319,29.9228],[74.9286,29.9292],[74.9241,29.9415],[74.9157,29.9492],[74.8944,29.9394],[74.8852,29.9391],[74.8896,29.945],[74.8931,29.9473],[74.8944,29.9529],[74.8898,29.959],[74.8854,29.9623],[74.8815,29.9683],[74.8774,29.9626],[74.872,29.9591],[74.8657,29.9589],[74.8594,29.9612],[74.8496,29.9591],[74.8366,29.9642],[74.829,29.9695],[74.8214,29.9731],[74.8197,29.9795],[74.8167,29.9845],[74.809,29.9905],[74.8012,29.9926],[74.7944,29.9896],[74.7842,29.9804],[74.776,29.9744],[74.7674,29.9727],[74.7587,29.9736],[74.7507,29.9712],[74.7372,29.969],[74.724,29.9619],[74.7061,29.9689],[74.6974,29.9711],[74.6955,29.9715],[74.6908,29.9693],[74.6832,29.9611],[74.681,29.9492],[74.6657,29.9417],[74.6489,29.9309],[74.6399,29.9225],[74.6389,29.9144],[74.647,29.9047],[74.6396,29.9039],[74.6326,29.9057],[74.6264,29.906],[74.622,29.9078],[74.5858,29.9148],[74.5808,29.9183],[74.573,29.9259],[74.5618,29.9293],[74.552,29.9292],[74.549,29.9332],[74.5302,29.945],[74.5246,29.9516],[74.5191,29.9433],[74.4666,29.9447],[74.444,29.9467],[74.442,29.9471],[74.4281,29.9495],[74.4038,29.9473],[74.3725,29.95],[74.3559,29.9503],[74.3215,29.954],[74.29,29.9563],[74.279,29.9551],[74.2603,29.9557],[74.2519,29.9553],[74.2407,29.9563],[74.2238,29.9597],[74.2128,29.9604],[74.186,29.9604],[74.1544,29.9633],[74.0833,29.9674],[74.0692,29.9689],[74.0027,29.9701],[73.996,29.9709],[73.9909,29.9712],[73.9765,29.9691],[73.9569,29.9695],[73.933,29.9707],[73.8912,29.9701],[73.8894,29.9776],[73.8885,29.9818],[73.883,29.9913],[73.8811,29.9963],[73.8819,30.0112],[73.8855,30.0174],[73.8926,30.0385],[73.8948,30.0469],[73.8984,30.0536],[73.9085,30.0601],[73.9182,30.0681],[73.9315,30.0838],[73.9429,30.0991],[73.9441,30.1042],[73.95,30.1098],[73.9579,30.1196],[73.9667,30.1212],[73.9639,30.1244],[73.9625,30.1275],[73.9612,30.1342],[73.9608,30.1432],[73.9634,30.1718],[73.9664,30.177],[73.9681,30.1843],[73.9664,30.1945],[73.9663,30.195],[73.9646,30.2245],[73.9639,30.2308],[73.9638,30.2313],[73.9612,30.2412],[73.9598,30.2552],[73.9591,30.2556],[73.9578,30.2617],[73.9557,30.263],[73.9544,30.2662],[73.9521,30.268],[73.9516,30.27],[73.9507,30.2705],[73.9494,30.2714],[73.9487,30.2738],[73.948,30.2743],[73.9473,30.2747],[73.9445,30.2818],[73.9439,30.2821],[73.9433,30.285],[73.9423,30.2862],[73.9413,30.2868],[73.9412,30.2875],[73.9405,30.288],[73.937,30.2963],[73.9363,30.2969],[73.9343,30.303],[73.9331,30.3038],[73.9321,30.3053],[73.9314,30.3065],[73.9269,30.3093],[73.9266,30.31],[73.9261,30.3102],[73.9254,30.3106],[73.9241,30.314],[73.9231,30.3149],[73.9225,30.3151],[73.9202,30.3201],[73.9196,30.3203],[73.9191,30.3205],[73.9183,30.3232],[73.9162,30.325],[73.9159,30.3273],[73.9144,30.3282],[73.9142,30.3286],[73.913,30.3309],[73.9122,30.3313],[73.9112,30.332],[73.9085,30.3367],[73.9075,30.3371],[73.9065,30.3376],[73.9065,30.3382],[73.9057,30.3398],[73.9049,30.3403],[73.9046,30.3409],[73.9033,30.3414],[73.901,30.3429],[73.8998,30.3449],[73.8995,30.3458],[73.8988,30.3463],[73.8978,30.347],[73.8973,30.349],[73.8939,30.3506],[73.8856,30.3544],[73.8807,30.3572],[73.8804,30.3578],[73.8787,30.359],[73.8756,30.3608],[73.8755,30.3613],[73.8753,30.3614],[73.8713,30.3686],[73.8709,30.375],[73.8732,30.3834],[73.8798,30.3911],[73.8818,30.3928],[73.8935,30.4023],[73.9012,30.4127],[73.9034,30.4168],[73.9202,30.4201],[73.9279,30.4209],[73.9303,30.425],[73.9316,30.4332],[73.9331,30.4361],[73.9366,30.443],[73.9323,30.4584],[73.9353,30.463],[73.9397,30.4627],[73.9445,30.4624],[73.9469,30.4623],[73.9531,30.4591],[73.9553,30.458],[73.9627,30.4576],[73.9665,30.4635],[73.9683,30.4763],[73.9688,30.4802],[73.9727,30.4881],[73.9837,30.5005],[73.9885,30.5046],[73.9998,30.5109],[74.0065,30.5147],[74.0186,30.5215],[74.0256,30.5254],[74.0295,30.5317],[74.0306,30.5323],[74.0329,30.5347],[74.034,30.5363],[74.0402,30.5377],[74.0407,30.5371],[74.0477,30.5286],[74.0557,30.522],[74.0609,30.5211],[74.0665,30.5202],[74.0776,30.5294],[74.08,30.5331],[74.0848,30.5407],[74.0844,30.545],[74.0823,30.5465],[74.0764,30.5503],[74.0721,30.5493],[74.0682,30.5508],[74.0678,30.5535],[74.0679,30.5549],[74.0693,30.556],[74.0709,30.5571],[74.0714,30.5576],[74.0759,30.561],[74.0841,30.5662],[74.0851,30.5674],[74.09,30.5717],[74.0904,30.572],[74.0912,30.5729],[74.0926,30.5753],[74.0931,30.5799],[74.0932,30.5814],[74.0921,30.5884],[74.092,30.5981],[74.0945,30.6047],[74.0945,30.6058],[74.0943,30.6063],[74.0902,30.6085],[74.09,30.6103],[74.091,30.6128],[74.0958,30.6151],[74.0984,30.6155],[74.0992,30.6149],[74.0995,30.6135],[74.1006,30.6115],[74.1011,30.6113],[74.1021,30.61],[74.1021,30.6099],[74.1021,30.6093],[74.1047,30.6074],[74.1047,30.6066],[74.1089,30.6057],[74.1095,30.6059],[74.1105,30.607],[74.1115,30.615],[74.1117,30.6168],[74.1169,30.6233],[74.1169,30.6243],[74.1174,30.6243],[74.1184,30.6322],[74.121,30.6324],[74.1218,30.6324],[74.1236,30.629],[74.1299,30.6279],[74.1312,30.6286],[74.1349,30.6288],[74.1439,30.6291],[74.1508,30.6325],[74.1509,30.6326],[74.1787,30.6557],[74.1832,30.6595],[74.1834,30.6594],[74.1857,30.6594],[74.1861,30.6594],[74.1968,30.6718],[74.2082,30.6883],[74.222,30.7081],[74.2272,30.7141],[74.2322,30.7196],[74.2331,30.7199],[74.241,30.7222],[74.254,30.723],[74.2683,30.7314],[74.2797,30.7294],[74.2818,30.7302],[74.2825,30.7346],[74.2737,30.7433],[74.2732,30.7445],[74.2663,30.7624],[74.2622,30.768],[74.265,30.7728],[74.2665,30.7728],[74.2737,30.7728],[74.2791,30.7761],[74.284,30.777],[74.2848,30.777],[74.2856,30.7769],[74.2911,30.7784],[74.2963,30.7816],[74.2974,30.7827],[74.2991,30.786],[74.2991,30.7873],[74.299,30.7888],[74.2981,30.79],[74.2976,30.7902],[74.2968,30.7924],[74.2962,30.7929],[74.2954,30.7931],[74.2906,30.7942],[74.2868,30.7958],[74.286,30.7967],[74.2858,30.7996],[74.2923,30.8023],[74.2933,30.8032],[74.2946,30.8102],[74.2953,30.8116],[74.2983,30.8143],[74.3024,30.8164],[74.3076,30.8211],[74.3085,30.8238],[74.3105,30.8347],[74.3116,30.8405],[74.3141,30.8437],[74.3161,30.8476],[74.32,30.8496],[74.3205,30.8499],[74.3233,30.8503],[74.3294,30.8488],[74.3311,30.849],[74.3312,30.8503],[74.3313,30.8508],[74.3314,30.8524],[74.3325,30.8531],[74.3346,30.8535],[74.3374,30.8541],[74.3409,30.854],[74.3427,30.8545],[74.346,30.8543],[74.346,30.8536],[74.3466,30.8534],[74.3473,30.8529],[74.3474,30.8513],[74.3512,30.85],[74.3536,30.8487],[74.3588,30.8459],[74.363,30.8458],[74.372,30.8529],[74.3711,30.8603],[74.3653,30.8682],[74.3649,30.8687],[74.3622,30.8724],[74.3619,30.8793],[74.3655,30.8854],[74.3662,30.8857],[74.3763,30.8895],[74.3827,30.8917],[74.395,30.9035],[74.4129,30.9063],[74.4161,30.906],[74.4192,30.9117],[74.4203,30.9222],[74.4207,30.9259],[74.4276,30.9333],[74.4287,30.9344],[74.4464,30.9489],[74.4643,30.9615],[74.4678,30.9626],[74.4706,30.966],[74.4851,30.9705],[74.4896,30.9697],[74.4914,30.9694],[74.4966,30.9672],[74.497,30.9676],[74.4997,30.969],[74.5044,30.9778],[74.5089,30.98],[74.5097,30.9804],[74.5144,30.9849],[74.5227,30.989],[74.5326,30.9906],[74.5366,30.9922],[74.5381,30.9935],[74.5385,30.9974],[74.538,30.9976],[74.537,31.0003],[74.5362,31.0009],[74.535,31.0021],[74.5336,31.0051],[74.5323,31.0081],[74.5318,31.0093],[74.5318,31.0127],[74.5347,31.0157],[74.5357,31.0168],[74.538,31.0317],[74.5406,31.0348],[74.5461,31.0387],[74.5497,31.0432],[74.5531,31.0609],[74.5534,31.0626],[74.5584,31.0675],[74.5717,31.0674],[74.5733,31.0663],[74.5925,31.052],[74.5974,31.0462],[74.6002,31.0435],[74.6026,31.0447],[74.6054,31.0453],[74.6144,31.0462],[74.6225,31.047],[74.6335,31.0529],[74.6424,31.0532],[74.6461,31.0529],[74.6489,31.0532],[74.656,31.0545],[74.6666,31.0588],[74.6722,31.0616],[74.6738,31.0636],[74.6782,31.0668],[74.6832,31.0722],[74.6841,31.0742],[74.685,31.0765],[74.6849,31.08],[74.6842,31.0814],[74.6842,31.0864],[74.6863,31.0896],[74.691,31.0921],[74.6944,31.0954],[74.6944,31.0982],[74.6908,31.104],[74.6907,31.1101],[74.6906,31.1145],[74.6906,31.115],[74.6906,31.1155],[74.6899,31.1171],[74.6862,31.1194],[74.6821,31.1202],[74.6806,31.1255],[74.6791,31.129],[74.6781,31.1295],[74.6773,31.1297],[74.6773,31.1306],[74.6766,31.131],[74.6689,31.1304],[74.6637,31.1268],[74.659,31.1274],[74.6574,31.1326],[74.6563,31.1335],[74.6527,31.1351],[74.6511,31.1348],[74.6498,31.1337],[74.6398,31.1301],[74.6377,31.1285],[74.6357,31.1242],[74.6312,31.1213],[74.6249,31.1226],[74.6247,31.1273],[74.626,31.1324],[74.6263,31.1357],[74.6262,31.1364],[74.6252,31.1373],[74.6241,31.1368],[74.6231,31.1366],[74.6225,31.1368],[74.6215,31.137],[74.6147,31.136],[74.6141,31.1357],[74.6109,31.1338],[74.6102,31.1334],[74.6078,31.1327],[74.6065,31.1329],[74.6013,31.1354],[74.595,31.135],[74.5924,31.1334],[74.5919,31.132],[74.5918,31.1283],[74.5921,31.1273],[74.5933,31.1268],[74.5942,31.1266],[74.5958,31.1248],[74.5966,31.1243],[74.5973,31.1225],[74.598,31.1154],[74.5982,31.1148],[74.5993,31.1122],[74.6003,31.1115],[74.6006,31.1088],[74.6001,31.1034],[74.5982,31.0998],[74.5964,31.0975],[74.5965,31.0909],[74.5928,31.0874],[74.5914,31.0891],[74.5894,31.0896],[74.5891,31.0906],[74.5889,31.0914],[74.588,31.0932],[74.5854,31.0952],[74.5827,31.0948],[74.5817,31.0929],[74.5813,31.0918],[74.5781,31.0902],[74.576,31.09],[74.5747,31.0902],[74.5729,31.0895],[74.5715,31.0887],[74.5705,31.0884],[74.5658,31.0843],[74.5577,31.087],[74.5532,31.0862],[74.5519,31.0856],[74.5472,31.0874],[74.5469,31.0883],[74.5464,31.0886],[74.5459,31.0985],[74.5452,31.0991],[74.5439,31.1035],[74.5435,31.1052],[74.5438,31.111],[74.5443,31.1124],[74.5445,31.1156],[74.5445,31.117],[74.5438,31.1204],[74.5434,31.1217],[74.5426,31.1221],[74.5424,31.1228],[74.5363,31.1251],[74.5344,31.1246],[74.5302,31.1231],[74.5283,31.1219],[74.5265,31.1224],[74.5252,31.1253],[74.5247,31.1255],[74.5242,31.1272],[74.5237,31.1274],[74.5232,31.1296],[74.5176,31.1321],[74.5158,31.1322],[74.5062,31.1358],[74.5054,31.1365],[74.5046,31.1385],[74.5056,31.1495],[74.5054,31.1507],[74.5049,31.1509],[74.504,31.1585],[74.5038,31.165],[74.5046,31.1674],[74.5038,31.171],[74.5033,31.1712],[74.5013,31.1799],[74.5013,31.181],[74.5013,31.1816],[74.5023,31.1843],[74.5024,31.185],[74.5044,31.1857],[74.5075,31.1852],[74.5088,31.1857],[74.5095,31.187],[74.5095,31.1886],[74.5078,31.1929],[74.5083,31.1974],[74.5109,31.2006],[74.5118,31.203],[74.5134,31.2067],[74.5145,31.2094],[74.5143,31.2121],[74.5138,31.2175],[74.513,31.2183],[74.5108,31.2229],[74.5113,31.2313],[74.5137,31.2367],[74.5196,31.2417],[74.5218,31.2467],[74.5222,31.2475],[74.5221,31.2487],[74.5219,31.2491],[74.5212,31.2514],[74.5207,31.2516],[74.5206,31.2523],[74.5188,31.2536],[74.5176,31.2567],[74.5159,31.2633],[74.5153,31.2635],[74.5146,31.2662],[74.5116,31.2681],[74.5111,31.2723],[74.5128,31.2755],[74.5163,31.2775],[74.5169,31.278],[74.5184,31.2839],[74.5192,31.2855],[74.5218,31.2899],[74.5247,31.2947],[74.5302,31.2987],[74.5519,31.2985],[74.5675,31.3348],[74.5681,31.3372],[74.5696,31.3408],[74.5721,31.3465],[74.5946,31.3971],[74.6012,31.404],[74.6243,31.4227],[74.6253,31.4236],[74.632,31.4409],[74.6363,31.4522],[74.6408,31.4559],[74.6421,31.46],[74.6421,31.4615],[74.6407,31.4637],[74.6402,31.4645],[74.6338,31.4687],[74.6323,31.4696],[74.632,31.4712],[74.6307,31.4724],[74.6284,31.4736],[74.6207,31.478],[74.6208,31.4786],[74.6203,31.4789],[74.6207,31.48],[74.6238,31.4824],[74.6257,31.4855],[74.6265,31.4867],[74.6239,31.4869],[74.622,31.4871],[74.6141,31.4858],[74.6131,31.4861],[74.6091,31.4872],[74.6044,31.4897],[74.6028,31.4948],[74.6018,31.4957],[74.5974,31.4981],[74.5971,31.4988],[74.5951,31.5002],[74.593,31.5],[74.5901,31.4984],[74.5883,31.4986],[74.5862,31.4989],[74.5825,31.4984],[74.5796,31.4957],[74.5751,31.4966],[74.5662,31.5008],[74.5658,31.5017],[74.5659,31.5029],[74.5677,31.5032],[74.5686,31.5033],[74.5717,31.5053],[74.5725,31.5058],[74.5734,31.5092],[74.5733,31.5099],[74.5725,31.5103],[74.5714,31.5114],[74.5714,31.5145],[74.5714,31.5159],[74.573,31.5196],[74.5747,31.5207],[74.5748,31.5212],[74.5794,31.5238],[74.5824,31.5248],[74.5882,31.5252],[74.5935,31.5255],[74.599,31.5275],[74.6011,31.5296],[74.6027,31.5333],[74.6039,31.5341],[74.6043,31.5359],[74.6048,31.5402],[74.6052,31.541],[74.6023,31.5589],[74.6003,31.5598],[74.6001,31.5629],[74.6017,31.5631],[74.6009,31.5678],[74.6003,31.5696],[74.5926,31.5923],[74.5863,31.6064],[74.5785,31.6234],[74.5718,31.6339],[74.5625,31.6486],[74.5571,31.6571],[74.5415,31.6807],[74.5302,31.6981],[74.5198,31.7177],[74.5173,31.7229],[74.5181,31.7406],[74.5182,31.7416],[74.518,31.7452],[74.5289,31.7497],[74.5365,31.7511],[74.5421,31.7507],[74.5455,31.7505],[74.551,31.7526],[74.5518,31.7532],[74.5522,31.7543],[74.552,31.7575],[74.5494,31.7593],[74.5475,31.7634],[74.5449,31.7654],[74.544,31.7764],[74.5443,31.7778],[74.5472,31.7843],[74.5545,31.7902],[74.5549,31.7916],[74.5548,31.7945],[74.5535,31.7954],[74.5495,31.7965],[74.5494,31.7983],[74.5495,31.799],[74.5576,31.8078],[74.5602,31.8153],[74.5596,31.8187],[74.5563,31.8216],[74.5562,31.8218],[74.5558,31.8225],[74.5557,31.8277],[74.5564,31.8288],[74.5647,31.8324],[74.5726,31.8417],[74.5805,31.8435],[74.5807,31.8448],[74.5812,31.8452],[74.5823,31.8551],[74.5833,31.8569],[74.5855,31.8588],[74.5881,31.8603],[74.596,31.8648],[74.5963,31.8675],[74.5959,31.8772],[74.5964,31.8792],[74.598,31.8835],[74.5991,31.8851],[74.6003,31.886],[74.6025,31.8865],[74.6038,31.8854],[74.6044,31.884],[74.6118,31.8813],[74.6152,31.8809],[74.6226,31.8813],[74.6266,31.8829],[74.6298,31.8854],[74.6309,31.8871],[74.6337,31.8897],[74.6355,31.8945],[74.6379,31.8967],[74.6389,31.8969],[74.6442,31.897],[74.6472,31.8959],[74.6485,31.8963],[74.6508,31.8981],[74.6516,31.9008],[74.6513,31.9046],[74.6516,31.9092],[74.652,31.9099],[74.6564,31.9114],[74.659,31.9135],[74.6599,31.9182],[74.6619,31.9187],[74.6666,31.9169],[74.6679,31.9166],[74.6693,31.9169],[74.6702,31.9181],[74.6706,31.9187],[74.674,31.921],[74.6761,31.9216],[74.6847,31.9231],[74.6872,31.9229],[74.6896,31.9226],[74.693,31.921],[74.6944,31.9201],[74.6948,31.9194],[74.7033,31.9249],[74.7051,31.9306],[74.7092,31.9579],[74.7178,31.9577],[74.7267,31.9422],[74.7359,31.9374],[74.7396,31.9385],[74.7458,31.9416],[74.7458,31.9457],[74.7452,31.9492],[74.746,31.9518],[74.7477,31.9523],[74.7501,31.9501],[74.7517,31.9475],[74.7551,31.947],[74.7595,31.9462],[74.7629,31.9482],[74.7646,31.9497],[74.7652,31.9502],[74.766,31.9507],[74.7686,31.9518],[74.7837,31.9555],[74.7883,31.9572],[74.7936,31.9593],[74.8014,31.9618],[74.8027,31.9607],[74.803,31.9575],[74.8063,31.9554],[74.8067,31.9539],[74.8091,31.9551],[74.8104,31.9562],[74.8122,31.9622],[74.8151,31.9717],[74.8199,31.9765],[74.8199,31.9781],[74.8201,31.9844],[74.8177,31.9939],[74.8184,31.9974],[74.819,31.9979],[74.8201,31.9979],[74.8205,32.0002],[74.8214,32.0008],[74.8278,32.0051],[74.8384,32.007],[74.8442,32.0083],[74.845,32.0088],[74.8457,32.0092],[74.8462,32.0108],[74.8455,32.0133],[74.8407,32.0174],[74.8402,32.0183],[74.8403,32.0203],[74.8523,32.0219],[74.855,32.0232],[74.8565,32.0259],[74.8595,32.0266],[74.8606,32.0261],[74.8611,32.0259],[74.8616,32.0248],[74.8643,32.0237],[74.8651,32.0239],[74.8675,32.0312],[74.8677,32.0334],[74.8673,32.0345],[74.8648,32.037],[74.8621,32.0433],[74.862,32.0446],[74.8623,32.0451],[74.8687,32.0478],[74.8724,32.0505],[74.8793,32.0519],[74.8973,32.0494],[74.898,32.0496],[74.8989,32.0499],[74.8997,32.0503],[74.9031,32.0571],[74.9042,32.0578],[74.9053,32.0604],[74.9069,32.0625],[74.9134,32.0649],[74.9143,32.0652],[74.9259,32.0657],[74.9387,32.062],[74.9391,32.0619],[74.9434,32.0596],[74.9463,32.0594],[74.9603,32.055],[74.9646,32.0518],[74.9661,32.051],[74.9662,32.0506],[74.9667,32.0474],[74.9661,32.047],[74.964,32.0449],[74.9636,32.044],[74.9638,32.0431],[74.9683,32.042],[74.9704,32.0418],[74.9707,32.0422],[74.9722,32.0422],[74.9733,32.042],[74.9772,32.0423],[74.9869,32.035],[74.9874,32.0346],[74.9984,32.0287],[75,32.0287],[75.0034,32.0287],[75.0049,32.0288],[75.0106,32.0304],[75.023,32.039],[75.031,32.0406],[75.0459,32.0392],[75.0508,32.0413],[75.0689,32.0584],[75.069,32.0585],[75.0726,32.0596],[75.0745,32.0598],[75.0752,32.0605],[75.076,32.0607],[75.0812,32.0562],[75.0774,32.0612],[75.0787,32.0616],[75.0792,32.062],[75.0858,32.0629],[75.0862,32.0621],[75.0901,32.06],[75.0922,32.0595],[75.0943,32.0609],[75.0948,32.0613],[75.0954,32.0665],[75.0975,32.0703],[75.0987,32.0712],[75.1081,32.0749],[75.1094,32.076],[75.1105,32.0766],[75.1135,32.0812],[75.1163,32.0828],[75.1179,32.083],[75.12,32.0832],[75.1232,32.082],[75.1298,32.0807],[75.1314,32.0814],[75.1383,32.0829],[75.1418,32.0833],[75.1444,32.0829],[75.1519,32.0805],[75.1527,32.0791],[75.1534,32.0788],[75.1542,32.0759],[75.1548,32.0755],[75.1571,32.0723],[75.1576,32.0721],[75.1584,32.0685],[75.1628,32.0678],[75.1645,32.068],[75.1667,32.0703],[75.1682,32.0714],[75.1716,32.079],[75.1748,32.0813],[75.1809,32.0822],[75.1815,32.082],[75.1836,32.0826],[75.1844,32.0831],[75.1851,32.0838],[75.1855,32.0872],[75.1852,32.0953],[75.1877,32.0993],[75.1892,32.1002],[75.1916,32.1007],[75.1932,32.1002],[75.1937,32.1007],[75.1932,32.1146],[75.1933,32.1153],[75.1953,32.1166],[75.199,32.1173],[75.2046,32.116],[75.205,32.1156],[75.2113,32.1188],[75.212,32.1191],[75.2227,32.1125],[75.225,32.1069],[75.2236,32.0911],[75.2278,32.0846],[75.2334,32.0844],[75.2392,32.0872],[75.272,32.1128],[75.2748,32.1188],[75.2773,32.1352],[75.2833,32.1422],[75.288,32.1444],[75.3094,32.1546],[75.3142,32.1592],[75.3178,32.1708],[75.3172,32.1928],[75.3228,32.2013],[75.3333,32.2047],[75.3331,32.2049],[75.3196,32.2082],[75.3136,32.2124],[75.3142,32.2149],[75.3149,32.2157],[75.3163,32.2171],[75.3177,32.2181],[75.3232,32.2189],[75.33,32.2188],[75.3334,32.2191],[75.3402,32.2176],[75.3433,32.2185],[75.3444,32.2183],[75.3462,32.218],[75.3497,32.2196],[75.3526,32.2228],[75.3579,32.2259],[75.3593,32.227],[75.3605,32.2318],[75.3613,32.2322],[75.3628,32.2338],[75.3632,32.2347],[75.3637,32.2383],[75.3635,32.2392],[75.3625,32.2399],[75.3617,32.2403],[75.3604,32.2442],[75.3593,32.2449],[75.3583,32.2458],[75.357,32.249],[75.357,32.2519],[75.3586,32.2586],[75.3596,32.2595],[75.3632,32.2618],[75.365,32.2624],[75.366,32.264],[75.3662,32.265],[75.367,32.2687],[75.3642,32.2718],[75.3616,32.2739],[75.3611,32.2744],[75.3611,32.2748],[75.3563,32.2785],[75.3533,32.2782],[75.3494,32.284],[75.3399,32.2886],[75.3362,32.2957],[75.3351,32.3008],[75.3343,32.3044],[75.3367,32.3226],[75.3304,32.3317],[75.3223,32.3373],[75.3244,32.3417],[75.3253,32.3428],[75.3318,32.3447],[75.344,32.3402],[75.3453,32.3392],[75.3592,32.3349],[75.3735,32.3306],[75.3785,32.3288],[75.386,32.3277],[75.3975,32.3263],[75.415,32.3243],[75.4311,32.3265],[75.4326,32.3267],[75.4486,32.3313],[75.4518,32.3318],[75.4564,32.3335],[75.4666,32.3389],[75.4722,32.34],[75.4735,32.3392],[75.4678,32.3176],[75.4714,32.3147],[75.4799,32.3103],[75.4848,32.3103],[75.4902,32.3102],[75.4911,32.3067],[75.4921,32.3028],[75.49,32.288],[75.4947,32.2769],[75.4989,32.2753],[75.5012,32.2761],[75.5045,32.2795],[75.5056,32.2813],[75.5158,32.298],[75.5243,32.34],[75.5292,32.3489],[75.5452,32.3608],[75.5573,32.367],[75.567,32.3718],[75.5926,32.3817],[75.637,32.3874],[75.6481,32.3888],[75.6627,32.3935],[75.685,32.4006],[75.6982,32.4095],[75.7115,32.4182],[75.7153,32.4238],[75.7197,32.4303],[75.7252,32.4383],[75.7297,32.4451],[75.7353,32.4547],[75.7437,32.4691],[75.7451,32.4743],[75.7459,32.4763],[75.753,32.4752],[75.7725,32.4751],[75.7789,32.475],[75.7901,32.4788],[75.8043,32.4871],[75.8157,32.4992],[75.8236,32.5076],[75.825,32.5092],[75.8289,32.52],[75.8306,32.5245],[75.8378,32.5376],[75.8565,32.5584],[75.8718,32.5753],[75.8725,32.5762],[75.8755,32.5709],[75.8703,32.5588],[75.8564,32.5377],[75.8514,32.5213],[75.851,32.5079],[75.8553,32.4996],[75.8688,32.4887]]]}}]}