{"type":"FeatureCollection","name":"Sikkim","crs":{"type":"name","properties":{"name":"urn:ogc:def:crs:OGC:1.3:CRS84"}},"features":[{"type":"Feature","properties":{"ID_0":105,"ISO":"IND","NAME_0":"India","ID_1":30,"NAME_1":"Sikkim","TYPE_1":"State","ENGTYPE_1":"State","NL_NAME_1":null,"VARNAME_1":null},"geometry":{"type":"Polygon","coordinates":[[[88.6453,28.0991],[88.6541,28.0898],[88.6611,28.0796],[88.6668,28.0741],[88.6728,28.0728],[88.6733,28.0731],[88.6736,28.0733],[88.6751,28.0742],[88.6771,28.0774],[88.6858,28.079],[88.6952,28.077],[88.6979,28.0774],[88.7039,28.0781],[88.7143,28.0757],[88.7194,28.0764],[88.7291,28.0753],[88.7403,28.076],[88.7481,28.0741],[88.7511,28.0733],[88.7536,28.0719],[88.7536,28.0715],[88.7561,28.0697],[88.768,28.0612],[88.7683,28.0606],[88.7688,28.0606],[88.7691,28.0604],[88.7708,28.0591],[88.7707,28.0589],[88.7707,28.0587],[88.7708,28.0582],[88.7733,28.0569],[88.7823,28.0508],[88.7825,28.0496],[88.7828,28.0485],[88.7836,28.048],[88.7843,28.0476],[88.7856,28.0442],[88.7866,28.0436],[88.7866,28.0431],[88.7947,28.037],[88.7947,28.0366],[88.795,28.0364],[88.7961,28.0359],[88.7975,28.0328],[88.7977,28.0325],[88.7994,28.0311],[88.7994,28.0307],[88.8023,28.0288],[88.8053,28.0267],[88.8053,28.0263],[88.8056,28.0261],[88.8079,28.0253],[88.8167,28.021],[88.8193,28.0197],[88.8207,28.019],[88.8253,28.0171],[88.8291,28.0152],[88.8329,28.0115],[88.8346,28.0004],[88.8356,27.9995],[88.8357,27.9991],[88.8363,27.9989],[88.8363,27.9982],[88.8368,27.9969],[88.8391,27.9951],[88.8409,27.991],[88.8403,27.9768],[88.8398,27.9652],[88.84,27.9641],[88.843,27.9616],[88.8441,27.9564],[88.8397,27.9528],[88.8364,27.9474],[88.8364,27.9449],[88.8363,27.932],[88.8395,27.9304],[88.8418,27.9298],[88.8535,27.9267],[88.8544,27.9265],[88.8589,27.9253],[88.8612,27.9235],[88.8648,27.9131],[88.8668,27.9091],[88.8702,27.9024],[88.8707,27.9024],[88.8707,27.902],[88.8715,27.9018],[88.8773,27.8975],[88.8797,27.8957],[88.8797,27.8953],[88.8802,27.8952],[88.8805,27.8937],[88.8805,27.8932],[88.881,27.8932],[88.8814,27.8925],[88.8814,27.889],[88.8809,27.8864],[88.88,27.8803],[88.8808,27.8701],[88.8809,27.8698],[88.8818,27.8679],[88.8846,27.8654],[88.8857,27.8613],[88.8856,27.8591],[88.8854,27.8589],[88.883,27.8575],[88.8829,27.857],[88.8821,27.8554],[88.8821,27.8553],[88.881,27.839],[88.8804,27.8376],[88.879,27.8371],[88.8778,27.8362],[88.8771,27.834],[88.8767,27.8334],[88.8762,27.8326],[88.8753,27.8311],[88.873,27.8274],[88.8683,27.8245],[88.8675,27.8246],[88.8655,27.8237],[88.8623,27.8218],[88.8557,27.8181],[88.8554,27.8179],[88.8543,27.8165],[88.8541,27.815],[88.8546,27.8147],[88.8548,27.8136],[88.8553,27.8125],[88.8573,27.8113],[88.8575,27.8082],[88.8568,27.7989],[88.8523,27.7783],[88.8526,27.7684],[88.8543,27.7604],[88.8546,27.7593],[88.8559,27.7569],[88.8569,27.756],[88.8575,27.7546],[88.8585,27.7537],[88.8595,27.753],[88.8614,27.7489],[88.8624,27.739],[88.8611,27.7358],[88.8543,27.7302],[88.8537,27.7291],[88.8515,27.7241],[88.8505,27.7182],[88.85,27.7175],[88.8413,27.7121],[88.8389,27.7112],[88.8386,27.7105],[88.8386,27.7082],[88.8394,27.7057],[88.8399,27.7055],[88.8404,27.7053],[88.8412,27.7028],[88.8455,27.7003],[88.8455,27.6944],[88.8442,27.6889],[88.8445,27.6859],[88.845,27.6816],[88.8453,27.6807],[88.8455,27.6801],[88.8467,27.6756],[88.8466,27.669],[88.8466,27.6689],[88.8456,27.6672],[88.8431,27.663],[88.8384,27.6587],[88.8368,27.6576],[88.8341,27.6533],[88.8322,27.6503],[88.826,27.6455],[88.8223,27.6428],[88.8207,27.6423],[88.8198,27.6419],[88.8155,27.6427],[88.8138,27.6433],[88.8132,27.6435],[88.8107,27.6428],[88.8099,27.6419],[88.8071,27.6363],[88.8064,27.6322],[88.8082,27.6191],[88.8085,27.6143],[88.808,27.6136],[88.8055,27.6033],[88.802,27.5998],[88.801,27.5996],[88.801,27.5992],[88.8005,27.5992],[88.8005,27.5987],[88.7979,27.5965],[88.7974,27.5965],[88.7974,27.596],[88.7946,27.594],[88.7941,27.594],[88.7928,27.592],[88.7918,27.5906],[88.7885,27.5881],[88.7873,27.5856],[88.7856,27.5763],[88.7848,27.5754],[88.7837,27.5745],[88.7823,27.5734],[88.7685,27.568],[88.7682,27.5679],[88.7682,27.5674],[88.7673,27.5668],[88.7671,27.565],[88.7679,27.56],[88.7684,27.5597],[88.7689,27.5595],[88.7731,27.5445],[88.7751,27.5376],[88.7755,27.5373],[88.7764,27.5367],[88.7791,27.534],[88.7799,27.5327],[88.7799,27.5322],[88.7842,27.5295],[88.786,27.5291],[88.787,27.5293],[88.7881,27.5291],[88.7886,27.5286],[88.7889,27.5261],[88.7888,27.525],[88.7877,27.5245],[88.787,27.5208],[88.7867,27.5192],[88.7862,27.5151],[88.7861,27.5136],[88.786,27.5115],[88.7852,27.5065],[88.7832,27.4965],[88.7833,27.4945],[88.7843,27.4937],[88.785,27.493],[88.7856,27.4924],[88.7854,27.4877],[88.7852,27.4873],[88.7847,27.4862],[88.7839,27.4843],[88.7832,27.4827],[88.7826,27.4796],[88.7823,27.4781],[88.7814,27.4732],[88.7814,27.4725],[88.7815,27.4678],[88.7822,27.4633],[88.7834,27.4556],[88.7843,27.454],[88.7873,27.4524],[88.7874,27.4513],[88.7876,27.4502],[88.7924,27.448],[88.7947,27.447],[88.7946,27.445],[88.794,27.4366],[88.7949,27.4328],[88.795,27.4326],[88.7965,27.4308],[88.8003,27.4287],[88.8032,27.4271],[88.8041,27.4253],[88.8041,27.4251],[88.806,27.4142],[88.8071,27.4112],[88.8081,27.4086],[88.8093,27.4052],[88.8101,27.4048],[88.8101,27.4043],[88.8114,27.4032],[88.8118,27.403],[88.8118,27.4026],[88.8175,27.4007],[88.8192,27.3993],[88.8193,27.3993],[88.8193,27.3992],[88.8208,27.3974],[88.8217,27.3957],[88.8224,27.3941],[88.8254,27.3914],[88.8254,27.391],[88.8254,27.3906],[88.8312,27.3888],[88.8327,27.3865],[88.8332,27.3865],[88.8335,27.3865],[88.8335,27.3861],[88.8342,27.3858],[88.8344,27.3846],[88.8347,27.3829],[88.8355,27.3824],[88.8383,27.3788],[88.8398,27.3782],[88.8413,27.3777],[88.8423,27.3779],[88.8441,27.3791],[88.8445,27.3797],[88.8472,27.3809],[88.8483,27.3827],[88.8484,27.3828],[88.849,27.3836],[88.8527,27.3863],[88.8565,27.3868],[88.8588,27.3859],[88.8616,27.3836],[88.8621,27.3825],[88.8631,27.3807],[88.8647,27.3798],[88.8672,27.3682],[88.8688,27.3674],[88.8694,27.3672],[88.8705,27.3669],[88.8792,27.3644],[88.8792,27.3644],[88.881,27.3632],[88.8832,27.3577],[88.8851,27.3468],[88.8856,27.3455],[88.8886,27.3384],[88.8891,27.3382],[88.8899,27.3364],[88.8939,27.3339],[88.894,27.3335],[88.896,27.3331],[88.8971,27.3334],[88.9005,27.3344],[88.9069,27.3307],[88.9079,27.3301],[88.9092,27.3304],[88.9119,27.331],[88.9142,27.3302],[88.9154,27.3296],[88.9195,27.3277],[88.9196,27.3269],[88.9194,27.3246],[88.9196,27.3234],[88.9187,27.3225],[88.9197,27.3224],[88.9197,27.321],[88.9181,27.3184],[88.9169,27.3163],[88.9154,27.3143],[88.914,27.3124],[88.9135,27.3109],[88.9127,27.309],[88.9122,27.3081],[88.9102,27.3063],[88.9094,27.3052],[88.9094,27.3049],[88.9091,27.3038],[88.9092,27.3022],[88.9092,27.3017],[88.9092,27.3005],[88.9092,27.3003],[88.9091,27.2991],[88.9104,27.2974],[88.9108,27.2969],[88.9112,27.2957],[88.9122,27.2935],[88.9134,27.2919],[88.9144,27.2901],[88.9139,27.2889],[88.9112,27.2864],[88.9104,27.2842],[88.9083,27.2815],[88.9079,27.2791],[88.9079,27.2767],[88.9058,27.2752],[88.9043,27.2738],[88.9006,27.274],[88.8997,27.2727],[88.8958,27.2702],[88.8933,27.2691],[88.8903,27.2681],[88.8875,27.2676],[88.8861,27.2676],[88.884,27.2671],[88.879,27.2612],[88.8778,27.2615],[88.8769,27.2617],[88.8762,27.2619],[88.8752,27.2622],[88.8741,27.2625],[88.8728,27.2628],[88.8712,27.2633],[88.8699,27.2638],[88.8673,27.2646],[88.8665,27.2648],[88.8631,27.2647],[88.8601,27.2647],[88.8573,27.2646],[88.8535,27.264],[88.8492,27.2639],[88.8447,27.2635],[88.8421,27.2632],[88.8363,27.2628],[88.8341,27.2627],[88.833,27.2627],[88.8325,27.2626],[88.8313,27.2625],[88.8281,27.2574],[88.8229,27.2553],[88.8191,27.2539],[88.8154,27.2526],[88.8105,27.251],[88.8032,27.248],[88.8029,27.2464],[88.8035,27.2447],[88.804,27.2432],[88.8045,27.2413],[88.8044,27.2401],[88.804,27.2386],[88.8031,27.2358],[88.8027,27.2329],[88.8027,27.2316],[88.8027,27.2302],[88.8027,27.2293],[88.8027,27.2283],[88.8027,27.2274],[88.8026,27.2262],[88.8027,27.2238],[88.8029,27.223],[88.8033,27.2215],[88.8029,27.2204],[88.8024,27.2185],[88.8016,27.2176],[88.8013,27.2166],[88.8008,27.2152],[88.8001,27.2138],[88.7998,27.2122],[88.7995,27.2085],[88.7988,27.2066],[88.7977,27.2057],[88.7969,27.2045],[88.7956,27.203],[88.795,27.2014],[88.7915,27.1968],[88.7898,27.1964],[88.789,27.1956],[88.7888,27.1953],[88.7888,27.1947],[88.7888,27.1939],[88.7889,27.1927],[88.7892,27.1914],[88.7892,27.1911],[88.7892,27.1907],[88.7891,27.1896],[88.7891,27.1893],[88.7889,27.1887],[88.7888,27.1877],[88.7884,27.1865],[88.7881,27.1847],[88.7868,27.182],[88.7847,27.182],[88.7838,27.182],[88.7829,27.1823],[88.7818,27.1827],[88.7808,27.1831],[88.7798,27.1834],[88.7787,27.1837],[88.7771,27.1836],[88.7749,27.1827],[88.7732,27.1824],[88.7718,27.1822],[88.7697,27.1812],[88.7685,27.1803],[88.7668,27.179],[88.7662,27.1786],[88.7656,27.178],[88.7643,27.1772],[88.763,27.1744],[88.7623,27.1728],[88.7616,27.172],[88.7607,27.171],[88.7601,27.1705],[88.759,27.1688],[88.7585,27.168],[88.7575,27.1664],[88.7569,27.1655],[88.757,27.1642],[88.7576,27.1628],[88.758,27.1612],[88.7569,27.1588],[88.7575,27.158],[88.7584,27.1569],[88.7594,27.1562],[88.7596,27.1549],[88.7596,27.1546],[88.7602,27.1528],[88.7584,27.1514],[88.7568,27.1482],[88.7516,27.1482],[88.7515,27.1482],[88.7514,27.1481],[88.7492,27.1477],[88.7471,27.1456],[88.7469,27.1454],[88.7372,27.1395],[88.7325,27.1374],[88.7245,27.1385],[88.7178,27.144],[88.715,27.1502],[88.7118,27.1651],[88.702,27.1741],[88.6915,27.1787],[88.6844,27.1802],[88.6804,27.1795],[88.6735,27.1766],[88.6681,27.172],[88.6596,27.1622],[88.6565,27.1624],[88.6425,27.1672],[88.6388,27.1677],[88.6333,27.1745],[88.619,27.1879],[88.6068,27.1897],[88.6035,27.1912],[88.5981,27.1914],[88.5975,27.1927],[88.594,27.1912],[88.5915,27.1945],[88.587,27.1905],[88.5851,27.1928],[88.5663,27.1879],[88.559,27.1888],[88.5408,27.1837],[88.529,27.1778],[88.5208,27.1782],[88.5205,27.175],[88.5298,27.1658],[88.5267,27.1603],[88.532,27.1543],[88.5299,27.1502],[88.5267,27.1498],[88.5217,27.1503],[88.5187,27.1478],[88.516,27.1437],[88.5122,27.141],[88.5075,27.136],[88.503,27.1341],[88.4989,27.1312],[88.4964,27.1282],[88.4956,27.1254],[88.4919,27.1249],[88.4867,27.1268],[88.4813,27.1229],[88.4738,27.1207],[88.4691,27.1173],[88.4667,27.1139],[88.4648,27.1048],[88.4602,27.0958],[88.4545,27.0896],[88.4463,27.0854],[88.4396,27.0842],[88.4319,27.0816],[88.4291,27.0836],[88.411,27.0907],[88.3977,27.0944],[88.3875,27.0984],[88.3707,27.0994],[88.3639,27.0984],[88.3523,27.1011],[88.3479,27.1033],[88.3452,27.1069],[88.3408,27.1107],[88.3317,27.1082],[88.3238,27.1049],[88.3201,27.1073],[88.3205,27.1166],[88.3188,27.1193],[88.3113,27.1254],[88.3045,27.1286],[88.2999,27.128],[88.2949,27.1248],[88.2781,27.1308],[88.2774,27.1312],[88.2709,27.1301],[88.2635,27.1274],[88.2515,27.1254],[88.2401,27.1204],[88.2325,27.1198],[88.2269,27.1214],[88.2215,27.1253],[88.2138,27.1351],[88.2099,27.1334],[88.1956,27.1362],[88.1885,27.1344],[88.1837,27.1352],[88.179,27.1347],[88.1726,27.1303],[88.1584,27.1144],[88.1554,27.1121],[88.1523,27.1117],[88.1438,27.1171],[88.1366,27.1169],[88.1269,27.1231],[88.1233,27.1238],[88.0959,27.1355],[88.0927,27.1363],[88.0886,27.1388],[88.0858,27.1415],[88.0838,27.145],[88.083,27.1489],[88.0839,27.1611],[88.0833,27.165],[88.0787,27.1679],[88.0731,27.1744],[88.0723,27.1793],[88.0693,27.1849],[88.0675,27.1903],[88.0688,27.1944],[88.0754,27.1988],[88.075,27.2008],[88.0682,27.2047],[88.0643,27.2078],[88.0617,27.2113],[88.0582,27.2139],[88.0468,27.2161],[88.0329,27.221],[88.024,27.2207],[88.017,27.2189],[88.0215,27.2247],[88.0216,27.2289],[88.0219,27.2355],[88.0243,27.2374],[88.0275,27.2369],[88.0268,27.2418],[88.0303,27.2491],[88.0334,27.2497],[88.0334,27.2516],[88.0332,27.263],[88.0344,27.2656],[88.0329,27.2717],[88.0356,27.2814],[88.0343,27.286],[88.0408,27.2914],[88.0465,27.2924],[88.0436,27.3011],[88.0441,27.304],[88.0477,27.3099],[88.0511,27.3123],[88.052,27.3184],[88.0552,27.3243],[88.0627,27.3283],[88.0661,27.3341],[88.0692,27.3356],[88.0689,27.3366],[88.0673,27.341],[88.0656,27.3427],[88.0644,27.3439],[88.0624,27.3493],[88.0603,27.3553],[88.0528,27.3583],[88.0444,27.3707],[88.0476,27.3797],[88.0467,27.3843],[88.0473,27.3896],[88.0485,27.3955],[88.0511,27.4006],[88.0494,27.4052],[88.0522,27.4069],[88.0532,27.4126],[88.0595,27.418],[88.0608,27.4182],[88.0691,27.4246],[88.0697,27.425],[88.0826,27.4264],[88.0829,27.4295],[88.0821,27.4306],[88.0821,27.4307],[88.082,27.4308],[88.0813,27.4318],[88.0754,27.4336],[88.0753,27.4338],[88.0709,27.4382],[88.0705,27.4385],[88.0741,27.4439],[88.075,27.4452],[88.0698,27.4493],[88.069,27.4522],[88.0681,27.4527],[88.0697,27.4576],[88.063,27.4608],[88.0627,27.4613],[88.0593,27.4672],[88.0587,27.4676],[88.0538,27.4715],[88.0525,27.4719],[88.0466,27.4784],[88.0478,27.4813],[88.0466,27.4847],[88.0472,27.4927],[88.0463,27.4958],[88.0492,27.5012],[88.0534,27.5041],[88.0574,27.5043],[88.0601,27.5092],[88.0641,27.5118],[88.06,27.5167],[88.064,27.5251],[88.0698,27.5261],[88.0678,27.5293],[88.0661,27.5299],[88.0624,27.5312],[88.0621,27.5327],[88.0617,27.5346],[88.0616,27.5348],[88.0635,27.5398],[88.0677,27.5445],[88.0712,27.5461],[88.0718,27.5555],[88.0786,27.5584],[88.0836,27.5646],[88.082,27.5681],[88.0778,27.5718],[88.0871,27.589],[88.0954,27.5973],[88.1082,27.6023],[88.1163,27.6103],[88.1169,27.614],[88.1179,27.6208],[88.1221,27.627],[88.1199,27.6295],[88.1233,27.6392],[88.1226,27.6453],[88.1338,27.6551],[88.1398,27.6572],[88.1403,27.6577],[88.1473,27.6654],[88.1482,27.6716],[88.1494,27.6788],[88.1503,27.6812],[88.1514,27.6838],[88.1574,27.6904],[88.151,27.7017],[88.1509,27.7017],[88.1507,27.702],[88.152,27.7079],[88.1581,27.7172],[88.1573,27.7292],[88.161,27.7406],[88.1724,27.7413],[88.1812,27.7468],[88.1793,27.7581],[88.1834,27.7615],[88.186,27.7661],[88.1852,27.7672],[88.1842,27.7688],[88.1842,27.7692],[88.1844,27.7745],[88.1879,27.777],[88.1908,27.7812],[88.1979,27.7863],[88.1999,27.7905],[88.1965,27.796],[88.1925,27.7979],[88.1895,27.8012],[88.1879,27.8103],[88.1815,27.8155],[88.18,27.816],[88.1761,27.8173],[88.1757,27.8202],[88.1901,27.8251],[88.1972,27.8355],[88.1994,27.8361],[88.2039,27.8373],[88.204,27.8424],[88.2007,27.8455],[88.2002,27.848],[88.1989,27.8535],[88.1955,27.8545],[88.191,27.8537],[88.1879,27.8565],[88.1834,27.8565],[88.1809,27.8564],[88.1771,27.861],[88.1752,27.8631],[88.1746,27.8634],[88.1698,27.8654],[88.1686,27.8666],[88.1669,27.8682],[88.1566,27.8705],[88.1563,27.8707],[88.1513,27.8765],[88.1456,27.8781],[88.1419,27.8774],[88.1375,27.8815],[88.13,27.8815],[88.1302,27.8819],[88.1299,27.8859],[88.1274,27.8913],[88.1263,27.8951],[88.1258,27.8953],[88.1252,27.8964],[88.1229,27.8976],[88.1225,27.8988],[88.1217,27.9003],[88.1196,27.9021],[88.1188,27.9025],[88.1175,27.9056],[88.1168,27.906],[88.1166,27.9072],[88.1139,27.9122],[88.1137,27.9158],[88.1136,27.9176],[88.1168,27.9258],[88.1259,27.9344],[88.1289,27.9383],[88.129,27.9398],[88.1288,27.9455],[88.1237,27.948],[88.1237,27.9502],[88.1239,27.9509],[88.13,27.9559],[88.1331,27.9616],[88.1347,27.963],[88.1391,27.9635],[88.1398,27.9633],[88.14,27.9632],[88.1468,27.9605],[88.1472,27.9603],[88.1537,27.9578],[88.1672,27.9483],[88.1736,27.9447],[88.1757,27.9443],[88.1828,27.9436],[88.1887,27.9437],[88.1929,27.9455],[88.1948,27.9462],[88.1955,27.9469],[88.1958,27.9471],[88.1971,27.9505],[88.1992,27.958],[88.1997,27.9605],[88.2003,27.9615],[88.2026,27.9655],[88.2035,27.9662],[88.2035,27.9666],[88.2098,27.9678],[88.2113,27.9672],[88.2141,27.966],[88.2153,27.9656],[88.2158,27.9654],[88.2166,27.965],[88.218,27.9645],[88.2216,27.964],[88.2223,27.9643],[88.2231,27.9645],[88.2262,27.9672],[88.2297,27.9679],[88.2302,27.9678],[88.2305,27.9677],[88.231,27.9672],[88.2328,27.9659],[88.233,27.9649],[88.2352,27.9541],[88.2375,27.9526],[88.2377,27.9515],[88.2377,27.9506],[88.2383,27.9503],[88.2383,27.9499],[88.2439,27.9485],[88.2479,27.9501],[88.2482,27.9502],[88.2482,27.9503],[88.2484,27.9508],[88.2588,27.9563],[88.2609,27.9566],[88.2616,27.9563],[88.2652,27.9566],[88.2705,27.9583],[88.271,27.9581],[88.2712,27.9582],[88.2715,27.9583],[88.272,27.9584],[88.2748,27.9605],[88.2756,27.9612],[88.2767,27.9644],[88.2768,27.9655],[88.2795,27.9673],[88.2801,27.9676],[88.2804,27.9678],[88.2861,27.9685],[88.2901,27.9689],[88.2939,27.9681],[88.3048,27.97],[88.3089,27.9727],[88.3101,27.974],[88.3139,27.9784],[88.3162,27.9797],[88.3229,27.9813],[88.3239,27.9811],[88.3275,27.9819],[88.3291,27.9825],[88.3318,27.9848],[88.3324,27.9859],[88.335,27.987],[88.3378,27.988],[88.3452,27.9895],[88.3502,27.9896],[88.351,27.9899],[88.3542,27.9894],[88.3638,27.9881],[88.3747,27.9837],[88.3817,27.9799],[88.3817,27.9794],[88.3888,27.9778],[88.3898,27.9781],[88.394,27.9797],[88.3961,27.9811],[88.4007,27.9833],[88.402,27.9836],[88.4043,27.9867],[88.4066,27.9879],[88.4088,27.9924],[88.4099,27.9936],[88.4117,27.9956],[88.4123,27.997],[88.4235,28.0056],[88.4235,28.0061],[88.4248,28.0065],[88.4265,28.0081],[88.4271,28.0083],[88.4326,28.0104],[88.4509,28.015],[88.4559,28.0172],[88.4616,28.0198],[88.4646,28.0232],[88.4692,28.0329],[88.4717,28.0368],[88.478,28.0426],[88.4819,28.045],[88.4831,28.0456],[88.4897,28.0481],[88.5011,28.0489],[88.5017,28.0487],[88.5017,28.0483],[88.5017,28.0478],[88.5029,28.0471],[88.507,28.0465],[88.5167,28.044],[88.5208,28.0411],[88.5211,28.0402],[88.5211,28.0397],[88.5224,28.0391],[88.5224,28.0386],[88.5278,28.0368],[88.5315,28.0364],[88.5333,28.0366],[88.538,28.0385],[88.5382,28.0386],[88.5389,28.0389],[88.541,28.0405],[88.5427,28.0441],[88.5429,28.0497],[88.5429,28.0505],[88.5437,28.0525],[88.5451,28.0539],[88.5488,28.0589],[88.5504,28.0611],[88.5518,28.0638],[88.5523,28.0654],[88.5525,28.0776],[88.5545,28.0848],[88.5583,28.0876],[88.5669,28.089],[88.5677,28.0885],[88.5708,28.0865],[88.5748,28.0856],[88.5766,28.0863],[88.5855,28.0902],[88.5876,28.0913],[88.5891,28.0915],[88.5904,28.0913],[88.5952,28.0956],[88.596,28.0969],[88.6028,28.0984],[88.6054,28.0997],[88.6134,28.1026],[88.6165,28.1037],[88.6136,28.1087],[88.6122,28.1099],[88.6116,28.1158],[88.6108,28.1187],[88.6105,28.1196],[88.6069,28.1228],[88.6067,28.1262],[88.6075,28.1276],[88.6118,28.1296],[88.6212,28.131],[88.6252,28.1283],[88.6269,28.1271],[88.6269,28.1267],[88.6269,28.1263],[88.629,28.1247],[88.6297,28.1245],[88.6297,28.124],[88.6305,28.1238],[88.6317,28.1211],[88.6323,28.1209],[88.6328,28.1206],[88.6351,28.1131],[88.6364,28.1087],[88.6377,28.1044],[88.6394,28.1031],[88.6412,28.1017],[88.6453,28.0991]]]}}]}