{"type":"FeatureCollection","name":"Tripura","crs":{"type":"name","properties":{"name":"urn:ogc:def:crs:OGC:1.3:CRS84"}},"features":[{"type":"Feature","properties":{"ID_0":105,"ISO":"IND","NAME_0":"India","ID_1":33,"NAME_1":"Tripura","TYPE_1":"State","ENGTYPE_1":"State","NL_NAME_1":null,"VARNAME_1":null},"geometry":{"type":"Polygon","coordinates":[[[92.1852,24.5229],[92.189,24.5202],[92.1913,24.521],[92.1927,24.5215],[92.1943,24.5197],[92.1971,24.5166],[92.1999,24.5153],[92.1998,24.5112],[92.2073,24.5066],[92.2116,24.5093],[92.2125,24.509],[92.2171,24.5072],[92.2203,24.5063],[92.2211,24.503],[92.2215,24.5015],[92.2309,24.4996],[92.2309,24.5022],[92.231,24.5041],[92.2343,24.5004],[92.2346,24.4993],[92.235,24.4982],[92.2354,24.4968],[92.2364,24.4943],[92.2366,24.4928],[92.2394,24.4899],[92.2338,24.4847],[92.2303,24.48],[92.2289,24.472],[92.2312,24.4654],[92.2311,24.4604],[92.2323,24.4585],[92.2351,24.4564],[92.2359,24.4538],[92.236,24.4502],[92.2392,24.4473],[92.2565,24.4363],[92.2575,24.4325],[92.256,24.419],[92.2593,24.4135],[92.2627,24.4098],[92.2632,24.4081],[92.2626,24.4048],[92.2642,24.3976],[92.2698,24.3949],[92.2704,24.391],[92.2731,24.3885],[92.2727,24.3862],[92.2699,24.3822],[92.2725,24.3794],[92.2722,24.3776],[92.2683,24.3748],[92.2676,24.3733],[92.2681,24.3673],[92.2641,24.3622],[92.2129,24.2493],[92.2405,24.2506],[92.2596,24.2504],[92.2848,24.252],[92.2918,24.2513],[92.2966,24.2517],[92.2971,24.2495],[92.2953,24.248],[92.2941,24.2443],[92.2949,24.2407],[92.2968,24.2381],[92.2963,24.2361],[92.2963,24.2338],[92.2995,24.2316],[92.2992,24.2294],[92.2976,24.2272],[92.3019,24.2251],[92.3012,24.2245],[92.3009,24.222],[92.3034,24.2216],[92.3138,24.2229],[92.3136,24.2211],[92.3097,24.2161],[92.3097,24.2148],[92.3127,24.211],[92.3161,24.2132],[92.319,24.209],[92.3246,24.2058],[92.3248,24.2047],[92.3202,24.2043],[92.3202,24.2026],[92.3251,24.199],[92.3256,24.1975],[92.3247,24.1963],[92.3248,24.1948],[92.3295,24.1912],[92.3288,24.1891],[92.3296,24.1882],[92.327,24.1861],[92.3304,24.1848],[92.3308,24.1821],[92.33,24.18],[92.3299,24.1747],[92.3286,24.1661],[92.3295,24.1645],[92.3318,24.1636],[92.3344,24.1508],[92.3368,24.1468],[92.3363,24.1444],[92.3353,24.1436],[92.3335,24.1443],[92.3323,24.144],[92.3323,24.1405],[92.3292,24.1399],[92.3282,24.1386],[92.3282,24.1352],[92.3292,24.1316],[92.3288,24.1297],[92.331,24.128],[92.3282,24.1246],[92.3286,24.1159],[92.3317,24.1131],[92.3319,24.1118],[92.3293,24.1103],[92.3324,24.1068],[92.3323,24.1053],[92.3294,24.1029],[92.3297,24.1012],[92.3283,24.0986],[92.3316,24.0988],[92.3302,24.096],[92.3279,24.0938],[92.3288,24.0891],[92.3281,24.085],[92.3291,24.0822],[92.3281,24.0806],[92.3228,24.0775],[92.3229,24.077],[92.327,24.0764],[92.3273,24.0745],[92.3236,24.0733],[92.3229,24.0718],[92.3233,24.0696],[92.3213,24.0684],[92.3192,24.0695],[92.3182,24.0691],[92.3168,24.0668],[92.3191,24.0613],[92.3217,24.0587],[92.3186,24.0573],[92.3203,24.0512],[92.319,24.0501],[92.3168,24.0514],[92.3153,24.0487],[92.3154,24.0449],[92.3175,24.0395],[92.3172,24.0375],[92.3141,24.0347],[92.3193,24.0313],[92.3193,24.0302],[92.3167,24.028],[92.3191,24.0255],[92.3183,24.0226],[92.3217,24.0188],[92.3209,24.0179],[92.3189,24.0192],[92.3175,24.0189],[92.3172,24.0176],[92.3246,24.0065],[92.3275,24.0042],[92.3272,24.0019],[92.3291,23.9897],[92.3258,23.9875],[92.3277,23.9857],[92.3278,23.9847],[92.3255,23.9833],[92.3241,23.9795],[92.3227,23.9798],[92.3221,23.9753],[92.3196,23.9753],[92.3177,23.9721],[92.315,23.9722],[92.3152,23.971],[92.3126,23.9702],[92.3133,23.961],[92.3114,23.9606],[92.3126,23.9575],[92.3112,23.9456],[92.3134,23.9433],[92.3127,23.9412],[92.3134,23.9345],[92.3181,23.9304],[92.3212,23.9261],[92.3279,23.924],[92.3297,23.9231],[92.3307,23.9214],[92.3294,23.9189],[92.3311,23.9118],[92.3305,23.9076],[92.3299,23.9055],[92.3277,23.9063],[92.3258,23.9044],[92.3236,23.9047],[92.323,23.9042],[92.3216,23.8914],[92.3207,23.8912],[92.3199,23.8899],[92.3192,23.8907],[92.3185,23.8905],[92.319,23.8892],[92.3183,23.888],[92.3195,23.8861],[92.3193,23.8837],[92.3171,23.8841],[92.3163,23.8833],[92.3166,23.8817],[92.3175,23.8814],[92.3171,23.8792],[92.319,23.8777],[92.3204,23.878],[92.3221,23.8738],[92.322,23.8698],[92.3185,23.868],[92.3182,23.8671],[92.3202,23.8658],[92.3196,23.8652],[92.3155,23.8635],[92.3099,23.8626],[92.3073,23.8639],[92.3042,23.8638],[92.3006,23.8664],[92.2951,23.8655],[92.2951,23.8701],[92.2939,23.8713],[92.292,23.8714],[92.2878,23.867],[92.2878,23.863],[92.2852,23.8573],[92.2766,23.8529],[92.2747,23.8491],[92.2741,23.8436],[92.2739,23.8417],[92.2759,23.8399],[92.2771,23.8366],[92.2821,23.8309],[92.2816,23.8262],[92.2836,23.8242],[92.2834,23.8234],[92.2857,23.8226],[92.2868,23.8168],[92.2858,23.8157],[92.2837,23.8163],[92.2808,23.8151],[92.2791,23.8167],[92.2767,23.8152],[92.2695,23.8178],[92.2594,23.815],[92.2607,23.8071],[92.2623,23.8049],[92.2635,23.7997],[92.2637,23.7917],[92.2678,23.77],[92.268,23.7665],[92.2671,23.7619],[92.2683,23.7564],[92.2663,23.7387],[92.2685,23.7286],[92.2675,23.7286],[92.2652,23.7282],[92.262,23.7271],[92.2592,23.727],[92.2566,23.7273],[92.2558,23.7273],[92.2518,23.7265],[92.2492,23.7251],[92.2475,23.7241],[92.2457,23.7201],[92.2432,23.7166],[92.2415,23.7136],[92.2411,23.7106],[92.2405,23.7084],[92.2408,23.7061],[92.2425,23.7043],[92.2427,23.7038],[92.2445,23.6999],[92.2449,23.6985],[92.2461,23.6959],[92.2462,23.6958],[92.247,23.6947],[92.2469,23.6918],[92.2442,23.69],[92.2424,23.6889],[92.2422,23.6865],[92.2419,23.6854],[92.2417,23.6846],[92.2402,23.683],[92.2396,23.6825],[92.2395,23.6809],[92.2395,23.6803],[92.239,23.6794],[92.2389,23.6792],[92.2386,23.6787],[92.2375,23.6768],[92.2375,23.6755],[92.2381,23.6724],[92.2381,23.6703],[92.235,23.6675],[92.2326,23.6636],[92.2295,23.6604],[92.2284,23.6592],[92.2241,23.6573],[92.2203,23.6586],[92.2165,23.661],[92.2129,23.6642],[92.213,23.665],[92.2134,23.6708],[92.2153,23.6753],[92.2158,23.6784],[92.2157,23.6794],[92.2161,23.6807],[92.2161,23.6835],[92.2163,23.6867],[92.2168,23.6908],[92.2175,23.6914],[92.2182,23.692],[92.2177,23.6952],[92.2148,23.6981],[92.2126,23.7004],[92.2116,23.7016],[92.208,23.7042],[92.204,23.7066],[92.2033,23.707],[92.2009,23.707],[92.1992,23.7071],[92.1971,23.7095],[92.1968,23.7096],[92.1939,23.7116],[92.1926,23.7115],[92.191,23.7103],[92.1908,23.7101],[92.19,23.71],[92.1884,23.7099],[92.188,23.71],[92.1865,23.7105],[92.1844,23.7143],[92.1834,23.7182],[92.1801,23.7214],[92.1794,23.7261],[92.1789,23.7324],[92.1796,23.7343],[92.1799,23.7387],[92.181,23.7416],[92.1803,23.7425],[92.1795,23.7432],[92.1779,23.7435],[92.1764,23.7431],[92.1739,23.7428],[92.1718,23.7425],[92.1676,23.7414],[92.1631,23.7397],[92.1587,23.7376],[92.1552,23.7357],[92.1505,23.7325],[92.15,23.7318],[92.1499,23.7315],[92.1488,23.7281],[92.1461,23.7215],[92.1422,23.7152],[92.1402,23.7136],[92.1373,23.7114],[92.1351,23.7098],[92.1326,23.7068],[92.1305,23.7048],[92.1299,23.7039],[92.1255,23.6982],[92.1214,23.6935],[92.1211,23.6932],[92.1171,23.6897],[92.1145,23.6871],[92.1127,23.6848],[92.1102,23.6816],[92.1094,23.6801],[92.1085,23.6787],[92.1059,23.6765],[92.1047,23.676],[92.1039,23.6761],[92.1031,23.6759],[92.101,23.6766],[92.1001,23.6771],[92.099,23.6777],[92.0962,23.6795],[92.0946,23.6792],[92.0919,23.6778],[92.0907,23.6771],[92.0881,23.6728],[92.0864,23.6682],[92.0862,23.667],[92.0854,23.6644],[92.0853,23.6634],[92.0854,23.6605],[92.087,23.6575],[92.087,23.6539],[92.0848,23.6508],[92.0835,23.6498],[92.0826,23.649],[92.0814,23.6481],[92.0772,23.6458],[92.076,23.6451],[92.0732,23.6449],[92.0726,23.6447],[92.0707,23.6446],[92.0669,23.6458],[92.0616,23.6474],[92.0606,23.6478],[92.0598,23.6481],[92.0541,23.6501],[92.0488,23.6526],[92.0459,23.6543],[92.0432,23.656],[92.0386,23.6603],[92.0355,23.6617],[92.0314,23.6608],[92.0283,23.6586],[92.0268,23.6574],[92.0236,23.6576],[92.0231,23.658],[92.022,23.6594],[92.0222,23.6631],[92.0186,23.6649],[92.0163,23.6672],[92.0144,23.6691],[92.0095,23.676],[92.0069,23.6816],[92.002,23.6886],[92.0006,23.6946],[91.9977,23.701],[91.9966,23.7048],[91.9923,23.7132],[91.9894,23.7197],[91.9848,23.7264],[91.9836,23.7297],[91.9805,23.7313],[91.9772,23.7315],[91.9709,23.7302],[91.9662,23.7297],[91.9643,23.7291],[91.9621,23.7277],[91.9593,23.7234],[91.9566,23.719],[91.9567,23.7179],[91.9572,23.7159],[91.9583,23.7131],[91.9584,23.7101],[91.9567,23.708],[91.9566,23.7071],[91.9565,23.7068],[91.9574,23.7039],[91.9576,23.7034],[91.9576,23.7033],[91.9577,23.7016],[91.9575,23.7004],[91.9573,23.6991],[91.9558,23.6971],[91.9543,23.694],[91.9521,23.6913],[91.9516,23.6909],[91.9495,23.6893],[91.9489,23.6888],[91.9484,23.6884],[91.9452,23.6861],[91.9441,23.6853],[91.9426,23.6833],[91.9423,23.6818],[91.9424,23.6814],[91.9437,23.6766],[91.9469,23.6682],[91.95,23.6581],[91.9519,23.6469],[91.9516,23.6392],[91.951,23.6329],[91.9521,23.6287],[91.9549,23.6237],[91.9567,23.6179],[91.9566,23.6143],[91.9564,23.608],[91.9547,23.5959],[91.9531,23.5914],[91.951,23.5885],[91.951,23.5864],[91.9521,23.586],[91.9535,23.5865],[91.9541,23.5865],[91.9557,23.5872],[91.9568,23.5873],[91.959,23.5863],[91.9624,23.5813],[91.9639,23.5788],[91.9636,23.575],[91.9622,23.5716],[91.9614,23.5704],[91.9611,23.5694],[91.9605,23.567],[91.9605,23.5666],[91.9608,23.5659],[91.9613,23.565],[91.9622,23.564],[91.9625,23.5637],[91.9625,23.5626],[91.9625,23.5623],[91.9628,23.5601],[91.9629,23.559],[91.9635,23.5567],[91.964,23.556],[91.9642,23.5557],[91.9656,23.554],[91.965,23.5512],[91.9648,23.5504],[91.9645,23.5476],[91.9634,23.5455],[91.9627,23.5436],[91.9624,23.5419],[91.9613,23.5401],[91.9609,23.5376],[91.963,23.5361],[91.9652,23.5345],[91.9661,23.5329],[91.9665,23.531],[91.9679,23.5289],[91.9654,23.5281],[91.9649,23.5276],[91.9641,23.5278],[91.9632,23.5276],[91.9613,23.5273],[91.9612,23.5273],[91.9599,23.5256],[91.9598,23.5254],[91.9598,23.525],[91.9596,23.5223],[91.9596,23.5202],[91.9605,23.5181],[91.9613,23.5162],[91.9647,23.5158],[91.9658,23.5152],[91.9681,23.5138],[91.9687,23.5124],[91.9687,23.5108],[91.9686,23.5097],[91.969,23.509],[91.9703,23.5083],[91.9719,23.507],[91.9731,23.5059],[91.9742,23.5044],[91.9739,23.503],[91.9725,23.5018],[91.972,23.5007],[91.9718,23.4993],[91.9722,23.4979],[91.9727,23.4969],[91.9752,23.4962],[91.9761,23.496],[91.976,23.495],[91.9755,23.4941],[91.9736,23.4928],[91.9731,23.4924],[91.9727,23.4906],[91.9739,23.4884],[91.9746,23.4866],[91.9746,23.4856],[91.9752,23.4824],[91.9733,23.4808],[91.9719,23.481],[91.9704,23.4815],[91.9697,23.4816],[91.9669,23.4819],[91.9638,23.4821],[91.9623,23.4783],[91.9574,23.4774],[91.9566,23.4767],[91.9553,23.4758],[91.9542,23.4747],[91.9529,23.4733],[91.9522,23.4725],[91.9518,23.4704],[91.9485,23.4703],[91.9438,23.4701],[91.9418,23.4691],[91.9425,23.4664],[91.942,23.464],[91.9415,23.4615],[91.9414,23.4608],[91.9429,23.4576],[91.9439,23.4559],[91.9444,23.4546],[91.9447,23.4539],[91.9459,23.4505],[91.9463,23.4494],[91.947,23.4477],[91.9471,23.4463],[91.9472,23.444],[91.9468,23.4434],[91.9465,23.4429],[91.9463,23.4417],[91.9449,23.4398],[91.9429,23.4384],[91.9418,23.4376],[91.9386,23.4398],[91.9365,23.4409],[91.9338,23.44],[91.9305,23.4396],[91.929,23.4403],[91.9261,23.4416],[91.9251,23.4423],[91.9224,23.443],[91.9204,23.4424],[91.9189,23.4417],[91.9157,23.4412],[91.9123,23.4408],[91.9107,23.4406],[91.9074,23.4421],[91.9035,23.4414],[91.9024,23.4396],[91.9022,23.439],[91.9016,23.4382],[91.9011,23.4371],[91.9004,23.4359],[91.8978,23.4349],[91.8966,23.4356],[91.895,23.4359],[91.894,23.4358],[91.8927,23.4353],[91.8918,23.4333],[91.8916,23.433],[91.8906,23.4307],[91.89,23.4299],[91.887,23.4268],[91.8823,23.4233],[91.8821,23.4233],[91.8803,23.4231],[91.8789,23.4213],[91.8773,23.4192],[91.8756,23.4179],[91.8724,23.4148],[91.8668,23.4118],[91.8653,23.4101],[91.8632,23.4086],[91.8603,23.4071],[91.8561,23.4053],[91.855,23.4048],[91.8505,23.4028],[91.8474,23.4002],[91.8439,23.3965],[91.8421,23.3939],[91.8432,23.3923],[91.8442,23.3909],[91.8428,23.3889],[91.8402,23.3865],[91.8381,23.3845],[91.8382,23.3827],[91.8395,23.382],[91.8413,23.3808],[91.844,23.3804],[91.8419,23.3778],[91.8405,23.3762],[91.8374,23.3723],[91.8344,23.3689],[91.8319,23.3662],[91.8307,23.3652],[91.827,23.3622],[91.8237,23.3572],[91.8214,23.3511],[91.8185,23.348],[91.8184,23.3479],[91.8167,23.346],[91.8145,23.3444],[91.8134,23.3436],[91.8105,23.3416],[91.8082,23.3387],[91.8052,23.3326],[91.8025,23.3288],[91.7987,23.3223],[91.796,23.3175],[91.7953,23.3164],[91.7916,23.3105],[91.792,23.3124],[91.7903,23.3091],[91.7899,23.308],[91.7893,23.3064],[91.7884,23.3042],[91.7881,23.3035],[91.7868,23.3006],[91.7863,23.2996],[91.7853,23.2986],[91.7852,23.2985],[91.7831,23.294],[91.7823,23.2919],[91.7818,23.2908],[91.7811,23.2885],[91.7802,23.2878],[91.7798,23.2871],[91.7794,23.2868],[91.7782,23.2851],[91.7769,23.2825],[91.7761,23.2801],[91.7758,23.2795],[91.7748,23.2781],[91.7748,23.276],[91.7748,23.2729],[91.7728,23.2701],[91.7735,23.2682],[91.7725,23.2657],[91.7709,23.2638],[91.7717,23.2612],[91.7729,23.2563],[91.7732,23.2539],[91.7728,23.2514],[91.7732,23.2493],[91.7751,23.2459],[91.7773,23.2429],[91.7785,23.2408],[91.783,23.2376],[91.7872,23.2335],[91.792,23.2295],[91.7922,23.2293],[91.792,23.2291],[91.7919,23.2289],[91.7916,23.2287],[91.7909,23.2267],[91.7906,23.2246],[91.7899,23.223],[91.7895,23.2217],[91.7875,23.2204],[91.7887,23.2188],[91.788,23.2185],[91.7874,23.2176],[91.7874,23.2173],[91.7878,23.2159],[91.7884,23.2145],[91.7869,23.2112],[91.7856,23.2078],[91.7864,23.2077],[91.7878,23.2081],[91.7894,23.209],[91.7914,23.2104],[91.7921,23.2097],[91.7927,23.209],[91.7928,23.2085],[91.793,23.2078],[91.7935,23.2056],[91.7939,23.2014],[91.795,23.2001],[91.7962,23.1995],[91.7969,23.1986],[91.7971,23.1979],[91.7994,23.1967],[91.8001,23.1926],[91.7999,23.1921],[91.7993,23.1902],[91.799,23.1892],[91.7987,23.187],[91.8002,23.1854],[91.8006,23.1834],[91.8016,23.1818],[91.8004,23.1804],[91.7997,23.1796],[91.7998,23.1785],[91.8011,23.1765],[91.8025,23.1737],[91.8041,23.1718],[91.8058,23.1703],[91.807,23.169],[91.8074,23.1667],[91.8074,23.1646],[91.8068,23.1635],[91.8067,23.1624],[91.8058,23.16],[91.8057,23.1586],[91.8066,23.1579],[91.8071,23.1576],[91.8079,23.1569],[91.8091,23.1568],[91.8114,23.1548],[91.8117,23.1545],[91.8134,23.1509],[91.8134,23.15],[91.8141,23.1473],[91.8143,23.1419],[91.8145,23.1387],[91.8127,23.1328],[91.8121,23.1307],[91.8137,23.1297],[91.8138,23.1296],[91.815,23.1294],[91.8156,23.1294],[91.8167,23.129],[91.8167,23.1283],[91.8178,23.1277],[91.8173,23.1261],[91.8163,23.1248],[91.8162,23.1236],[91.815,23.1227],[91.8135,23.1215],[91.8139,23.1186],[91.8157,23.1188],[91.816,23.1191],[91.8174,23.1206],[91.8182,23.1217],[91.8187,23.1222],[91.8199,23.123],[91.8209,23.1227],[91.8209,23.1224],[91.8209,23.1222],[91.8209,23.1209],[91.8207,23.1183],[91.8195,23.1159],[91.8189,23.1147],[91.8184,23.1138],[91.818,23.1123],[91.8185,23.1118],[91.8199,23.1118],[91.8212,23.1117],[91.8226,23.1116],[91.8229,23.1107],[91.8231,23.1101],[91.8232,23.1089],[91.8245,23.1073],[91.825,23.1067],[91.8245,23.1056],[91.824,23.1045],[91.8231,23.1038],[91.8227,23.1035],[91.8223,23.1028],[91.8229,23.1021],[91.8231,23.1015],[91.8233,23.1008],[91.8243,23.1003],[91.8252,23.0999],[91.8269,23.1002],[91.8295,23.1007],[91.8317,23.1001],[91.8326,23.0988],[91.8345,23.0966],[91.8354,23.0954],[91.8355,23.0939],[91.8345,23.0919],[91.8338,23.0913],[91.8322,23.0896],[91.8306,23.0893],[91.8299,23.0892],[91.8282,23.0854],[91.8276,23.0849],[91.8257,23.0839],[91.8248,23.0846],[91.8241,23.0861],[91.8229,23.0863],[91.8221,23.0853],[91.8213,23.0829],[91.823,23.0814],[91.8247,23.0803],[91.8247,23.0783],[91.8234,23.0757],[91.8198,23.0746],[91.8165,23.0738],[91.8162,23.0706],[91.8153,23.0708],[91.8151,23.0699],[91.8129,23.0711],[91.8126,23.0713],[91.8096,23.0695],[91.8089,23.069],[91.8069,23.0676],[91.8059,23.0674],[91.8051,23.067],[91.7998,23.0657],[91.7962,23.0657],[91.7954,23.0657],[91.7953,23.0658],[91.7946,23.0666],[91.7937,23.0677],[91.7941,23.0693],[91.7942,23.07],[91.7939,23.0705],[91.7937,23.0708],[91.793,23.071],[91.7878,23.0727],[91.7876,23.0725],[91.7867,23.071],[91.786,23.0696],[91.7859,23.0701],[91.7852,23.0707],[91.7844,23.0701],[91.7828,23.0693],[91.7825,23.0692],[91.7813,23.0688],[91.7804,23.0685],[91.7785,23.0667],[91.778,23.0649],[91.7789,23.0628],[91.7802,23.0613],[91.7803,23.0597],[91.78,23.0589],[91.7798,23.0585],[91.7804,23.0564],[91.7825,23.0533],[91.783,23.0528],[91.7848,23.0512],[91.7868,23.0489],[91.7873,23.0458],[91.7874,23.0421],[91.787,23.0403],[91.787,23.0366],[91.7858,23.0335],[91.785,23.0317],[91.7838,23.0315],[91.7833,23.0315],[91.7805,23.0311],[91.7776,23.0364],[91.7775,23.0379],[91.7773,23.0411],[91.7765,23.0442],[91.776,23.0448],[91.7754,23.0455],[91.7734,23.0441],[91.7728,23.043],[91.7739,23.0408],[91.7744,23.04],[91.7744,23.0398],[91.7743,23.0372],[91.7712,23.0368],[91.7663,23.0293],[91.7607,23.0252],[91.7584,23.0207],[91.7561,23.0156],[91.7511,23.01],[91.7463,23.0066],[91.7457,23.0062],[91.7416,23.0051],[91.7392,23.0046],[91.7337,23.0013],[91.7289,22.9976],[91.7281,22.9969],[91.7274,22.9949],[91.7273,22.9946],[91.7271,22.9937],[91.7269,22.9926],[91.7261,22.9898],[91.7256,22.9893],[91.724,22.9887],[91.7234,22.9897],[91.7213,22.9888],[91.7205,22.9882],[91.7195,22.9898],[91.7188,22.9915],[91.7172,22.9946],[91.7151,22.9969],[91.7109,22.9978],[91.71,22.9982],[91.7052,23.0005],[91.7007,23.0009],[91.6983,23.0026],[91.6959,23.0008],[91.6937,22.9984],[91.692,22.9969],[91.6915,22.9958],[91.691,22.9944],[91.6906,22.9933],[91.6915,22.992],[91.6885,22.9879],[91.6856,22.9879],[91.6817,22.99],[91.6828,22.9945],[91.6827,22.9957],[91.682,22.9962],[91.6804,22.9959],[91.6797,22.9947],[91.6803,22.9935],[91.6803,22.9923],[91.679,22.9913],[91.678,22.9912],[91.6754,22.9879],[91.671,22.9877],[91.6668,22.9878],[91.6658,22.9906],[91.6632,22.9906],[91.6622,22.99],[91.6629,22.9894],[91.6606,22.9881],[91.6579,22.9868],[91.657,22.9867],[91.6565,22.9882],[91.6562,22.9899],[91.6559,22.9904],[91.6554,22.9911],[91.6527,22.9919],[91.6521,22.992],[91.6515,22.9907],[91.6515,22.9887],[91.6516,22.9876],[91.6516,22.987],[91.6517,22.9865],[91.6544,22.9859],[91.6527,22.9831],[91.6501,22.9799],[91.646,22.9788],[91.6458,22.9781],[91.6441,22.9764],[91.6421,22.9741],[91.6416,22.9732],[91.6407,22.9722],[91.6394,22.9707],[91.6373,22.9698],[91.6366,22.9676],[91.6345,22.9675],[91.6336,22.9664],[91.6344,22.9647],[91.6333,22.963],[91.6312,22.9613],[91.6283,22.9612],[91.6274,22.9602],[91.6273,22.9594],[91.6279,22.958],[91.629,22.9569],[91.6276,22.9549],[91.6253,22.9525],[91.6243,22.9513],[91.6236,22.948],[91.6189,22.9443],[91.6187,22.9442],[91.6185,22.9444],[91.6167,22.9465],[91.619,22.95],[91.6182,22.9528],[91.6163,22.9548],[91.6188,22.9567],[91.6189,22.9568],[91.6194,22.9579],[91.6196,22.9589],[91.6192,22.9598],[91.6179,22.96],[91.6159,22.9593],[91.6152,22.959],[91.615,22.9589],[91.6113,22.9549],[91.6093,22.956],[91.6087,22.9563],[91.6067,22.956],[91.6049,22.956],[91.6052,22.9578],[91.6066,22.9589],[91.6057,22.9599],[91.6067,22.9618],[91.6072,22.9633],[91.6084,22.9648],[91.6085,22.9648],[91.61,22.9655],[91.6107,22.9659],[91.6097,22.966],[91.6091,22.9661],[91.6087,22.9666],[91.6074,22.9683],[91.6074,22.9684],[91.6084,22.97],[91.6109,22.9714],[91.612,22.9719],[91.612,22.9734],[91.6106,22.9736],[91.6095,22.9733],[91.6077,22.9729],[91.6073,22.9736],[91.607,22.9746],[91.6069,22.9747],[91.6065,22.9751],[91.6064,22.9749],[91.6039,22.9719],[91.6032,22.9716],[91.5996,22.9696],[91.5974,22.9703],[91.5971,22.9704],[91.5968,22.9705],[91.5974,22.9725],[91.5982,22.9752],[91.5975,22.9758],[91.5974,22.9757],[91.5955,22.975],[91.5946,22.9735],[91.5935,22.9717],[91.5924,22.9704],[91.5903,22.9696],[91.5898,22.9683],[91.5874,22.964],[91.5834,22.9632],[91.5833,22.9638],[91.5807,22.966],[91.5757,22.9685],[91.5678,22.9723],[91.5659,22.9744],[91.5642,22.9754],[91.5628,22.9765],[91.5628,22.9786],[91.5628,22.979],[91.5627,22.983],[91.5629,22.9862],[91.5625,22.9887],[91.5626,22.9897],[91.5599,22.9921],[91.5591,22.9928],[91.5528,22.9925],[91.5489,22.9948],[91.5484,22.9955],[91.5478,22.9976],[91.5472,22.9988],[91.5468,22.9994],[91.5472,23.0011],[91.5473,23.0018],[91.549,23.0063],[91.5508,23.0096],[91.5522,23.013],[91.5533,23.0158],[91.5499,23.0154],[91.5455,23.0149],[91.5464,23.0174],[91.5441,23.0179],[91.5462,23.021],[91.5463,23.0211],[91.5489,23.0257],[91.5518,23.0295],[91.554,23.0322],[91.5543,23.0329],[91.5542,23.0338],[91.5503,23.034],[91.5476,23.0341],[91.5385,23.0347],[91.5385,23.0357],[91.5357,23.0388],[91.5367,23.0408],[91.537,23.0422],[91.5374,23.0439],[91.5393,23.0477],[91.5414,23.0504],[91.538,23.0514],[91.537,23.0517],[91.5323,23.0531],[91.5312,23.0533],[91.53,23.0534],[91.5286,23.0536],[91.5295,23.0555],[91.5309,23.0573],[91.5328,23.0581],[91.5329,23.0581],[91.5334,23.0583],[91.5338,23.0585],[91.5363,23.0597],[91.5375,23.0595],[91.5393,23.0621],[91.5385,23.0632],[91.5379,23.0653],[91.5364,23.0686],[91.5358,23.0692],[91.5345,23.0706],[91.5338,23.0745],[91.5337,23.0749],[91.5335,23.0752],[91.533,23.0765],[91.5313,23.0793],[91.5311,23.0812],[91.5326,23.0837],[91.5341,23.0843],[91.5353,23.087],[91.5338,23.0893],[91.5338,23.0895],[91.5338,23.0897],[91.5337,23.0897],[91.5332,23.0915],[91.5308,23.0914],[91.5285,23.0918],[91.5264,23.0923],[91.5252,23.0934],[91.5248,23.0951],[91.5258,23.0967],[91.5261,23.0971],[91.5265,23.1004],[91.5246,23.1007],[91.5224,23.1011],[91.5213,23.1024],[91.519,23.1025],[91.5176,23.1032],[91.5161,23.1048],[91.5159,23.1051],[91.5155,23.1056],[91.516,23.1078],[91.5171,23.1104],[91.5173,23.1106],[91.5191,23.1127],[91.5222,23.1124],[91.5235,23.1143],[91.5221,23.1168],[91.5211,23.1181],[91.5208,23.1197],[91.5149,23.1249],[91.5137,23.1254],[91.5117,23.1255],[91.5101,23.1262],[91.5097,23.1265],[91.5089,23.1272],[91.5095,23.1297],[91.5118,23.132],[91.5143,23.1332],[91.5168,23.1354],[91.5217,23.1391],[91.5204,23.1392],[91.5157,23.1366],[91.5121,23.1373],[91.509,23.138],[91.5063,23.1412],[91.504,23.1416],[91.5026,23.1433],[91.5028,23.1451],[91.505,23.1468],[91.5056,23.1475],[91.5062,23.1481],[91.5085,23.1493],[91.5103,23.1506],[91.5067,23.1499],[91.5053,23.15],[91.5018,23.1503],[91.5015,23.1508],[91.4996,23.1505],[91.4983,23.1508],[91.4975,23.1531],[91.4974,23.1533],[91.4976,23.1559],[91.4983,23.1589],[91.501,23.161],[91.5031,23.1648],[91.5038,23.1658],[91.5013,23.1693],[91.4999,23.1693],[91.4983,23.1697],[91.4983,23.17],[91.4984,23.1705],[91.498,23.1722],[91.4983,23.1733],[91.4986,23.174],[91.4991,23.175],[91.5005,23.1763],[91.5026,23.1776],[91.5054,23.1788],[91.5074,23.179],[91.5086,23.1795],[91.5109,23.182],[91.5097,23.1828],[91.5082,23.1831],[91.5069,23.1835],[91.5063,23.1842],[91.5063,23.1857],[91.5064,23.1866],[91.5007,23.1869],[91.4956,23.1873],[91.4919,23.1877],[91.4905,23.187],[91.4887,23.1872],[91.4871,23.1876],[91.4839,23.1881],[91.4815,23.1859],[91.4789,23.1863],[91.4748,23.1884],[91.4742,23.1888],[91.4769,23.1939],[91.477,23.1943],[91.4774,23.1948],[91.4787,23.1955],[91.4794,23.1955],[91.4805,23.1954],[91.4822,23.1955],[91.4842,23.1956],[91.486,23.1958],[91.4889,23.199],[91.4892,23.2],[91.4895,23.2022],[91.4879,23.2051],[91.4882,23.2064],[91.4878,23.2082],[91.4868,23.2091],[91.486,23.2122],[91.4858,23.2124],[91.485,23.2131],[91.484,23.2141],[91.483,23.215],[91.4824,23.2162],[91.4786,23.216],[91.4737,23.2143],[91.4671,23.2125],[91.4656,23.2124],[91.4643,23.2122],[91.4638,23.2129],[91.4622,23.2131],[91.4618,23.2141],[91.4599,23.2147],[91.4593,23.215],[91.4586,23.2154],[91.4579,23.2171],[91.4586,23.2188],[91.4593,23.2193],[91.46,23.2198],[91.4619,23.2207],[91.4634,23.2217],[91.4646,23.2219],[91.4658,23.2226],[91.4675,23.223],[91.471,23.2234],[91.4745,23.2243],[91.4748,23.2256],[91.4744,23.2268],[91.4735,23.2281],[91.4706,23.2325],[91.4705,23.2327],[91.468,23.235],[91.4667,23.2385],[91.4643,23.2402],[91.4621,23.2419],[91.4606,23.2424],[91.4583,23.2426],[91.4567,23.242],[91.4557,23.2417],[91.4537,23.242],[91.4517,23.2435],[91.4519,23.2454],[91.452,23.2466],[91.4521,23.2484],[91.4542,23.2487],[91.4547,23.2488],[91.457,23.2508],[91.459,23.2526],[91.4593,23.2533],[91.4597,23.2547],[91.4578,23.2559],[91.456,23.2561],[91.452,23.2567],[91.4434,23.2581],[91.4366,23.2584],[91.4326,23.2584],[91.4292,23.2584],[91.4286,23.2583],[91.4263,23.2583],[91.425,23.257],[91.4237,23.255],[91.4218,23.2572],[91.422,23.2597],[91.422,23.2631],[91.4223,23.2649],[91.4224,23.2658],[91.4232,23.2708],[91.4232,23.2711],[91.4245,23.2732],[91.4237,23.2758],[91.419,23.2802],[91.4186,23.2767],[91.4177,23.2686],[91.4181,23.2543],[91.415,23.255],[91.4146,23.2543],[91.4122,23.2544],[91.4101,23.256],[91.4093,23.258],[91.4091,23.2595],[91.4078,23.2609],[91.4077,23.254],[91.4077,23.2536],[91.4085,23.2528],[91.4091,23.2522],[91.411,23.2502],[91.4132,23.2488],[91.4157,23.2449],[91.4149,23.2446],[91.4073,23.2428],[91.403,23.2377],[91.4061,23.2318],[91.4065,23.2312],[91.404,23.2262],[91.3958,23.2234],[91.397,23.2186],[91.397,23.2135],[91.3929,23.2086],[91.393,23.2048],[91.3938,23.2041],[91.3939,23.2034],[91.3933,23.2017],[91.3932,23.2009],[91.3934,23.1934],[91.3905,23.1882],[91.3888,23.1795],[91.3903,23.1761],[91.3904,23.1751],[91.3929,23.1677],[91.3908,23.1576],[91.3909,23.1573],[91.3915,23.1526],[91.3932,23.1506],[91.3944,23.15],[91.3958,23.1475],[91.3978,23.1416],[91.3981,23.1409],[91.4012,23.1352],[91.4031,23.1291],[91.4033,23.1252],[91.4035,23.119],[91.4038,23.118],[91.405,23.1159],[91.4054,23.1153],[91.4067,23.114],[91.4075,23.1132],[91.4089,23.1101],[91.41,23.1068],[91.409,23.1045],[91.4093,23.1039],[91.4081,23.0951],[91.408,23.0947],[91.4082,23.0947],[91.4094,23.0945],[91.4124,23.0948],[91.413,23.0936],[91.4122,23.0917],[91.4128,23.0912],[91.4125,23.0866],[91.4123,23.0834],[91.4129,23.0828],[91.4149,23.0809],[91.4174,23.0803],[91.4185,23.08],[91.4196,23.0803],[91.4216,23.0807],[91.4225,23.0792],[91.4213,23.0774],[91.4219,23.0763],[91.4206,23.0742],[91.42,23.0732],[91.418,23.0691],[91.4181,23.0677],[91.4181,23.0666],[91.4182,23.0641],[91.419,23.0632],[91.4199,23.0614],[91.422,23.0592],[91.4177,23.0556],[91.4112,23.0537],[91.4023,23.0518],[91.3959,23.0554],[91.3882,23.0583],[91.3777,23.0641],[91.3761,23.0687],[91.3736,23.0712],[91.3715,23.0741],[91.37,23.0762],[91.3666,23.0819],[91.3662,23.0824],[91.3661,23.0826],[91.3635,23.0867],[91.3597,23.0906],[91.3567,23.0946],[91.3563,23.0952],[91.3536,23.1002],[91.3532,23.1014],[91.3531,23.1061],[91.3532,23.111],[91.3527,23.1138],[91.3504,23.1161],[91.3475,23.1167],[91.3472,23.12],[91.3481,23.1236],[91.3475,23.1275],[91.3451,23.1287],[91.3432,23.1313],[91.3418,23.1362],[91.3415,23.1412],[91.3401,23.1446],[91.3398,23.1477],[91.3393,23.151],[91.3373,23.1544],[91.3346,23.1557],[91.3303,23.1577],[91.3304,23.1608],[91.3304,23.1637],[91.3311,23.1688],[91.3308,23.1716],[91.3301,23.1833],[91.3298,23.19],[91.33,23.1945],[91.3295,23.1972],[91.3298,23.2109],[91.3309,23.2158],[91.3305,23.2193],[91.3296,23.2237],[91.3288,23.2287],[91.3287,23.235],[91.3255,23.2407],[91.3257,23.2459],[91.3303,23.247],[91.3315,23.2504],[91.3323,23.2528],[91.3284,23.2531],[91.3274,23.2532],[91.3253,23.2537],[91.3238,23.2562],[91.3237,23.2566],[91.3234,23.2587],[91.3214,23.2633],[91.3186,23.269],[91.3168,23.2739],[91.3165,23.2747],[91.3164,23.2749],[91.316,23.2767],[91.3187,23.2796],[91.3188,23.2797],[91.3226,23.2821],[91.3192,23.2834],[91.3154,23.2854],[91.3112,23.2857],[91.3082,23.2883],[91.3064,23.2906],[91.3073,23.293],[91.3094,23.2967],[91.3125,23.2995],[91.3166,23.2996],[91.3202,23.2989],[91.3215,23.3022],[91.3199,23.306],[91.3187,23.3096],[91.3159,23.3143],[91.3126,23.3152],[91.312,23.3154],[91.3089,23.3148],[91.3045,23.3144],[91.3023,23.3157],[91.2991,23.3177],[91.2973,23.321],[91.2981,23.3272],[91.299,23.3301],[91.3011,23.3354],[91.3025,23.3411],[91.3064,23.3442],[91.3117,23.3448],[91.315,23.3447],[91.3166,23.3478],[91.3177,23.3533],[91.3212,23.3545],[91.3254,23.3571],[91.3256,23.3623],[91.3213,23.3617],[91.3166,23.3599],[91.3162,23.3597],[91.3123,23.3574],[91.3093,23.3552],[91.3069,23.3547],[91.3042,23.3541],[91.299,23.352],[91.2967,23.3545],[91.2977,23.3565],[91.2983,23.3575],[91.2999,23.3623],[91.2964,23.3629],[91.2948,23.3633],[91.2932,23.3649],[91.2921,23.3661],[91.2921,23.3682],[91.2921,23.3693],[91.2917,23.3701],[91.2909,23.3718],[91.294,23.3722],[91.2969,23.3728],[91.2983,23.3731],[91.2984,23.3757],[91.2981,23.3787],[91.2964,23.3783],[91.2949,23.3779],[91.2914,23.3769],[91.2905,23.3771],[91.2865,23.378],[91.285,23.3818],[91.284,23.3844],[91.2838,23.3853],[91.2834,23.3864],[91.2833,23.3882],[91.2831,23.392],[91.2825,23.3971],[91.2826,23.4025],[91.2825,23.4053],[91.2833,23.4104],[91.2821,23.4162],[91.2805,23.4188],[91.2772,23.4201],[91.2725,23.424],[91.271,23.4263],[91.2737,23.4298],[91.2736,23.4338],[91.2708,23.4369],[91.2674,23.4389],[91.2661,23.4397],[91.2635,23.4412],[91.2616,23.444],[91.2609,23.4458],[91.2599,23.4485],[91.259,23.4549],[91.2575,23.4646],[91.2559,23.4676],[91.257,23.4707],[91.2564,23.4746],[91.2565,23.482],[91.2538,23.4897],[91.2511,23.4913],[91.245,23.4917],[91.2393,23.4938],[91.2374,23.4946],[91.2387,23.4955],[91.239,23.4957],[91.2377,23.5001],[91.239,23.5031],[91.2368,23.5032],[91.2347,23.5023],[91.2311,23.5004],[91.2282,23.4998],[91.2265,23.5006],[91.2245,23.5024],[91.2235,23.5049],[91.2247,23.5069],[91.2262,23.5105],[91.2271,23.514],[91.2229,23.5139],[91.218,23.5134],[91.2154,23.5124],[91.211,23.5139],[91.2088,23.5162],[91.2069,23.5178],[91.2052,23.5206],[91.2051,23.5208],[91.2042,23.5242],[91.2065,23.5279],[91.2068,23.5283],[91.2086,23.5334],[91.2096,23.5348],[91.2114,23.537],[91.2116,23.5381],[91.2119,23.5413],[91.2128,23.542],[91.2148,23.5436],[91.218,23.5484],[91.2175,23.5492],[91.2167,23.5493],[91.2155,23.5495],[91.2141,23.5488],[91.2133,23.5484],[91.2123,23.5478],[91.2107,23.5468],[91.2092,23.5469],[91.2083,23.5471],[91.2065,23.5482],[91.2057,23.5486],[91.2047,23.5481],[91.204,23.5478],[91.2022,23.5474],[91.1994,23.548],[91.1985,23.5491],[91.1987,23.5519],[91.1988,23.5541],[91.1989,23.556],[91.1991,23.5591],[91.1986,23.5619],[91.1989,23.5657],[91.1948,23.5709],[91.1936,23.5747],[91.1859,23.5811],[91.1823,23.5846],[91.1796,23.5858],[91.1794,23.588],[91.1806,23.5906],[91.1821,23.5937],[91.1802,23.5944],[91.1781,23.5938],[91.1775,23.5936],[91.1747,23.5935],[91.173,23.5936],[91.169,23.5951],[91.1672,23.5979],[91.1666,23.5987],[91.1658,23.6023],[91.1666,23.6046],[91.1663,23.6083],[91.1646,23.6121],[91.1644,23.6152],[91.1645,23.6194],[91.1632,23.623],[91.1626,23.6283],[91.1633,23.6317],[91.1647,23.6354],[91.1627,23.6392],[91.1627,23.6435],[91.1629,23.6441],[91.1644,23.6478],[91.1645,23.6547],[91.1644,23.6588],[91.1638,23.6618],[91.1622,23.6638],[91.1611,23.6651],[91.1604,23.6681],[91.1613,23.6706],[91.1633,23.6681],[91.1649,23.6653],[91.1681,23.664],[91.1716,23.6623],[91.1722,23.6618],[91.1739,23.6599],[91.1762,23.6572],[91.1809,23.6564],[91.1815,23.6563],[91.186,23.6561],[91.1906,23.6561],[91.1952,23.6553],[91.1954,23.6519],[91.1954,23.6511],[91.1953,23.6487],[91.1963,23.6482],[91.1989,23.647],[91.2021,23.6482],[91.2042,23.6493],[91.2065,23.651],[91.2069,23.6513],[91.2071,23.6514],[91.2084,23.654],[91.2099,23.6566],[91.2077,23.658],[91.2061,23.6602],[91.206,23.6654],[91.2068,23.6682],[91.2071,23.6695],[91.2079,23.6718],[91.2083,23.6758],[91.2082,23.6798],[91.2084,23.6827],[91.209,23.6844],[91.2101,23.6876],[91.2068,23.688],[91.2051,23.6901],[91.201,23.6924],[91.1972,23.6923],[91.1934,23.6908],[91.1877,23.6919],[91.185,23.6915],[91.1807,23.692],[91.1766,23.692],[91.1723,23.6915],[91.1675,23.6916],[91.1632,23.6911],[91.1583,23.6912],[91.1561,23.6944],[91.1567,23.6991],[91.1559,23.7037],[91.1545,23.7098],[91.1548,23.7164],[91.1559,23.7234],[91.1582,23.7292],[91.1598,23.7346],[91.1604,23.7394],[91.1617,23.7427],[91.1639,23.7462],[91.1671,23.7485],[91.1684,23.7495],[91.1724,23.7521],[91.178,23.7516],[91.183,23.7511],[91.1876,23.7511],[91.1893,23.7517],[91.1949,23.7532],[91.1955,23.7533],[91.2001,23.7531],[91.2055,23.7522],[91.2104,23.7516],[91.2109,23.7516],[91.2143,23.7501],[91.215,23.7487],[91.2158,23.747],[91.2171,23.7437],[91.22,23.7412],[91.2231,23.7397],[91.2246,23.7401],[91.2259,23.7434],[91.2262,23.7448],[91.2268,23.7453],[91.2276,23.7496],[91.2294,23.7526],[91.2298,23.7559],[91.2303,23.7596],[91.2326,23.7637],[91.2341,23.7694],[91.2343,23.7735],[91.2344,23.7773],[91.2342,23.7823],[91.234,23.7858],[91.232,23.7893],[91.231,23.7917],[91.2321,23.797],[91.2351,23.8021],[91.2374,23.8084],[91.2376,23.8115],[91.2405,23.8153],[91.2437,23.8197],[91.2447,23.8219],[91.245,23.8223],[91.2465,23.8253],[91.2488,23.8284],[91.2518,23.8331],[91.2543,23.8362],[91.2576,23.8397],[91.2569,23.8445],[91.255,23.8495],[91.2521,23.8523],[91.2472,23.8584],[91.2453,23.8623],[91.2434,23.866],[91.2423,23.8703],[91.2403,23.8737],[91.2395,23.8767],[91.2377,23.8799],[91.2361,23.8809],[91.2325,23.8832],[91.2324,23.8857],[91.2324,23.8861],[91.2323,23.8884],[91.2321,23.8936],[91.2322,23.8957],[91.2322,23.8995],[91.2341,23.9014],[91.2356,23.9021],[91.2383,23.9032],[91.2412,23.904],[91.2443,23.906],[91.2489,23.9089],[91.249,23.9102],[91.2495,23.9133],[91.2481,23.9165],[91.2468,23.919],[91.246,23.9216],[91.2443,23.9239],[91.2396,23.9261],[91.2389,23.9263],[91.2356,23.9274],[91.2352,23.9286],[91.2365,23.9297],[91.2395,23.9295],[91.2468,23.9284],[91.2518,23.929],[91.2544,23.9275],[91.2571,23.9273],[91.2623,23.9265],[91.2672,23.9271],[91.2721,23.927],[91.2726,23.927],[91.2763,23.9262],[91.278,23.9282],[91.2776,23.9297],[91.2759,23.936],[91.274,23.9403],[91.2722,23.9421],[91.2702,23.9433],[91.2669,23.9446],[91.2661,23.9486],[91.2678,23.953],[91.268,23.9533],[91.2683,23.9539],[91.2688,23.9556],[91.2694,23.9571],[91.27,23.9584],[91.2706,23.9598],[91.2718,23.9636],[91.2733,23.9667],[91.2759,23.97],[91.2788,23.9739],[91.2799,23.9768],[91.2816,23.9802],[91.2837,23.9831],[91.2856,23.9831],[91.285,23.9804],[91.285,23.9802],[91.2848,23.9784],[91.2845,23.9757],[91.2863,23.971],[91.2895,23.968],[91.2931,23.9695],[91.2942,23.9703],[91.296,23.9715],[91.2997,23.9727],[91.3006,23.975],[91.3005,23.9787],[91.3007,23.9834],[91.3019,23.985],[91.3029,23.9863],[91.304,23.9895],[91.3048,23.9938],[91.3056,23.9955],[91.3057,23.9963],[91.3059,23.9971],[91.3063,23.9979],[91.3064,23.9986],[91.3188,23.9937],[91.3234,23.9954],[91.3271,23.9946],[91.3299,23.9937],[91.3321,23.9927],[91.3347,23.9918],[91.3363,23.99],[91.339,23.9861],[91.3444,23.9844],[91.3481,23.9851],[91.3513,23.9846],[91.3549,23.9845],[91.3577,23.9853],[91.3601,23.9863],[91.3606,23.9865],[91.3617,23.9859],[91.3619,23.9858],[91.3624,23.9855],[91.3628,23.9853],[91.3638,23.9847],[91.3641,23.9845],[91.3658,23.9836],[91.3698,23.9808],[91.3704,23.9803],[91.373,23.9784],[91.3754,23.9774],[91.3782,23.9769],[91.379,23.9787],[91.3779,23.9847],[91.3771,23.9876],[91.3769,23.9901],[91.3772,23.9949],[91.3743,23.9973],[91.3739,24.001],[91.3743,24.0079],[91.3772,24.0121],[91.381,24.0179],[91.3883,24.0248],[91.3908,24.0291],[91.3924,24.0339],[91.3942,24.0406],[91.3955,24.0457],[91.3965,24.0514],[91.3948,24.0559],[91.3882,24.0645],[91.3846,24.0704],[91.381,24.0753],[91.3784,24.0778],[91.3771,24.0813],[91.3763,24.0891],[91.3766,24.0939],[91.3757,24.0993],[91.3752,24.1044],[91.3754,24.1075],[91.378,24.1095],[91.3836,24.109],[91.386,24.1088],[91.3863,24.1087],[91.3877,24.1092],[91.3894,24.1098],[91.3916,24.1099],[91.3948,24.1093],[91.3979,24.109],[91.3999,24.1108],[91.4035,24.1109],[91.4103,24.1111],[91.418,24.1098],[91.4219,24.1092],[91.4222,24.1092],[91.4253,24.1079],[91.4285,24.108],[91.4304,24.1076],[91.4308,24.1042],[91.4319,24.102],[91.4348,24.1011],[91.4364,24.1019],[91.4387,24.1031],[91.4405,24.103],[91.4421,24.1008],[91.4441,24.098],[91.4455,24.0983],[91.4479,24.1],[91.4502,24.1008],[91.4529,24.0998],[91.4552,24.098],[91.4579,24.098],[91.4613,24.0981],[91.4638,24.0976],[91.4646,24.0981],[91.4654,24.0986],[91.4673,24.0996],[91.4734,24.1],[91.4755,24.1001],[91.4781,24.0983],[91.4792,24.0975],[91.4798,24.0972],[91.4815,24.0962],[91.4849,24.0964],[91.4874,24.0969],[91.4905,24.0978],[91.4924,24.0965],[91.4927,24.0944],[91.4934,24.0903],[91.4964,24.0887],[91.4989,24.0883],[91.5076,24.087],[91.5129,24.0869],[91.5172,24.0866],[91.5191,24.0863],[91.5218,24.0846],[91.525,24.084],[91.5361,24.0812],[91.537,24.0807],[91.5378,24.0802],[91.5405,24.0788],[91.543,24.0764],[91.5452,24.0761],[91.548,24.078],[91.5481,24.078],[91.5507,24.0779],[91.5531,24.0766],[91.5551,24.0764],[91.5571,24.0785],[91.5598,24.0789],[91.5635,24.0785],[91.5676,24.0783],[91.5713,24.0784],[91.572,24.0786],[91.5737,24.0793],[91.5764,24.0798],[91.5787,24.0798],[91.581,24.0785],[91.5846,24.0761],[91.5875,24.077],[91.5884,24.0772],[91.5933,24.0793],[91.5962,24.0802],[91.5961,24.0829],[91.5967,24.0851],[91.5991,24.0865],[91.5993,24.0881],[91.5955,24.0907],[91.5943,24.0947],[91.5969,24.0964],[91.6002,24.0984],[91.603,24.0983],[91.6059,24.0975],[91.609,24.096],[91.6095,24.0958],[91.6119,24.0946],[91.6141,24.0956],[91.6155,24.0962],[91.6181,24.0971],[91.6226,24.0974],[91.6257,24.0988],[91.6279,24.0996],[91.6302,24.1005],[91.6341,24.1026],[91.6382,24.1057],[91.6403,24.1084],[91.6415,24.1119],[91.6423,24.1163],[91.6416,24.1232],[91.6396,24.1296],[91.6393,24.133],[91.6372,24.1368],[91.6359,24.1393],[91.6403,24.147],[91.6432,24.1511],[91.6454,24.1537],[91.6463,24.1553],[91.6467,24.1578],[91.6467,24.1581],[91.6459,24.1627],[91.6451,24.166],[91.6445,24.1694],[91.6461,24.175],[91.6477,24.178],[91.6499,24.177],[91.6535,24.1755],[91.6565,24.1762],[91.6572,24.1787],[91.6576,24.1807],[91.6582,24.1829],[91.6587,24.1842],[91.6588,24.1846],[91.6602,24.1876],[91.6593,24.1912],[91.6588,24.1933],[91.6528,24.1961],[91.6535,24.1995],[91.6539,24.2022],[91.6526,24.2054],[91.6518,24.2079],[91.65,24.211],[91.6481,24.2144],[91.6547,24.2218],[91.6561,24.225],[91.6591,24.2274],[91.6621,24.2285],[91.6645,24.2294],[91.6675,24.2304],[91.6687,24.2272],[91.6687,24.2216],[91.6691,24.2188],[91.6673,24.2151],[91.6686,24.2125],[91.6683,24.2098],[91.6707,24.2076],[91.6736,24.2042],[91.674,24.2006],[91.677,24.1987],[91.6774,24.1946],[91.6795,24.1922],[91.6801,24.187],[91.6823,24.1821],[91.6826,24.1771],[91.6842,24.1715],[91.6849,24.1694],[91.6884,24.1653],[91.6904,24.1627],[91.6924,24.1593],[91.6948,24.1591],[91.6993,24.1608],[91.7009,24.1616],[91.7028,24.1626],[91.7043,24.161],[91.7057,24.1595],[91.7059,24.1569],[91.7101,24.152],[91.7133,24.1508],[91.7206,24.1495],[91.7253,24.1476],[91.7271,24.145],[91.7318,24.1424],[91.7368,24.1429],[91.7384,24.1434],[91.7403,24.1412],[91.7429,24.1407],[91.7475,24.1412],[91.7526,24.1429],[91.7553,24.1429],[91.7558,24.1428],[91.7612,24.1416],[91.7616,24.1423],[91.7622,24.1434],[91.7605,24.152],[91.759,24.1635],[91.7574,24.1702],[91.7571,24.1753],[91.7551,24.1831],[91.7546,24.1896],[91.7528,24.1972],[91.7524,24.2042],[91.7491,24.2183],[91.7435,24.2471],[91.7495,24.2443],[91.7846,24.2244],[91.7886,24.2221],[91.7911,24.221],[91.7967,24.2206],[91.7999,24.2208],[91.8032,24.221],[91.8048,24.2196],[91.8077,24.2194],[91.8099,24.2164],[91.8111,24.2139],[91.8156,24.209],[91.8181,24.2092],[91.8219,24.211],[91.8266,24.2131],[91.8306,24.2143],[91.8308,24.2145],[91.8329,24.2176],[91.8374,24.2197],[91.8377,24.2242],[91.8399,24.2272],[91.844,24.2291],[91.8475,24.2283],[91.8445,24.2256],[91.8428,24.2222],[91.8426,24.2217],[91.8435,24.2207],[91.8466,24.2205],[91.8514,24.2215],[91.8526,24.2188],[91.8548,24.2164],[91.8569,24.2142],[91.8532,24.2145],[91.8509,24.2147],[91.8491,24.214],[91.8477,24.207],[91.8487,24.207],[91.8504,24.2071],[91.85,24.2023],[91.8496,24.202],[91.8474,24.2],[91.8467,24.1999],[91.8447,24.2037],[91.8414,24.2016],[91.8418,24.1977],[91.847,24.194],[91.8507,24.1896],[91.8523,24.1884],[91.8546,24.1861],[91.855,24.1823],[91.858,24.1815],[91.8625,24.1816],[91.8655,24.1789],[91.8693,24.1766],[91.872,24.1741],[91.8727,24.1712],[91.8732,24.1657],[91.8746,24.1619],[91.8753,24.1572],[91.8773,24.1542],[91.8782,24.1506],[91.8785,24.1478],[91.8815,24.1454],[91.8832,24.142],[91.8883,24.137],[91.8919,24.1379],[91.893,24.1388],[91.8945,24.1399],[91.8957,24.14],[91.8985,24.139],[91.9005,24.1383],[91.9022,24.1379],[91.9026,24.1378],[91.906,24.1402],[91.9099,24.1423],[91.9113,24.1454],[91.9113,24.1476],[91.9099,24.1502],[91.9117,24.1532],[91.9127,24.155],[91.9125,24.1581],[91.9143,24.1601],[91.9147,24.1637],[91.9148,24.1674],[91.913,24.1696],[91.9119,24.1717],[91.9221,24.2038],[91.9278,24.2227],[91.9322,24.2395],[91.9371,24.2537],[91.9419,24.2676],[91.9411,24.2707],[91.9345,24.2912],[91.9292,24.3078],[91.9249,24.3208],[91.9204,24.3358],[91.9261,24.3372],[91.9267,24.3377],[91.9306,24.3402],[91.936,24.342],[91.9403,24.3435],[91.9416,24.3454],[91.9421,24.3462],[91.9437,24.3485],[91.9483,24.3505],[91.9526,24.3537],[91.9571,24.3563],[91.9576,24.3559],[91.9661,24.3503],[91.9711,24.3488],[91.9717,24.348],[91.974,24.3454],[91.9754,24.3415],[91.975,24.3412],[91.9708,24.339],[91.9745,24.3316],[91.9791,24.3318],[91.9828,24.3311],[91.9861,24.326],[91.9912,24.3234],[91.9954,24.3213],[91.9977,24.3235],[91.9963,24.3279],[91.9961,24.3294],[91.9959,24.332],[91.9995,24.3345],[91.9983,24.3393],[91.9929,24.3435],[91.9891,24.3465],[91.9862,24.3506],[91.9836,24.3546],[91.98,24.358],[91.9815,24.3602],[91.9849,24.3608],[91.9818,24.3644],[91.9794,24.3671],[91.9781,24.3707],[91.9736,24.3711],[91.9719,24.3745],[91.9696,24.3788],[91.9666,24.3792],[91.9646,24.3818],[91.9669,24.3844],[91.9702,24.3863],[91.9704,24.3864],[91.9741,24.3886],[91.9771,24.3862],[91.9782,24.3852],[91.9784,24.3805],[91.9816,24.3793],[91.9841,24.3766],[91.9864,24.3761],[91.9853,24.3817],[91.9859,24.3844],[91.9861,24.3855],[91.9898,24.3889],[91.9937,24.3874],[91.9941,24.3872],[91.9986,24.3911],[92,24.392],[92.0009,24.3907],[92.0038,24.3888],[92.0067,24.3868],[92.0067,24.383],[92.0101,24.382],[92.0129,24.3837],[92.0179,24.3847],[92.0217,24.383],[92.025,24.38],[92.0283,24.3795],[92.032,24.3804],[92.0343,24.3795],[92.0351,24.3796],[92.0373,24.3799],[92.0409,24.3785],[92.0411,24.3784],[92.0446,24.376],[92.0486,24.3768],[92.0563,24.376],[92.0642,24.3757],[92.0719,24.3753],[92.0752,24.3759],[92.0762,24.376],[92.0804,24.3759],[92.0827,24.3766],[92.0837,24.377],[92.0851,24.3758],[92.0857,24.3753],[92.089,24.3734],[92.0937,24.3743],[92.0965,24.3755],[92.0999,24.3785],[92.1,24.3786],[92.1031,24.3828],[92.1053,24.3835],[92.1082,24.3821],[92.1119,24.3827],[92.116,24.3844],[92.1192,24.3838],[92.1237,24.3873],[92.1238,24.3904],[92.1217,24.3923],[92.123,24.395],[92.1254,24.3971],[92.1279,24.3992],[92.1296,24.4028],[92.1318,24.4042],[92.1327,24.4061],[92.1358,24.4082],[92.1376,24.4102],[92.1357,24.4133],[92.1357,24.4155],[92.137,24.4188],[92.1375,24.4203],[92.1391,24.4244],[92.1405,24.4246],[92.1428,24.4249],[92.148,24.4242],[92.1522,24.4252],[92.1557,24.4264],[92.156,24.4264],[92.1598,24.4249],[92.1638,24.4217],[92.1669,24.4221],[92.1676,24.4231],[92.1701,24.4265],[92.1717,24.4291],[92.1728,24.4309],[92.1704,24.4326],[92.1695,24.4335],[92.166,24.4368],[92.1631,24.4392],[92.1628,24.4438],[92.1652,24.4456],[92.1668,24.4469],[92.1645,24.4521],[92.1645,24.4555],[92.1628,24.4562],[92.1606,24.4572],[92.1598,24.4596],[92.1578,24.4604],[92.1576,24.4608],[92.1578,24.4628],[92.1597,24.4659],[92.1599,24.4661],[92.1635,24.4686],[92.161,24.4714],[92.1597,24.4728],[92.1597,24.4731],[92.1594,24.4747],[92.1594,24.477],[92.1588,24.4774],[92.1551,24.4795],[92.1538,24.4836],[92.1531,24.4881],[92.1562,24.4891],[92.1563,24.4897],[92.157,24.4941],[92.1564,24.4982],[92.1553,24.4988],[92.1524,24.5003],[92.1541,24.5042],[92.1544,24.5049],[92.1561,24.5076],[92.1606,24.5077],[92.1615,24.5123],[92.1591,24.5132],[92.1561,24.5159],[92.1554,24.5182],[92.1551,24.5193],[92.1559,24.5242],[92.1578,24.5249],[92.1613,24.526],[92.1634,24.5281],[92.1642,24.529],[92.1665,24.5294],[92.1697,24.5314],[92.1734,24.534],[92.1776,24.5306],[92.1795,24.5286],[92.1792,24.5266],[92.1786,24.5235],[92.1815,24.523],[92.1852,24.5229]]]}}]}