{"type":"FeatureCollection","name":"Uttaranchal","crs":{"type":"name","properties":{"name":"urn:ogc:def:crs:OGC:1.3:CRS84"}},"features":[{"type":"Feature","properties":{"ID_0":105,"ISO":"IND","NAME_0":"India","ID_1":35,"NAME_1":"Uttaranchal","TYPE_1":"State","ENGTYPE_1":"State","NL_NAME_1":null,"VARNAME_1":"Uttarakhand"},"geometry":{"type":"Polygon","coordinates":[[[79.1948,31.3536],[79.1982,31.352],[79.2074,31.3463],[79.2106,31.345],[79.2113,31.3448],[79.2121,31.3446],[79.215,31.3427],[79.2216,31.3373],[79.2227,31.3348],[79.2227,31.3316],[79.2214,31.3299],[79.221,31.3293],[79.2209,31.3284],[79.2205,31.3279],[79.2212,31.3259],[79.2206,31.3245],[79.2208,31.3229],[79.221,31.3203],[79.2215,31.3194],[79.2231,31.3174],[79.2236,31.3169],[79.226,31.3151],[79.226,31.3142],[79.2385,31.3042],[79.2401,31.303],[79.2406,31.3019],[79.2481,31.2966],[79.2485,31.295],[79.249,31.2945],[79.2495,31.2896],[79.2477,31.2853],[79.2464,31.2837],[79.2458,31.2832],[79.2371,31.2757],[79.2338,31.2692],[79.2334,31.2662],[79.2329,31.2619],[79.2339,31.254],[79.2373,31.2507],[79.2433,31.2469],[79.2456,31.2467],[79.2474,31.2469],[79.2515,31.2465],[79.2528,31.2461],[79.2546,31.2464],[79.2552,31.2466],[79.2628,31.2453],[79.2645,31.2439],[79.2652,31.2426],[79.2663,31.2395],[79.2668,31.2392],[79.2674,31.2374],[79.2679,31.2372],[79.2686,31.2366],[79.2711,31.2318],[79.2722,31.2316],[79.2723,31.2309],[79.2728,31.2307],[79.2766,31.2228],[79.2772,31.2226],[79.2788,31.2175],[79.2863,31.1999],[79.2884,31.1956],[79.2881,31.1895],[79.2878,31.1884],[79.2849,31.1857],[79.283,31.1816],[79.2821,31.1809],[79.2821,31.1793],[79.2827,31.1755],[79.2832,31.1744],[79.2849,31.1701],[79.2857,31.1697],[79.2868,31.1688],[79.2894,31.1643],[79.2918,31.1625],[79.2937,31.1591],[79.2961,31.1571],[79.2973,31.1542],[79.2978,31.154],[79.2996,31.1492],[79.3076,31.1421],[79.3087,31.1405],[79.3087,31.1401],[79.3116,31.1392],[79.3128,31.1392],[79.3143,31.1389],[79.3179,31.1388],[79.3189,31.139],[79.3213,31.1375],[79.3218,31.1359],[79.3226,31.1354],[79.3232,31.1352],[79.3251,31.1298],[79.3261,31.1294],[79.3306,31.1287],[79.3379,31.1293],[79.3408,31.1288],[79.3419,31.1286],[79.3448,31.1275],[79.3464,31.1264],[79.35,31.1241],[79.3504,31.1238],[79.3539,31.1218],[79.3556,31.1213],[79.3606,31.1202],[79.3619,31.1207],[79.3699,31.1204],[79.3771,31.1208],[79.3789,31.1204],[79.3792,31.1203],[79.3819,31.1184],[79.3841,31.1123],[79.3851,31.11],[79.3859,31.1096],[79.3864,31.1094],[79.3871,31.1075],[79.3897,31.0988],[79.3912,31.0824],[79.3917,31.0812],[79.3924,31.0798],[79.3947,31.0796],[79.3997,31.0803],[79.4004,31.0801],[79.4017,31.0799],[79.4062,31.077],[79.4073,31.0734],[79.4079,31.0732],[79.4084,31.073],[79.4084,31.0725],[79.4085,31.0713],[79.4089,31.0565],[79.4098,31.0524],[79.4114,31.0473],[79.4131,31.0376],[79.4218,31.0358],[79.4247,31.0363],[79.4332,31.0377],[79.4573,31.0395],[79.4611,31.0404],[79.4659,31.0414],[79.472,31.0403],[79.4798,31.0381],[79.4874,31.0411],[79.4937,31.0409],[79.4971,31.0414],[79.5013,31.0391],[79.5021,31.038],[79.5029,31.0376],[79.5028,31.0305],[79.5028,31.0276],[79.504,31.0258],[79.5046,31.0256],[79.5046,31.0249],[79.5049,31.0238],[79.5054,31.0236],[79.5054,31.0231],[79.5078,31.0218],[79.5078,31.0214],[79.5083,31.0209],[79.509,31.0208],[79.5094,31.0205],[79.511,31.0196],[79.5146,31.0172],[79.5163,31.0162],[79.5171,31.0149],[79.5178,31.0144],[79.5186,31.014],[79.5186,31.0135],[79.5203,31.0106],[79.5214,31.0099],[79.5219,31.0084],[79.5225,31.0081],[79.5227,31.0045],[79.5208,30.999],[79.5195,30.9952],[79.5194,30.9934],[79.5231,30.9926],[79.5275,30.9921],[79.5313,30.9918],[79.5361,30.9922],[79.5377,30.9913],[79.5375,30.987],[79.5355,30.9854],[79.5352,30.9852],[79.5333,30.9834],[79.5313,30.9779],[79.531,30.9759],[79.5311,30.9741],[79.533,30.9732],[79.533,30.9728],[79.5343,30.9719],[79.5343,30.9714],[79.5354,30.9698],[79.5359,30.9699],[79.5406,30.9672],[79.5414,30.9665],[79.5414,30.966],[79.5417,30.9654],[79.5434,30.9644],[79.5439,30.9644],[79.5474,30.9626],[79.5484,30.962],[79.5502,30.9611],[79.5505,30.9604],[79.5512,30.9604],[79.5536,30.9589],[79.5596,30.9567],[79.5757,30.9544],[79.5769,30.9536],[79.5806,30.9503],[79.5806,30.9498],[79.5814,30.9494],[79.5814,30.9489],[79.5824,30.9483],[79.5829,30.9472],[79.5835,30.9456],[79.5848,30.944],[79.5872,30.9431],[79.5896,30.9429],[79.5903,30.9432],[79.5924,30.9443],[79.5938,30.9463],[79.5943,30.9479],[79.5965,30.9492],[79.599,30.9506],[79.6036,30.9527],[79.6059,30.9545],[79.6062,30.9554],[79.6068,30.9566],[79.6078,30.9568],[79.6158,30.9618],[79.6242,30.9653],[79.6303,30.9664],[79.6426,30.9676],[79.6494,30.9706],[79.65,30.9717],[79.6498,30.9799],[79.6505,30.9805],[79.6516,30.9844],[79.6539,30.9858],[79.6626,30.9869],[79.6712,30.9843],[79.6932,30.9817],[79.6937,30.9819],[79.6964,30.9817],[79.6969,30.9818],[79.7048,30.9834],[79.7141,30.9857],[79.7248,30.9909],[79.7261,30.992],[79.7265,30.9936],[79.727,30.9952],[79.7278,30.9955],[79.7292,30.9963],[79.7293,30.9972],[79.7322,31.0016],[79.7325,31.002],[79.7342,31.0029],[79.7346,31.0036],[79.7381,31.0061],[79.7421,31.0068],[79.7456,31.0062],[79.7506,31.0012],[79.7514,30.9989],[79.7603,30.9931],[79.7786,30.9883],[79.7845,30.9867],[79.7855,30.9864],[79.7924,30.9842],[79.805,30.9778],[79.8094,30.9773],[79.8107,30.9776],[79.8161,30.9793],[79.8181,30.9802],[79.8216,30.982],[79.8235,30.983],[79.8303,30.984],[79.841,30.9809],[79.8468,30.9814],[79.852,30.9802],[79.8549,30.9789],[79.856,30.9774],[79.8563,30.9767],[79.8576,30.9758],[79.8586,30.9751],[79.8597,30.9713],[79.8608,30.9704],[79.8616,30.9699],[79.8616,30.9692],[79.8621,30.969],[79.8638,30.9661],[79.8645,30.9644],[79.8653,30.9618],[79.866,30.9612],[79.8669,30.9584],[79.8688,30.9528],[79.8693,30.9525],[79.8701,30.9498],[79.8707,30.9494],[79.8712,30.9492],[79.8736,30.941],[79.8746,30.9388],[79.8747,30.9304],[79.8753,30.9302],[79.8766,30.9293],[79.8776,30.9264],[79.88,30.9253],[79.881,30.9251],[79.8815,30.9251],[79.8925,30.9235],[79.8941,30.9233],[79.8975,30.9217],[79.8994,30.9181],[79.902,30.9157],[79.9031,30.9118],[79.906,30.9096],[79.9068,30.9073],[79.9081,30.9033],[79.9108,30.9006],[79.9113,30.8992],[79.9116,30.8987],[79.915,30.8922],[79.9211,30.8909],[79.9344,30.893],[79.9397,30.8919],[79.9416,30.892],[79.9435,30.8916],[79.944,30.8914],[79.9464,30.8903],[79.9598,30.8856],[79.9675,30.8823],[79.9676,30.8823],[79.9676,30.8822],[79.9807,30.8739],[79.9809,30.8734],[79.9876,30.87],[79.9915,30.8688],[79.9947,30.8674],[79.9965,30.8663],[79.9992,30.8643],[80.0012,30.8625],[80.0015,30.8618],[80.0028,30.8612],[80.0033,30.8607],[80.0036,30.86],[80.0084,30.8562],[80.0095,30.854],[80.0178,30.8479],[80.0181,30.8465],[80.0249,30.8438],[80.0278,30.8434],[80.0291,30.8436],[80.0298,30.8438],[80.0382,30.843],[80.0427,30.8439],[80.0441,30.844],[80.0466,30.8407],[80.0477,30.8394],[80.0482,30.839],[80.0485,30.8384],[80.0503,30.8328],[80.0642,30.8245],[80.0642,30.8241],[80.0646,30.8237],[80.0647,30.8232],[80.0665,30.8221],[80.0695,30.8193],[80.0697,30.8179],[80.0704,30.8123],[80.0716,30.809],[80.0741,30.7997],[80.0831,30.7953],[80.0833,30.7946],[80.0849,30.7933],[80.0866,30.7919],[80.0879,30.7907],[80.088,30.7903],[80.1011,30.7815],[80.1014,30.7809],[80.1031,30.7797],[80.1079,30.779],[80.1131,30.7808],[80.1187,30.7863],[80.1204,30.7874],[80.1224,30.791],[80.1253,30.7935],[80.126,30.7939],[80.1375,30.796],[80.1383,30.7967],[80.1387,30.798],[80.1377,30.8055],[80.1386,30.81],[80.1395,30.8112],[80.1447,30.8132],[80.1478,30.8134],[80.1567,30.8125],[80.1573,30.8128],[80.1594,30.8121],[80.1635,30.81],[80.1675,30.8072],[80.1683,30.8055],[80.1686,30.8051],[80.1696,30.8033],[80.1709,30.8024],[80.1709,30.802],[80.1722,30.8011],[80.173,30.8006],[80.1741,30.7984],[80.1746,30.7981],[80.1762,30.7954],[80.177,30.7948],[80.1783,30.7935],[80.1812,30.7893],[80.1841,30.7871],[80.1849,30.7866],[80.1852,30.7855],[80.1854,30.7803],[80.1849,30.7747],[80.186,30.7704],[80.1865,30.7702],[80.1886,30.7668],[80.1894,30.7663],[80.1901,30.7649],[80.1905,30.7638],[80.1954,30.7611],[80.1973,30.76],[80.2072,30.7575],[80.208,30.7578],[80.2108,30.7641],[80.2128,30.7657],[80.2148,30.7665],[80.2173,30.767],[80.2178,30.767],[80.221,30.7659],[80.2218,30.765],[80.2228,30.7652],[80.2231,30.7646],[80.2238,30.7641],[80.2254,30.761],[80.2262,30.7604],[80.227,30.7584],[80.2275,30.7582],[80.2281,30.758],[80.2283,30.7566],[80.2295,30.7537],[80.23,30.7535],[80.2322,30.7488],[80.233,30.7482],[80.2343,30.7456],[80.235,30.745],[80.2373,30.7407],[80.2373,30.7377],[80.2369,30.7366],[80.2326,30.7296],[80.2309,30.7226],[80.2254,30.7176],[80.2236,30.7147],[80.2213,30.7045],[80.2209,30.7011],[80.2201,30.7006],[80.2198,30.6973],[80.2172,30.6952],[80.2099,30.6914],[80.2091,30.6916],[80.199,30.6901],[80.1972,30.6895],[80.1934,30.6877],[80.1933,30.6868],[80.1929,30.6864],[80.1927,30.6859],[80.1855,30.6823],[80.1828,30.6796],[80.1821,30.6781],[80.1812,30.6748],[80.1805,30.6699],[80.1832,30.6653],[80.1884,30.6622],[80.1884,30.6613],[80.1973,30.6568],[80.2004,30.6555],[80.201,30.655],[80.201,30.6539],[80.2032,30.6522],[80.2032,30.6518],[80.2064,30.6489],[80.2084,30.6453],[80.209,30.6451],[80.2094,30.6415],[80.2078,30.6367],[80.2057,30.6346],[80.2029,30.6306],[80.1992,30.6275],[80.1987,30.6266],[80.1985,30.6231],[80.1991,30.6193],[80.1996,30.6189],[80.2059,30.6164],[80.2093,30.6157],[80.2107,30.6156],[80.2113,30.6155],[80.2113,30.615],[80.2121,30.6146],[80.2125,30.6135],[80.2123,30.6089],[80.2119,30.6078],[80.2064,30.6024],[80.2059,30.6012],[80.206,30.5974],[80.2092,30.5875],[80.211,30.5823],[80.2148,30.5799],[80.2157,30.579],[80.2212,30.5763],[80.2214,30.5758],[80.2244,30.575],[80.2298,30.5726],[80.2321,30.571],[80.2324,30.5695],[80.234,30.5686],[80.2343,30.5679],[80.2371,30.5662],[80.2386,30.5657],[80.2402,30.5654],[80.2441,30.5668],[80.2461,30.5675],[80.2478,30.5686],[80.2498,30.5725],[80.2508,30.5735],[80.2511,30.5738],[80.2522,30.5749],[80.2532,30.5752],[80.2547,30.5752],[80.2554,30.5752],[80.2564,30.5748],[80.257,30.5742],[80.2566,30.5711],[80.2566,30.5709],[80.2569,30.5684],[80.2578,30.568],[80.258,30.5674],[80.2606,30.5665],[80.2611,30.5674],[80.2621,30.5679],[80.2624,30.5688],[80.2624,30.5696],[80.2625,30.5702],[80.2636,30.5711],[80.2676,30.5738],[80.2722,30.5741],[80.278,30.5745],[80.2806,30.5739],[80.2813,30.5737],[80.282,30.5733],[80.2836,30.5725],[80.2841,30.572],[80.2859,30.5718],[80.2867,30.5717],[80.2893,30.571],[80.2924,30.57],[80.2937,30.5695],[80.2946,30.5693],[80.2952,30.5696],[80.2968,30.5698],[80.2978,30.5697],[80.2989,30.5697],[80.2989,30.5688],[80.3015,30.5684],[80.3022,30.5681],[80.3056,30.5675],[80.3072,30.5668],[80.3076,30.566],[80.3074,30.5649],[80.309,30.5633],[80.309,30.5629],[80.3092,30.5626],[80.3114,30.5598],[80.3119,30.5596],[80.3127,30.5574],[80.3135,30.5569],[80.3142,30.5565],[80.3156,30.554],[80.32,30.5512],[80.3283,30.5468],[80.3335,30.5448],[80.3378,30.5431],[80.3406,30.5413],[80.3414,30.5403],[80.3456,30.5379],[80.3652,30.5287],[80.3666,30.5278],[80.3683,30.5269],[80.3813,30.5235],[80.382,30.524],[80.3837,30.5252],[80.3875,30.528],[80.3914,30.5298],[80.4006,30.5312],[80.4022,30.5305],[80.4027,30.5293],[80.4063,30.5264],[80.4081,30.5222],[80.4095,30.5187],[80.4126,30.5158],[80.4134,30.5151],[80.4156,30.5113],[80.4162,30.5106],[80.4168,30.5102],[80.4235,30.5057],[80.4481,30.4964],[80.4569,30.4939],[80.4651,30.493],[80.4716,30.4923],[80.4735,30.492],[80.4751,30.4919],[80.4853,30.4905],[80.4865,30.4901],[80.4897,30.4891],[80.493,30.4868],[80.4942,30.486],[80.4942,30.4848],[80.4949,30.4846],[80.4955,30.4835],[80.497,30.4819],[80.4978,30.4814],[80.4983,30.4799],[80.4988,30.4796],[80.5043,30.4704],[80.5051,30.4699],[80.5057,30.4688],[80.5096,30.4654],[80.5117,30.4633],[80.5122,30.4629],[80.5136,30.4613],[80.5143,30.4606],[80.5197,30.4575],[80.52,30.4566],[80.524,30.4554],[80.5265,30.4543],[80.528,30.4552],[80.5292,30.4593],[80.5298,30.4601],[80.5306,30.4611],[80.5332,30.4625],[80.5351,30.4636],[80.5351,30.464],[80.5395,30.4647],[80.5424,30.4639],[80.5432,30.4636],[80.5442,30.4633],[80.5517,30.4647],[80.5556,30.4672],[80.5577,30.4703],[80.5601,30.474],[80.5612,30.4757],[80.5642,30.4832],[80.5664,30.4886],[80.5687,30.4893],[80.5696,30.4894],[80.5767,30.4897],[80.5794,30.4888],[80.5842,30.4872],[80.5936,30.4822],[80.5952,30.4812],[80.6231,30.4634],[80.6287,30.4598],[80.6311,30.4576],[80.6337,30.4555],[80.6337,30.4546],[80.6368,30.4524],[80.6368,30.4519],[80.6374,30.451],[80.6382,30.4504],[80.6435,30.4475],[80.6447,30.4471],[80.6466,30.4463],[80.6472,30.446],[80.649,30.4453],[80.6506,30.4458],[80.6535,30.4453],[80.6607,30.4458],[80.6659,30.4434],[80.6664,30.4431],[80.6672,30.4426],[80.6673,30.4424],[80.6678,30.4412],[80.6693,30.4405],[80.6701,30.4398],[80.6751,30.4363],[80.6769,30.4351],[80.6769,30.4346],[80.6769,30.4342],[80.6786,30.433],[80.68,30.4321],[80.6998,30.4183],[80.7029,30.4167],[80.7072,30.4145],[80.7196,30.4079],[80.7313,30.4022],[80.7345,30.4001],[80.7375,30.3981],[80.7453,30.3916],[80.7456,30.3909],[80.7492,30.3879],[80.7492,30.3875],[80.7515,30.3855],[80.7523,30.3841],[80.7558,30.38],[80.7567,30.3793],[80.7574,30.377],[80.7585,30.3759],[80.7594,30.3753],[80.764,30.3655],[80.7645,30.3653],[80.7664,30.3612],[80.7669,30.361],[80.7671,30.3599],[80.7682,30.359],[80.7687,30.3587],[80.7724,30.3481],[80.7739,30.3456],[80.7744,30.3454],[80.776,30.3432],[80.7822,30.3384],[80.7825,30.3377],[80.7937,30.3303],[80.8113,30.32],[80.818,30.3168],[80.8207,30.3157],[80.8269,30.3135],[80.8458,30.3072],[80.8535,30.306],[80.865,30.3041],[80.8658,30.304],[80.8705,30.3028],[80.8835,30.2996],[80.8965,30.2939],[80.9054,30.2911],[80.9167,30.288],[80.9206,30.2873],[80.9299,30.2857],[80.9306,30.2856],[80.9342,30.2852],[80.9345,30.2852],[80.9364,30.2851],[80.9406,30.2845],[80.9423,30.284],[80.9473,30.2826],[80.9673,30.2758],[80.9725,30.2744],[80.9761,30.2736],[80.9783,30.2731],[80.9941,30.2705],[80.9983,30.2685],[81.0079,30.2642],[81.011,30.2628],[81.0121,30.262],[81.0151,30.2596],[81.0159,30.2591],[81.0171,30.2575],[81.0191,30.2532],[81.0196,30.253],[81.02,30.2507],[81.0199,30.2501],[81.0189,30.2368],[81.0142,30.2395],[81.0072,30.2406],[81,30.2451],[80.9905,30.2468],[80.9839,30.2439],[80.9789,30.239],[80.9779,30.238],[80.9613,30.2376],[80.9374,30.2348],[80.9292,30.2359],[80.923,30.2317],[80.9219,30.2293],[80.9213,30.2281],[80.9174,30.2246],[80.9119,30.2232],[80.9093,30.2211],[80.906,30.2167],[80.9041,30.2142],[80.9012,30.2131],[80.899,30.2123],[80.8959,30.2062],[80.8857,30.1944],[80.8872,30.1883],[80.8818,30.1813],[80.873,30.1758],[80.8699,30.1757],[80.8646,30.1689],[80.8653,30.1679],[80.8686,30.1667],[80.8687,30.1666],[80.8731,30.1609],[80.8726,30.1532],[80.8752,30.1443],[80.8779,30.1411],[80.8779,30.1366],[80.8805,30.1325],[80.8792,30.1285],[80.8758,30.1263],[80.8697,30.1254],[80.8643,30.1209],[80.8567,30.1203],[80.8564,30.1196],[80.856,30.1188],[80.8467,30.1161],[80.8436,30.1105],[80.8466,30.1078],[80.8479,30.1066],[80.8471,30.1023],[80.8392,30.0977],[80.8318,30.0972],[80.8307,30.0975],[80.8297,30.0978],[80.828,30.1],[80.825,30.0999],[80.8234,30.0998],[80.8212,30.0971],[80.8172,30.0963],[80.8157,30.093],[80.8118,30.0914],[80.808,30.09],[80.8034,30.0856],[80.8012,30.0809],[80.7967,30.0778],[80.7935,30.0736],[80.7926,30.0733],[80.7909,30.0693],[80.7823,30.058],[80.7814,30.0569],[80.7778,30.0543],[80.7673,30.0519],[80.7647,30.0505],[80.7629,30.0495],[80.7606,30.0444],[80.7611,30.0435],[80.7574,30.0394],[80.7573,30.0311],[80.7599,30.0276],[80.7593,30.0239],[80.7561,30.0206],[80.7532,30.0126],[80.7494,30.0066],[80.7398,29.9995],[80.7213,30.0004],[80.7141,29.9902],[80.7062,29.9857],[80.7023,29.98],[80.6988,29.9795],[80.6918,29.9741],[80.6854,29.967],[80.6839,29.9625],[80.6779,29.9581],[80.6731,29.9574],[80.6582,29.9551],[80.6503,29.9559],[80.6414,29.9612],[80.638,29.9636],[80.6333,29.9648],[80.6315,29.9652],[80.6299,29.965],[80.6231,29.964],[80.616,29.9606],[80.6131,29.9592],[80.6053,29.9587],[80.5922,29.9484],[80.581,29.9325],[80.58,29.9282],[80.576,29.9234],[80.5728,29.9151],[80.5714,29.909],[80.5731,29.9011],[80.574,29.8945],[80.5743,29.8944],[80.5677,29.8792],[80.5586,29.8706],[80.5589,29.8696],[80.5592,29.8685],[80.5633,29.8664],[80.561,29.8647],[80.5565,29.8621],[80.5563,29.8608],[80.5561,29.8596],[80.5531,29.8564],[80.5552,29.853],[80.554,29.85],[80.5545,29.8492],[80.5503,29.8501],[80.5454,29.8463],[80.5406,29.8471],[80.5376,29.8387],[80.5329,29.8382],[80.5299,29.8336],[80.5256,29.8321],[80.5257,29.8291],[80.5242,29.8277],[80.5234,29.827],[80.509,29.823],[80.5068,29.8193],[80.5029,29.8174],[80.4992,29.811],[80.5017,29.8089],[80.5019,29.8088],[80.4972,29.8048],[80.4966,29.8022],[80.4956,29.8021],[80.4972,29.7975],[80.4941,29.7953],[80.4845,29.7964],[80.4813,29.7957],[80.4782,29.7979],[80.4656,29.8023],[80.456,29.8024],[80.4496,29.7991],[80.4492,29.7989],[80.443,29.8004],[80.4396,29.8038],[80.4377,29.8057],[80.4366,29.8045],[80.4306,29.798],[80.4195,29.796],[80.4177,29.7957],[80.4148,29.7919],[80.4138,29.7919],[80.4137,29.7919],[80.4126,29.7919],[80.4086,29.7944],[80.4094,29.7916],[80.4085,29.7898],[80.4079,29.7885],[80.4089,29.784],[80.4054,29.7818],[80.4064,29.7784],[80.4016,29.7738],[80.3979,29.7631],[80.3993,29.7593],[80.3981,29.7586],[80.3976,29.7583],[80.3927,29.7604],[80.3913,29.7599],[80.3869,29.7585],[80.3873,29.7536],[80.3875,29.7505],[80.374,29.7491],[80.3697,29.7506],[80.3693,29.75],[80.367,29.7464],[80.3659,29.7402],[80.3713,29.7344],[80.3679,29.73],[80.3677,29.7249],[80.3702,29.7216],[80.3748,29.7216],[80.377,29.7203],[80.377,29.7192],[80.377,29.7182],[80.3737,29.7153],[80.3738,29.7152],[80.3762,29.7128],[80.3761,29.7116],[80.3761,29.7115],[80.3788,29.7025],[80.3816,29.701],[80.3822,29.6886],[80.3862,29.6858],[80.3859,29.6816],[80.385,29.679],[80.386,29.675],[80.3918,29.6711],[80.3912,29.6679],[80.3911,29.6674],[80.3922,29.6645],[80.4004,29.6626],[80.4007,29.6622],[80.401,29.6617],[80.4004,29.661],[80.3999,29.6592],[80.4004,29.6586],[80.4082,29.6596],[80.4117,29.6536],[80.4159,29.6542],[80.417,29.6528],[80.4182,29.6512],[80.4163,29.6483],[80.4157,29.6443],[80.4176,29.6416],[80.4219,29.6391],[80.4212,29.634],[80.422,29.6321],[80.4228,29.6302],[80.4199,29.6264],[80.4127,29.6253],[80.4102,29.6215],[80.4098,29.6151],[80.4074,29.6128],[80.4097,29.6098],[80.4106,29.6049],[80.4095,29.5949],[80.4094,29.5948],[80.4049,29.5895],[80.3932,29.5816],[80.3919,29.5746],[80.39,29.572],[80.3808,29.5715],[80.3806,29.5642],[80.3805,29.5613],[80.3654,29.5641],[80.3647,29.5628],[80.364,29.5616],[80.3657,29.5567],[80.3657,29.5566],[80.3589,29.5551],[80.3506,29.5554],[80.3476,29.5542],[80.3444,29.5529],[80.3473,29.5486],[80.3434,29.5416],[80.3478,29.541],[80.3483,29.5411],[80.3491,29.5408],[80.3497,29.5406],[80.3507,29.5402],[80.3539,29.5363],[80.359,29.5337],[80.3594,29.5328],[80.3598,29.5319],[80.3584,29.5295],[80.3501,29.5235],[80.351,29.5202],[80.3513,29.5189],[80.3442,29.511],[80.3421,29.5099],[80.3384,29.5119],[80.3367,29.5129],[80.3353,29.5128],[80.3326,29.5082],[80.3325,29.5081],[80.3304,29.5053],[80.3297,29.505],[80.315,29.4978],[80.3145,29.4966],[80.3161,29.4928],[80.3161,29.4926],[80.3152,29.4848],[80.3114,29.4853],[80.3058,29.4861],[80.3028,29.4893],[80.3016,29.4906],[80.3014,29.4905],[80.2979,29.4882],[80.2978,29.488],[80.2978,29.4876],[80.298,29.4834],[80.2948,29.4789],[80.2884,29.4772],[80.2897,29.472],[80.2953,29.4643],[80.2982,29.4604],[80.3029,29.4571],[80.3045,29.4544],[80.3044,29.4539],[80.3044,29.4538],[80.3042,29.4531],[80.2998,29.451],[80.2994,29.4509],[80.2975,29.4536],[80.2945,29.4532],[80.2901,29.4501],[80.2889,29.4509],[80.2825,29.451],[80.2822,29.451],[80.2806,29.4539],[80.2817,29.4563],[80.2822,29.4575],[80.2771,29.4584],[80.271,29.4551],[80.2757,29.4526],[80.2766,29.451],[80.276,29.4495],[80.2714,29.4507],[80.2686,29.4485],[80.266,29.4495],[80.2598,29.4518],[80.2587,29.45],[80.2574,29.448],[80.2523,29.4473],[80.2477,29.4467],[80.2448,29.4445],[80.2447,29.4411],[80.2475,29.4384],[80.249,29.4368],[80.249,29.4324],[80.2457,29.4235],[80.2477,29.416],[80.2433,29.4116],[80.2461,29.4089],[80.2477,29.4074],[80.2478,29.4073],[80.2556,29.404],[80.2569,29.4032],[80.2658,29.3972],[80.2705,29.3957],[80.2713,29.3954],[80.274,29.3949],[80.2769,29.3922],[80.2746,29.3862],[80.2806,29.3789],[80.2743,29.375],[80.2728,29.3732],[80.2734,29.3712],[80.2734,29.3711],[80.2729,29.3637],[80.2808,29.3599],[80.281,29.3505],[80.2811,29.3476],[80.2851,29.3419],[80.2922,29.3366],[80.2929,29.3302],[80.2931,29.33],[80.2986,29.3237],[80.304,29.323],[80.3113,29.3221],[80.3181,29.3156],[80.3186,29.3134],[80.3176,29.3082],[80.3201,29.3038],[80.3199,29.3028],[80.3196,29.3016],[80.313,29.2915],[80.3078,29.2889],[80.306,29.2853],[80.3057,29.2729],[80.3057,29.2728],[80.3033,29.2646],[80.3011,29.2617],[80.3018,29.2556],[80.3019,29.255],[80.3002,29.2496],[80.302,29.2454],[80.302,29.242],[80.2924,29.2319],[80.2925,29.2298],[80.2973,29.2222],[80.2978,29.2214],[80.2968,29.2176],[80.2964,29.2161],[80.2958,29.2107],[80.299,29.205],[80.2953,29.1976],[80.2913,29.1952],[80.2862,29.1968],[80.2834,29.2008],[80.2827,29.2017],[80.2766,29.207],[80.2749,29.207],[80.2625,29.2067],[80.2595,29.2108],[80.2591,29.2142],[80.2586,29.2178],[80.2544,29.2214],[80.2504,29.2207],[80.2499,29.2206],[80.2488,29.2153],[80.2462,29.2124],[80.2444,29.2079],[80.2426,29.2037],[80.2424,29.2033],[80.2436,29.2004],[80.2493,29.1971],[80.2518,29.1956],[80.2596,29.1874],[80.2623,29.1747],[80.2601,29.1705],[80.26,29.1658],[80.2673,29.1534],[80.2744,29.1448],[80.2734,29.142],[80.2708,29.1405],[80.261,29.1399],[80.2557,29.1379],[80.2505,29.129],[80.2481,29.127],[80.2469,29.1271],[80.2397,29.1212],[80.2393,29.1209],[80.235,29.1184],[80.2114,29.1218],[80.2075,29.125],[80.2074,29.1253],[80.2052,29.1293],[80.1972,29.1314],[80.196,29.1317],[80.1893,29.1355],[80.186,29.1373],[80.1852,29.1367],[80.1832,29.1353],[80.1798,29.1285],[80.1766,29.1267],[80.1695,29.1257],[80.1655,29.1169],[80.1599,29.1129],[80.146,29.103],[80.1314,29.0645],[80.1301,29.061],[80.1304,29.0609],[80.1382,29.0589],[80.1281,29.0317],[80.133,29.0304],[80.1294,29.0211],[80.1278,29.017],[80.1263,29.013],[80.1379,29.0095],[80.1376,29.0084],[80.1373,29.0073],[80.1288,29.006],[80.1285,29.0059],[80.1196,28.9817],[80.1097,28.9843],[80.1019,28.9864],[80.0977,28.9752],[80.0671,28.9273],[80.0601,28.9163],[80.0629,28.8832],[80.0663,28.8373],[80.0724,28.8297],[80.0703,28.8296],[80.0701,28.8297],[80.0696,28.8299],[80.0638,28.8319],[80.0584,28.8353],[80.0341,28.8098],[80.0336,28.8055],[80.032,28.8035],[80.0257,28.7999],[80.0274,28.7974],[80.0327,28.7942],[80.0362,28.7907],[80.0405,28.7831],[80.0382,28.7751],[80.0345,28.769],[80.034,28.7664],[80.0348,28.7632],[80.0334,28.7614],[80.0312,28.7606],[80.0291,28.7581],[80.023,28.7487],[80.0136,28.7374],[80.0057,28.7295],[80.0029,28.7269],[79.9996,28.7256],[79.9883,28.717],[79.9748,28.7168],[79.9678,28.7156],[79.9529,28.7175],[79.9409,28.7215],[79.9295,28.7265],[79.9224,28.7327],[79.9223,28.7383],[79.9215,28.745],[79.9181,28.7522],[79.9117,28.7593],[79.9101,28.7633],[79.912,28.765],[79.9057,28.7721],[79.8993,28.7739],[79.8945,28.779],[79.8921,28.7813],[79.8889,28.7858],[79.8934,28.7919],[79.8981,28.7949],[79.9006,28.7994],[79.9013,28.8021],[79.8948,28.8015],[79.886,28.7988],[79.8801,28.7968],[79.8731,28.7965],[79.8673,28.7964],[79.8597,28.7985],[79.8534,28.8008],[79.8465,28.805],[79.8405,28.8087],[79.8433,28.815],[79.8462,28.8213],[79.8497,28.8217],[79.8542,28.8208],[79.8604,28.8179],[79.8712,28.8164],[79.8756,28.8183],[79.8755,28.8213],[79.8753,28.8302],[79.871,28.8307],[79.8606,28.8341],[79.8556,28.8391],[79.8547,28.8414],[79.854,28.8443],[79.8495,28.8454],[79.8441,28.8435],[79.8417,28.8426],[79.8338,28.8444],[79.8297,28.8467],[79.8245,28.8448],[79.8223,28.8418],[79.8138,28.8317],[79.8128,28.8302],[79.8157,28.8247],[79.8162,28.8217],[79.8147,28.8191],[79.815,28.8146],[79.8159,28.8123],[79.8141,28.8106],[79.8113,28.8114],[79.8091,28.8108],[79.805,28.8087],[79.8042,28.8071],[79.803,28.8056],[79.8013,28.8045],[79.7947,28.8038],[79.792,28.803],[79.7854,28.8062],[79.7834,28.8054],[79.7821,28.8132],[79.7862,28.8209],[79.7894,28.8197],[79.7919,28.8152],[79.7948,28.8147],[79.797,28.8165],[79.7978,28.8208],[79.7999,28.8247],[79.8012,28.8296],[79.8015,28.8333],[79.7992,28.8362],[79.7937,28.8393],[79.7943,28.843],[79.7982,28.846],[79.7982,28.848],[79.7967,28.8496],[79.7946,28.8529],[79.7999,28.8543],[79.8081,28.8563],[79.809,28.8589],[79.8086,28.8628],[79.8069,28.8663],[79.8057,28.8691],[79.8028,28.8718],[79.797,28.8705],[79.7949,28.8699],[79.7916,28.8704],[79.7913,28.8738],[79.7906,28.8774],[79.7745,28.8918],[79.762,28.8897],[79.7598,28.8895],[79.75,28.8934],[79.7487,28.8915],[79.7449,28.8898],[79.7413,28.8854],[79.7404,28.8832],[79.7373,28.8826],[79.7328,28.8831],[79.7284,28.8851],[79.7181,28.8828],[79.7156,28.8818],[79.7122,28.8807],[79.7096,28.8792],[79.7067,28.8752],[79.7056,28.8724],[79.7052,28.8702],[79.7019,28.8699],[79.6971,28.8703],[79.6923,28.8683],[79.6881,28.8682],[79.6864,28.867],[79.6843,28.8573],[79.6729,28.8576],[79.6671,28.8541],[79.6673,28.85],[79.6662,28.8483],[79.6595,28.8477],[79.6541,28.8487],[79.6439,28.8529],[79.6433,28.8532],[79.6411,28.8565],[79.6346,28.8584],[79.6308,28.8589],[79.624,28.8627],[79.619,28.8676],[79.6135,28.8687],[79.6087,28.8667],[79.6036,28.8647],[79.5981,28.8649],[79.5923,28.8666],[79.582,28.8558],[79.5788,28.8524],[79.5766,28.8503],[79.5743,28.8493],[79.5719,28.849],[79.5658,28.8495],[79.5635,28.8488],[79.5623,28.8479],[79.5594,28.8467],[79.5572,28.8457],[79.5536,28.8451],[79.5509,28.8459],[79.5482,28.85],[79.5477,28.8543],[79.5499,28.8602],[79.5512,28.8632],[79.5513,28.8661],[79.5517,28.8682],[79.5537,28.8748],[79.554,28.8785],[79.5525,28.8815],[79.5505,28.8842],[79.5433,28.8907],[79.5387,28.8924],[79.5365,28.8925],[79.5331,28.8903],[79.5299,28.8869],[79.5259,28.882],[79.5226,28.8763],[79.52,28.8733],[79.5173,28.8706],[79.5141,28.8676],[79.5101,28.8647],[79.5072,28.8633],[79.5025,28.8628],[79.4969,28.8624],[79.4914,28.8626],[79.4865,28.8646],[79.4826,28.8662],[79.4766,28.8672],[79.4678,28.8649],[79.4647,28.8628],[79.4634,28.8605],[79.4597,28.8592],[79.4551,28.8601],[79.4478,28.8601],[79.4398,28.861],[79.4335,28.8616],[79.4303,28.8598],[79.4275,28.8573],[79.4239,28.8552],[79.4196,28.8553],[79.4171,28.8558],[79.4112,28.8559],[79.4088,28.858],[79.4062,28.8623],[79.4049,28.8675],[79.4048,28.8711],[79.4043,28.8749],[79.4019,28.8773],[79.3979,28.881],[79.3957,28.8854],[79.4004,28.8956],[79.4011,28.8998],[79.4012,28.9019],[79.4001,28.911],[79.399,28.917],[79.4014,28.9214],[79.4026,28.929],[79.4014,28.9323],[79.3983,28.9352],[79.3956,28.9368],[79.3894,28.9383],[79.385,28.9373],[79.3793,28.9363],[79.377,28.937],[79.3749,28.9394],[79.3734,28.9419],[79.3725,28.9476],[79.3722,28.9512],[79.3707,28.9546],[79.369,28.9577],[79.3674,28.9599],[79.3651,28.962],[79.3634,28.9667],[79.3597,28.9705],[79.3571,28.968],[79.3551,28.9653],[79.3529,28.9612],[79.3528,28.9588],[79.3539,28.9568],[79.3548,28.9534],[79.3519,28.9524],[79.3496,28.9521],[79.3439,28.9531],[79.3376,28.9545],[79.3337,28.955],[79.3288,28.9554],[79.321,28.9568],[79.3166,28.9568],[79.3122,28.9581],[79.3072,28.9585],[79.3047,28.9539],[79.3015,28.9529],[79.2989,28.9531],[79.2955,28.9543],[79.286,28.9605],[79.2789,28.9648],[79.2737,28.9729],[79.2705,28.9754],[79.2685,28.9774],[79.2643,28.9821],[79.258,28.9869],[79.25,28.9922],[79.2439,28.9965],[79.2394,28.9999],[79.2377,29.0068],[79.2215,29.0173],[79.2112,29.0237],[79.204,29.0291],[79.1991,29.0253],[79.1976,29.0221],[79.183,29.0242],[79.1849,29.018],[79.1776,29.0196],[79.1686,29.0159],[79.1656,29.0173],[79.1641,29.0206],[79.1583,29.0229],[79.1545,29.0274],[79.1542,29.0329],[79.1587,29.0342],[79.1602,29.0433],[79.1654,29.0513],[79.1535,29.0548],[79.1437,29.0601],[79.137,29.0693],[79.1347,29.0819],[79.137,29.0909],[79.1432,29.0989],[79.144,29.1066],[79.1422,29.1197],[79.1338,29.1242],[79.1308,29.1294],[79.1178,29.1339],[79.1136,29.1307],[79.1085,29.1304],[79.1007,29.1317],[79.0922,29.1367],[79.0729,29.152],[79.0595,29.1563],[79.0544,29.1552],[79.0461,29.1547],[79.0382,29.1663],[79.0338,29.1711],[79.027,29.1723],[79.0261,29.172],[79.0231,29.1708],[79.0218,29.1673],[79.0239,29.1634],[79.0275,29.1607],[79.0274,29.1559],[79.0287,29.1524],[79.0264,29.1499],[79.0215,29.1508],[79.017,29.154],[79.0134,29.1577],[79.011,29.1572],[79.0105,29.153],[79.0128,29.1491],[79.012,29.1449],[79.0086,29.1394],[79.0088,29.1362],[79.0119,29.1347],[79.019,29.1351],[79.0235,29.1331],[79.0277,29.133],[79.031,29.1302],[79.0297,29.1254],[79.0261,29.1215],[79.0219,29.1189],[79.017,29.1179],[79.0066,29.1205],[79.0006,29.1166],[78.9984,29.1229],[78.9947,29.1254],[78.9954,29.1293],[78.9926,29.1336],[78.9881,29.1351],[78.9835,29.1373],[78.9826,29.147],[78.979,29.1548],[78.9732,29.1608],[78.9666,29.1656],[78.9623,29.1668],[78.9606,29.1659],[78.9604,29.1646],[78.9613,29.1632],[78.9608,29.1616],[78.9561,29.1604],[78.9515,29.1597],[78.9489,29.1528],[78.9444,29.1496],[78.9337,29.1542],[78.9236,29.1571],[78.9208,29.1529],[78.9145,29.149],[78.9004,29.1506],[78.8983,29.1549],[78.8959,29.1558],[78.895,29.1568],[78.8996,29.1614],[78.9048,29.1632],[78.9057,29.1652],[78.9033,29.1677],[78.9045,29.1706],[78.9024,29.1745],[78.9057,29.1775],[78.9057,29.1803],[78.9013,29.1827],[78.8991,29.1906],[78.8943,29.1959],[78.8972,29.1987],[78.8992,29.2026],[78.8936,29.2048],[78.8877,29.2103],[78.8923,29.2129],[78.8921,29.2149],[78.891,29.2165],[78.8869,29.2178],[78.8845,29.2195],[78.8829,29.2253],[78.8701,29.2285],[78.8696,29.2295],[78.873,29.2323],[78.8736,29.2353],[78.871,29.2407],[78.8641,29.2495],[78.8579,29.2522],[78.8544,29.2554],[78.8538,29.2592],[78.8526,29.2613],[78.8506,29.2622],[78.8467,29.2582],[78.8452,29.2581],[78.8423,29.2543],[78.8341,29.2562],[78.8332,29.2594],[78.8313,29.2607],[78.8276,29.2579],[78.8229,29.2558],[78.8161,29.2538],[78.8138,29.2523],[78.7999,29.2579],[78.7929,29.2626],[78.7899,29.263],[78.7874,29.2653],[78.786,29.273],[78.7815,29.2712],[78.7586,29.2867],[78.7668,29.2859],[78.7655,29.2899],[78.7611,29.2933],[78.7468,29.3027],[78.7389,29.3063],[78.7314,29.311],[78.7276,29.3128],[78.7208,29.3123],[78.7139,29.3174],[78.7141,29.3193],[78.7198,29.3184],[78.7211,29.3195],[78.7273,29.3175],[78.7286,29.319],[78.7259,29.3251],[78.7257,29.33],[78.7277,29.3314],[78.7283,29.3342],[78.7316,29.3343],[78.7348,29.3318],[78.7415,29.3326],[78.7416,29.3359],[78.7461,29.3409],[78.747,29.3433],[78.7574,29.3498],[78.7635,29.3474],[78.7653,29.3457],[78.7638,29.3432],[78.7659,29.3411],[78.7696,29.3407],[78.7791,29.3423],[78.7809,29.3435],[78.7825,29.3464],[78.7844,29.3429],[78.7813,29.332],[78.7888,29.3293],[78.7913,29.335],[78.7974,29.337],[78.7979,29.3383],[78.7927,29.3434],[78.7917,29.3479],[78.7901,29.3504],[78.7901,29.3521],[78.7972,29.3556],[78.8068,29.3732],[78.8078,29.3803],[78.809,29.3829],[78.8116,29.3847],[78.815,29.3853],[78.811,29.3803],[78.8118,29.3723],[78.8142,29.37],[78.8239,29.3684],[78.8288,29.3682],[78.8344,29.3697],[78.8363,29.3714],[78.8358,29.3723],[78.8347,29.3743],[78.8319,29.3766],[78.8325,29.3813],[78.8363,29.3814],[78.8404,29.3799],[78.8568,29.3856],[78.8598,29.3877],[78.86,29.3893],[78.8589,29.3915],[78.8602,29.3939],[78.8626,29.3946],[78.866,29.3931],[78.8702,29.3924],[78.8728,29.3986],[78.8828,29.4048],[78.8872,29.409],[78.8906,29.4164],[78.8965,29.4236],[78.9004,29.4467],[78.9071,29.4518],[78.9229,29.4562],[78.9198,29.4601],[78.9003,29.4562],[78.896,29.4562],[78.8901,29.4575],[78.8827,29.4578],[78.8754,29.46],[78.8658,29.4596],[78.8461,29.4637],[78.8301,29.4685],[78.8238,29.4697],[78.8167,29.4686],[78.8114,29.4698],[78.797,29.476],[78.7855,29.476],[78.7747,29.4809],[78.7658,29.4838],[78.7423,29.5012],[78.7391,29.505],[78.7315,29.5057],[78.7266,29.5087],[78.7083,29.5094],[78.6934,29.5089],[78.6854,29.5135],[78.6766,29.5214],[78.6504,29.5407],[78.6396,29.5478],[78.6215,29.5529],[78.6152,29.5579],[78.6052,29.5618],[78.5765,29.5806],[78.5612,29.5937],[78.5305,29.6239],[78.5274,29.6244],[78.5255,29.6298],[78.5177,29.6392],[78.5115,29.6507],[78.5092,29.6597],[78.5096,29.6685],[78.5076,29.6729],[78.5072,29.677],[78.5074,29.6908],[78.506,29.6939],[78.5018,29.7117],[78.5003,29.7153],[78.4902,29.7249],[78.4876,29.7414],[78.4736,29.7485],[78.4647,29.751],[78.4522,29.7521],[78.4321,29.7581],[78.4243,29.7617],[78.4126,29.7724],[78.4084,29.7734],[78.3984,29.7721],[78.386,29.7739],[78.3513,29.7863],[78.3385,29.7925],[78.3319,29.7961],[78.3317,29.7962],[78.3029,29.7576],[78.2819,29.7423],[78.2648,29.7268],[78.2314,29.7041],[78.2213,29.7176],[78.1935,29.7101],[78.1923,29.7066],[78.1822,29.6916],[78.1659,29.6795],[78.1391,29.6761],[78.134,29.6585],[78.1148,29.6452],[78.1091,29.6367],[78.107,29.6332],[78.0975,29.6308],[78.0968,29.6306],[78.0942,29.628],[78.0906,29.6248],[78.0887,29.6133],[78.0821,29.6018],[78.0785,29.5995],[78.0732,29.5999],[78.0683,29.6014],[78.0592,29.6016],[78.0507,29.5981],[78.0439,29.5931],[78.0398,29.588],[78.0365,29.5809],[78.0373,29.5778],[78.0407,29.5753],[78.0426,29.5719],[78.0372,29.5653],[78.0383,29.5614],[78.0369,29.5526],[78.0326,29.5517],[78.0193,29.5541],[78.0166,29.5546],[78.0035,29.5561],[77.9942,29.5551],[77.988,29.5459],[77.9789,29.5541],[77.9771,29.5581],[77.9768,29.5638],[77.9788,29.5682],[77.9808,29.5688],[77.984,29.5799],[77.9846,29.5846],[77.9838,29.5881],[77.9823,29.589],[77.981,29.5878],[77.9788,29.5854],[77.977,29.5833],[77.973,29.5833],[77.9727,29.5832],[77.9696,29.5852],[77.9674,29.5857],[77.9663,29.5845],[77.9634,29.5838],[77.9617,29.586],[77.9599,29.5862],[77.956,29.5844],[77.9532,29.5847],[77.9516,29.5869],[77.9498,29.5881],[77.9482,29.5903],[77.9473,29.5904],[77.9483,29.5914],[77.9485,29.5934],[77.9488,29.5955],[77.9509,29.5984],[77.9532,29.6024],[77.9524,29.6035],[77.951,29.6078],[77.9504,29.611],[77.9497,29.6131],[77.9519,29.616],[77.9557,29.6168],[77.9582,29.6145],[77.9599,29.6123],[77.9624,29.61],[77.9663,29.6117],[77.9703,29.6135],[77.9746,29.6111],[77.9768,29.614],[77.9754,29.6183],[77.9749,29.6225],[77.9735,29.6268],[77.9731,29.632],[77.9747,29.6381],[77.977,29.6421],[77.9754,29.6443],[77.9745,29.6444],[77.9717,29.6446],[77.9675,29.6491],[77.9654,29.6555],[77.9667,29.6595],[77.9679,29.6615],[77.9689,29.6625],[77.9691,29.6645],[77.9694,29.6666],[77.9705,29.6686],[77.9716,29.6705],[77.9728,29.6725],[77.9721,29.6747],[77.9722,29.6757],[77.9713,29.6758],[77.9692,29.6739],[77.9632,29.6702],[77.9623,29.6703],[77.9616,29.6724],[77.9583,29.6768],[77.9567,29.679],[77.9541,29.6813],[77.9518,29.6857],[77.9473,29.6871],[77.9454,29.6872],[77.9447,29.6894],[77.9438,29.6894],[77.9449,29.6914],[77.9431,29.6916],[77.9433,29.6936],[77.9463,29.6955],[77.9436,29.6967],[77.9411,29.7],[77.9423,29.702],[77.9462,29.7038],[77.952,29.7054],[77.9494,29.7077],[77.9425,29.7124],[77.9408,29.7146],[77.939,29.7148],[77.9367,29.7139],[77.9305,29.7131],[77.9272,29.7146],[77.9249,29.7127],[77.9202,29.7139],[77.9162,29.7117],[77.9107,29.7055],[77.9096,29.7064],[77.908,29.7053],[77.9095,29.7038],[77.9084,29.7029],[77.9063,29.7041],[77.9048,29.7026],[77.9102,29.6989],[77.8999,29.6978],[77.8868,29.7007],[77.8822,29.7],[77.8772,29.7004],[77.8739,29.702],[77.87,29.6988],[77.8699,29.694],[77.8662,29.6934],[77.8585,29.6881],[77.8541,29.6889],[77.8486,29.6842],[77.8471,29.6806],[77.8429,29.6813],[77.8407,29.6794],[77.8384,29.6755],[77.8343,29.6719],[77.829,29.6693],[77.8213,29.669],[77.8111,29.6725],[77.8045,29.6769],[77.7925,29.6819],[77.7892,29.6859],[77.7974,29.6978],[77.7949,29.7005],[77.7827,29.7083],[77.7698,29.7099],[77.762,29.7118],[77.7589,29.7134],[77.7577,29.7159],[77.7638,29.7261],[77.7679,29.7306],[77.7693,29.7346],[77.7674,29.7378],[77.7619,29.7438],[77.7609,29.7527],[77.7617,29.7558],[77.7657,29.7637],[77.7635,29.7704],[77.7654,29.7757],[77.7607,29.7788],[77.7605,29.7813],[77.7647,29.7855],[77.753,29.7974],[77.7493,29.8044],[77.7421,29.8095],[77.7413,29.8114],[77.744,29.8163],[77.7423,29.8246],[77.739,29.8303],[77.732,29.8346],[77.7292,29.8376],[77.7309,29.8419],[77.7301,29.8531],[77.7133,29.8565],[77.7096,29.8595],[77.706,29.8637],[77.7033,29.8677],[77.702,29.8718],[77.7032,29.8785],[77.7025,29.8857],[77.703,29.8898],[77.7111,29.8881],[77.713,29.8916],[77.7175,29.8946],[77.7201,29.9028],[77.7248,29.9059],[77.7272,29.909],[77.7311,29.9113],[77.733,29.9135],[77.7296,29.9228],[77.7288,29.9286],[77.7242,29.9301],[77.7189,29.9328],[77.7177,29.935],[77.7207,29.939],[77.7254,29.9435],[77.729,29.9456],[77.7295,29.9519],[77.7327,29.955],[77.7401,29.9589],[77.7435,29.9638],[77.745,29.9676],[77.7441,29.9719],[77.731,29.9843],[77.7301,29.9875],[77.7368,29.9907],[77.7408,29.9941],[77.7432,30.006],[77.7446,30.0088],[77.7464,30.0113],[77.7491,30.0141],[77.7533,30.0174],[77.7576,30.0195],[77.7597,30.0204],[77.7629,30.0216],[77.7678,30.0229],[77.7694,30.0238],[77.7723,30.0263],[77.7735,30.0296],[77.7739,30.0321],[77.7733,30.033],[77.7726,30.0337],[77.7701,30.0369],[77.7657,30.0397],[77.7639,30.0422],[77.762,30.0432],[77.7598,30.0449],[77.7582,30.0465],[77.7576,30.0482],[77.7583,30.0505],[77.7615,30.0554],[77.7644,30.0609],[77.7653,30.0631],[77.7679,30.0669],[77.7691,30.0681],[77.7698,30.0684],[77.7719,30.0725],[77.7734,30.0739],[77.7752,30.0763],[77.7759,30.0777],[77.7773,30.0824],[77.7787,30.0854],[77.7801,30.0892],[77.7817,30.0909],[77.7828,30.0933],[77.7851,30.0968],[77.786,30.0991],[77.7864,30.1],[77.7896,30.1015],[77.7919,30.1019],[77.7939,30.1011],[77.795,30.1006],[77.7977,30.0989],[77.7987,30.0979],[77.801,30.0962],[77.8028,30.0946],[77.8041,30.0936],[77.8055,30.092],[77.8081,30.0902],[77.8107,30.0895],[77.8131,30.0896],[77.8152,30.0902],[77.8179,30.0916],[77.82,30.0936],[77.8219,30.0969],[77.8219,30.0989],[77.824,30.1013],[77.8253,30.1047],[77.8266,30.1055],[77.8284,30.1061],[77.8306,30.1072],[77.8328,30.108],[77.8361,30.11],[77.8375,30.1114],[77.8385,30.1123],[77.8427,30.1168],[77.8436,30.1183],[77.8447,30.1195],[77.8472,30.1235],[77.8481,30.1245],[77.8505,30.1287],[77.8523,30.1309],[77.8553,30.1336],[77.8579,30.1381],[77.8591,30.1405],[77.8599,30.1416],[77.8613,30.1441],[77.8644,30.1499],[77.865,30.1521],[77.8655,30.1551],[77.8687,30.1588],[77.872,30.163],[77.8733,30.1639],[77.8766,30.167],[77.878,30.1686],[77.8794,30.1697],[77.8879,30.1787],[77.8901,30.1804],[77.8928,30.1834],[77.896,30.1863],[77.8971,30.1882],[77.8983,30.1923],[77.899,30.1949],[77.8999,30.204],[77.9004,30.2058],[77.9023,30.2098],[77.9031,30.2131],[77.9044,30.2152],[77.9076,30.217],[77.9114,30.2188],[77.9145,30.2218],[77.9181,30.2248],[77.9218,30.2297],[77.9232,30.2318],[77.9271,30.2364],[77.9293,30.24],[77.9298,30.2418],[77.9303,30.243],[77.9315,30.247],[77.9282,30.2478],[77.9254,30.2487],[77.9239,30.2498],[77.9219,30.2517],[77.92,30.254],[77.9168,30.2562],[77.9136,30.2576],[77.9103,30.2593],[77.908,30.2607],[77.9036,30.2627],[77.9003,30.2644],[77.8964,30.266],[77.8916,30.2674],[77.8902,30.2682],[77.8822,30.2705],[77.8799,30.2719],[77.874,30.2742],[77.8715,30.2744],[77.8689,30.2721],[77.8671,30.2711],[77.8655,30.2705],[77.861,30.2714],[77.8579,30.2724],[77.8559,30.2739],[77.8519,30.2766],[77.8476,30.2788],[77.8425,30.2803],[77.8403,30.2812],[77.8363,30.2823],[77.8328,30.2838],[77.8287,30.2847],[77.8241,30.2864],[77.8186,30.2892],[77.8124,30.2908],[77.8091,30.2922],[77.8074,30.2936],[77.8018,30.296],[77.7993,30.2976],[77.7889,30.3037],[77.7843,30.3055],[77.7832,30.3064],[77.7785,30.3093],[77.7773,30.3099],[77.773,30.3131],[77.765,30.3174],[77.7627,30.3185],[77.7607,30.3191],[77.7587,30.3201],[77.7571,30.321],[77.7513,30.3246],[77.7483,30.3254],[77.7426,30.3276],[77.7402,30.3283],[77.7377,30.3282],[77.7358,30.3293],[77.7324,30.3299],[77.7297,30.3315],[77.7255,30.3329],[77.7227,30.3342],[77.7209,30.3354],[77.7177,30.3361],[77.7154,30.3369],[77.7131,30.3379],[77.7108,30.3388],[77.7099,30.3399],[77.7077,30.3413],[77.7049,30.3439],[77.7011,30.3475],[77.6977,30.3503],[77.6971,30.3516],[77.6943,30.3553],[77.6934,30.3557],[77.6928,30.3572],[77.6913,30.3582],[77.6906,30.3597],[77.6871,30.3646],[77.686,30.3669],[77.6843,30.3682],[77.6839,30.3696],[77.6827,30.3714],[77.6803,30.3743],[77.6798,30.3756],[77.6775,30.3791],[77.677,30.3808],[77.6739,30.3846],[77.6733,30.3857],[77.6718,30.3839],[77.6688,30.3835],[77.6669,30.3837],[77.6658,30.3834],[77.6641,30.384],[77.6632,30.3847],[77.6635,30.3856],[77.6637,30.3875],[77.663,30.3906],[77.6624,30.3917],[77.6615,30.3927],[77.6613,30.3932],[77.6603,30.3937],[77.6597,30.3939],[77.6581,30.394],[77.6553,30.3948],[77.6519,30.3955],[77.6476,30.3981],[77.6457,30.402],[77.6445,30.4026],[77.643,30.4045],[77.6414,30.4054],[77.6399,30.4064],[77.6394,30.4071],[77.6366,30.4092],[77.6357,30.4101],[77.6342,30.4109],[77.6329,30.4112],[77.6305,30.4109],[77.6255,30.4071],[77.6235,30.4052],[77.6221,30.4048],[77.6182,30.4053],[77.6169,30.4053],[77.6145,30.4058],[77.6112,30.4076],[77.6092,30.4104],[77.6082,30.4102],[77.6071,30.4096],[77.606,30.4095],[77.6041,30.4088],[77.6027,30.4084],[77.599,30.4089],[77.5978,30.4089],[77.5925,30.4095],[77.5911,30.409],[77.5878,30.4085],[77.587,30.4081],[77.5864,30.408],[77.5847,30.4088],[77.5844,30.41],[77.5797,30.4119],[77.5775,30.4125],[77.575,30.4117],[77.5728,30.4103],[77.5711,30.4086],[77.5696,30.4079],[77.5686,30.4068],[77.5671,30.4048],[77.5631,30.4045],[77.5622,30.4101],[77.5629,30.4171],[77.5679,30.4217],[77.5746,30.4265],[77.5811,30.4303],[77.5904,30.4338],[77.6038,30.4374],[77.612,30.4384],[77.6167,30.4362],[77.6305,30.4362],[77.6333,30.4398],[77.6357,30.4443],[77.6378,30.4495],[77.6402,30.4524],[77.6467,30.4525],[77.6532,30.4495],[77.6616,30.4488],[77.6791,30.4517],[77.6822,30.4577],[77.6901,30.4629],[77.6992,30.4687],[77.7047,30.4734],[77.7112,30.4773],[77.7214,30.4778],[77.7293,30.4823],[77.7366,30.4873],[77.7475,30.494],[77.755,30.4983],[77.7634,30.5002],[77.7676,30.5044],[77.7882,30.5061],[77.7939,30.5086],[77.7992,30.5114],[77.8006,30.5132],[77.802,30.5154],[77.8041,30.5204],[77.805,30.5248],[77.8106,30.5332],[77.8122,30.538],[77.81,30.544],[77.8068,30.5493],[77.8069,30.5543],[77.8059,30.5607],[77.8032,30.5638],[77.7983,30.5641],[77.7952,30.5611],[77.7906,30.5603],[77.7864,30.5614],[77.7783,30.5574],[77.7746,30.5589],[77.7709,30.5624],[77.7665,30.5635],[77.7618,30.563],[77.7573,30.5656],[77.7535,30.5702],[77.7519,30.5746],[77.7495,30.58],[77.7462,30.5844],[77.7436,30.5898],[77.7386,30.5929],[77.7319,30.5962],[77.7295,30.5984],[77.7313,30.6015],[77.7316,30.6048],[77.7321,30.6071],[77.7348,30.6082],[77.7383,30.6081],[77.7425,30.6072],[77.7497,30.6014],[77.7544,30.6007],[77.7572,30.6048],[77.7556,30.6162],[77.7566,30.6203],[77.7613,30.6194],[77.7671,30.6182],[77.7722,30.6178],[77.7786,30.6179],[77.782,30.6194],[77.7796,30.6227],[77.7765,30.6261],[77.7713,30.6285],[77.7723,30.6324],[77.7755,30.6375],[77.775,30.6411],[77.7722,30.645],[77.7683,30.6515],[77.7703,30.6551],[77.7749,30.6585],[77.7791,30.6638],[77.7771,30.6656],[77.7742,30.6657],[77.7722,30.6654],[77.7695,30.6642],[77.7659,30.6653],[77.7629,30.6684],[77.7588,30.6724],[77.7542,30.6761],[77.7479,30.6781],[77.7428,30.6806],[77.7366,30.6828],[77.7334,30.6858],[77.7334,30.6935],[77.7336,30.6975],[77.7357,30.7016],[77.7369,30.705],[77.7404,30.7071],[77.7411,30.7107],[77.7373,30.7135],[77.7343,30.7167],[77.7323,30.7207],[77.7307,30.7245],[77.7252,30.7273],[77.7222,30.7306],[77.7225,30.7334],[77.7217,30.7364],[77.7203,30.7382],[77.7177,30.7389],[77.7153,30.7383],[77.7129,30.7395],[77.7116,30.7421],[77.7093,30.7442],[77.7072,30.7455],[77.7044,30.7457],[77.7007,30.745],[77.6977,30.745],[77.6939,30.7462],[77.6916,30.7483],[77.6904,30.7513],[77.6918,30.7551],[77.693,30.7579],[77.6915,30.7603],[77.6883,30.7687],[77.6927,30.7714],[77.6984,30.7734],[77.7045,30.779],[77.7086,30.7845],[77.7154,30.7942],[77.7171,30.7995],[77.7181,30.8051],[77.7194,30.8083],[77.7241,30.811],[77.7266,30.8144],[77.7309,30.8194],[77.734,30.8241],[77.7374,30.8263],[77.7404,30.8277],[77.7444,30.8299],[77.7441,30.8362],[77.7409,30.8402],[77.7334,30.8475],[77.7315,30.8508],[77.7334,30.8542],[77.7357,30.857],[77.7396,30.8602],[77.7417,30.8642],[77.741,30.8699],[77.7409,30.8743],[77.7418,30.8783],[77.7445,30.8812],[77.7477,30.8823],[77.7511,30.8827],[77.7545,30.8824],[77.7582,30.8805],[77.7603,30.8778],[77.7618,30.8751],[77.7628,30.8682],[77.7652,30.8652],[77.769,30.863],[77.7736,30.861],[77.7785,30.86],[77.7894,30.8585],[77.7889,30.865],[77.7871,30.8681],[77.7835,30.8721],[77.7836,30.8787],[77.7841,30.8822],[77.7844,30.8884],[77.7854,30.8934],[77.7864,30.896],[77.7909,30.9007],[77.7946,30.9035],[77.799,30.9088],[77.8008,30.9127],[77.7974,30.9167],[77.795,30.9204],[77.7956,30.9238],[77.7934,30.926],[77.791,30.9261],[77.7887,30.9263],[77.7819,30.9262],[77.7745,30.9253],[77.7716,30.9242],[77.7673,30.9205],[77.7632,30.9202],[77.7582,30.9204],[77.7522,30.921],[77.7456,30.9223],[77.7474,30.9287],[77.7465,30.934],[77.7436,30.9352],[77.7392,30.9367],[77.7367,30.9396],[77.7357,30.942],[77.7349,30.944],[77.7333,30.9495],[77.7346,30.9596],[77.7363,30.9636],[77.742,30.9676],[77.7539,30.9768],[77.7639,30.977],[77.7709,30.9757],[77.7784,30.9723],[77.7876,30.9657],[77.7966,30.9584],[77.8023,30.9551],[77.8075,30.9537],[77.8126,30.9528],[77.8171,30.9536],[77.8193,30.9568],[77.8189,30.9601],[77.8164,30.962],[77.8132,30.9624],[77.8046,30.961],[77.8016,30.9636],[77.7974,30.9678],[77.7964,30.9698],[77.7973,30.973],[77.7987,30.9761],[77.8032,30.9797],[77.8052,30.9816],[77.8062,30.9835],[77.8065,30.985],[77.8062,30.9881],[77.8075,30.9938],[77.8109,30.9954],[77.8136,30.9989],[77.8103,31.0021],[77.8101,31.0052],[77.8247,31.0052],[77.8253,31.0081],[77.8227,31.0118],[77.8188,31.0158],[77.8211,31.0211],[77.8216,31.0299],[77.8188,31.0323],[77.8151,31.0339],[77.8107,31.0436],[77.805,31.0541],[77.8049,31.0588],[77.8006,31.0621],[77.8069,31.0623],[77.8096,31.0614],[77.8095,31.0597],[77.8147,31.0609],[77.8195,31.0649],[77.8247,31.0744],[77.831,31.077],[77.8375,31.0775],[77.8428,31.0813],[77.8504,31.0952],[77.8501,31.1042],[77.8515,31.111],[77.8579,31.1162],[77.8728,31.1232],[77.8787,31.1247],[77.8791,31.1316],[77.8804,31.1374],[77.8858,31.1431],[77.8897,31.149],[77.8875,31.1547],[77.8928,31.1573],[77.9022,31.1588],[77.9094,31.1555],[77.9147,31.1566],[77.9344,31.1673],[77.9392,31.1673],[77.9412,31.1712],[77.946,31.1762],[77.9548,31.1788],[77.9694,31.1652],[77.979,31.1664],[77.9852,31.168],[77.9926,31.167],[78.0077,31.1571],[78.0142,31.1549],[78.0165,31.1585],[78.0153,31.1662],[78.0162,31.1715],[78.0269,31.1802],[78.03,31.1853],[78.0387,31.1872],[78.0397,31.1875],[78.0538,31.1929],[78.0592,31.1924],[78.0711,31.1928],[78.0755,31.1929],[78.0801,31.1907],[78.0877,31.1908],[78.0924,31.1928],[78.1008,31.1998],[78.1069,31.2025],[78.1098,31.2057],[78.1138,31.2062],[78.1192,31.214],[78.1349,31.2161],[78.1371,31.2224],[78.1436,31.2241],[78.1458,31.2269],[78.1478,31.2316],[78.1531,31.2307],[78.1554,31.2303],[78.1604,31.2319],[78.1631,31.2315],[78.1658,31.2311],[78.1714,31.2318],[78.1765,31.23],[78.1849,31.2233],[78.1876,31.2222],[78.1928,31.2229],[78.2003,31.2257],[78.204,31.2341],[78.2068,31.2372],[78.2121,31.2386],[78.2184,31.2387],[78.2326,31.235],[78.2376,31.2398],[78.2375,31.2439],[78.2426,31.2434],[78.2482,31.2467],[78.2497,31.2506],[78.2532,31.2529],[78.255,31.2566],[78.2581,31.2604],[78.269,31.2714],[78.2782,31.2667],[78.2885,31.2642],[78.2934,31.266],[78.2955,31.2729],[78.2968,31.2845],[78.2984,31.2882],[78.3063,31.2862],[78.3169,31.2851],[78.3266,31.2882],[78.3361,31.2875],[78.3425,31.289],[78.3475,31.2901],[78.3563,31.2909],[78.3634,31.2901],[78.3693,31.2879],[78.3735,31.2792],[78.3814,31.2815],[78.3833,31.2743],[78.3862,31.2696],[78.3931,31.2623],[78.3913,31.253],[78.3975,31.2478],[78.4051,31.2487],[78.4144,31.2509],[78.4195,31.2599],[78.4271,31.256],[78.4317,31.2496],[78.4441,31.2442],[78.4572,31.2278],[78.4666,31.2209],[78.4672,31.2118],[78.4701,31.2038],[78.477,31.2051],[78.4866,31.2042],[78.5141,31.2039],[78.5371,31.2067],[78.5502,31.2185],[78.5563,31.2274],[78.5619,31.2296],[78.5666,31.2337],[78.5794,31.235],[78.5839,31.2343],[78.5954,31.2364],[78.6006,31.2359],[78.61,31.2311],[78.6133,31.2274],[78.6171,31.2252],[78.6283,31.2219],[78.6345,31.2219],[78.636,31.2196],[78.638,31.2084],[78.6455,31.2025],[78.6477,31.1947],[78.6507,31.1979],[78.6598,31.2033],[78.6658,31.2025],[78.6761,31.2032],[78.6956,31.1963],[78.7007,31.1964],[78.7075,31.195],[78.713,31.1967],[78.7204,31.197],[78.7495,31.1944],[78.7576,31.1947],[78.7646,31.1959],[78.7709,31.1973],[78.7888,31.2045],[78.795,31.205],[78.8002,31.2024],[78.8032,31.1992],[78.8011,31.1939],[78.798,31.1889],[78.7976,31.1825],[78.8005,31.1783],[78.8117,31.1694],[78.8102,31.1639],[78.8159,31.1539],[78.8187,31.1472],[78.8247,31.1436],[78.829,31.1363],[78.8378,31.1307],[78.8443,31.128],[78.852,31.1262],[78.8623,31.1124],[78.8714,31.1073],[78.88,31.1038],[78.8842,31.1042],[78.8907,31.1061],[78.8968,31.1056],[78.8994,31.1076],[78.9006,31.1121],[78.9038,31.1155],[78.9078,31.1163],[78.9127,31.1162],[78.9205,31.1076],[78.9326,31.107],[78.9375,31.1053],[78.9421,31.105],[78.9524,31.1084],[78.9558,31.1109],[78.9657,31.1154],[78.9849,31.1165],[78.9908,31.1171],[78.9966,31.1153],[78.9967,31.1162],[78.9967,31.1176],[78.9908,31.1309],[78.9892,31.1374],[78.9871,31.1406],[78.9848,31.1409],[78.9781,31.1457],[78.9758,31.1507],[78.9777,31.1548],[78.9775,31.1702],[78.9747,31.1781],[78.9719,31.1824],[78.9685,31.1835],[78.9662,31.186],[78.9609,31.1864],[78.9528,31.1898],[78.9462,31.1936],[78.9449,31.1969],[78.9417,31.2008],[78.9359,31.2057],[78.9332,31.2146],[78.9351,31.2192],[78.9351,31.2224],[78.9196,31.2231],[78.9156,31.2252],[78.9099,31.2339],[78.9059,31.2502],[78.9069,31.2592],[78.9089,31.2589],[78.9131,31.2607],[78.9141,31.2616],[78.9146,31.2623],[78.9166,31.2666],[78.9169,31.268],[78.9167,31.275],[78.9162,31.2766],[78.916,31.2872],[78.9235,31.3015],[78.9248,31.3067],[78.9252,31.3144],[78.9231,31.3254],[78.9254,31.3318],[78.9263,31.3324],[78.9302,31.3379],[78.937,31.3425],[78.9522,31.3482],[78.9537,31.3488],[78.9612,31.352],[78.9633,31.3524],[78.9683,31.3532],[78.9688,31.353],[78.9806,31.357],[78.9897,31.3618],[78.9916,31.364],[78.9934,31.3675],[78.9931,31.3743],[78.9946,31.3793],[79.0068,31.4006],[79.0118,31.4065],[79.0137,31.4086],[79.0148,31.409],[79.0154,31.4102],[79.0158,31.4111],[79.0215,31.4146],[79.0272,31.4203],[79.0282,31.4207],[79.029,31.4227],[79.0296,31.423],[79.0305,31.424],[79.0322,31.427],[79.0331,31.4274],[79.0342,31.428],[79.034,31.4446],[79.0355,31.4532],[79.037,31.4574],[79.0382,31.4588],[79.0405,31.4621],[79.0452,31.4681],[79.0479,31.4704],[79.0521,31.4716],[79.0534,31.472],[79.0568,31.4723],[79.0603,31.4687],[79.0621,31.4676],[79.0621,31.4667],[79.0635,31.466],[79.0645,31.4651],[79.0656,31.4642],[79.0661,31.4638],[79.0762,31.4583],[79.0892,31.4552],[79.0897,31.4548],[79.0908,31.4544],[79.0913,31.4535],[79.0939,31.4524],[79.0942,31.4517],[79.1001,31.4479],[79.1226,31.4415],[79.1265,31.4398],[79.1267,31.4393],[79.1289,31.4387],[79.1296,31.4381],[79.1329,31.4347],[79.1335,31.4336],[79.1358,31.4303],[79.1364,31.43],[79.1419,31.42],[79.1427,31.4195],[79.1437,31.4172],[79.1448,31.4161],[79.1459,31.4147],[79.1469,31.4134],[79.1486,31.4111],[79.1579,31.4041],[79.1582,31.4034],[79.1635,31.3989],[79.1701,31.3865],[79.1709,31.3848],[79.1716,31.3842],[79.1723,31.3821],[79.1742,31.3774],[79.175,31.3769],[79.1751,31.3765],[79.1757,31.3758],[79.1762,31.3751],[79.1767,31.3749],[79.1776,31.3722],[79.1789,31.3713],[79.1799,31.3709],[79.1818,31.3675],[79.1861,31.3637],[79.1882,31.36],[79.1897,31.3589],[79.1911,31.358],[79.1919,31.3565],[79.1931,31.3557],[79.1942,31.355],[79.1948,31.3536]]]}}]}